{
  "type": "FeatureCollection",
  "features": [
    {
      "type": "Feature",
      "id": "bldg-1",
      "properties": {
        "building_id": "bldg-1",
        "building": "yes",
        "height": 3.7,
        "building:levels": 1,
        "type": "residential"
      },
      "geometry": {
        "type": "Polygon",
        "coordinates": [
          [
            [
              70.8713593747834,
              22.839940538924232
            ],
            [
              70.87254496993685,
              22.839940538924232
            ],
            [
              70.87254496993685,
              22.84101946571159
            ],
            [
              70.8713593747834,
              22.84101946571159
            ],
            [
              70.8713593747834,
              22.839940538924232
            ]
          ]
        ]
      }
    },
    {
      "type": "Feature",
      "id": "bldg-2",
      "properties": {
        "building_id": "bldg-2",
        "building": "yes",
        "height": 7.9,
        "building:levels": 2,
        "type": "residential"
      },
      "geometry": {
        "type": "Polygon",
        "coordinates": [
          [
            [
              70.84857695965665,
              22.739964918558137
            ],
            [
              70.84986990057327,
              22.739964918558137
            ],
            [
              70.84986990057327,
              22.741045810567535
            ],
            [
              70.84857695965665,
              22.741045810567535
            ],
            [
              70.84857695965665,
              22.739964918558137
            ]
          ]
        ]
      }
    },
    {
      "type": "Feature",
      "id": "bldg-3",
      "properties": {
        "building_id": "bldg-3",
        "building": "yes",
        "height": 3.8,
        "building:levels": 1,
        "type": "residential"
      },
      "geometry": {
        "type": "Polygon",
        "coordinates": [
          [
            [
              70.83450781035043,
              22.84224496779787
            ],
            [
              70.83577376446308,
              22.84224496779787
            ],
            [
              70.83577376446308,
              22.84301483908641
            ],
            [
              70.83450781035043,
              22.84301483908641
            ],
            [
              70.83450781035043,
              22.84224496779787
            ]
          ]
        ]
      }
    },
    {
      "type": "Feature",
      "id": "bldg-4",
      "properties": {
        "building_id": "bldg-4",
        "building": "yes",
        "height": 4.4,
        "building:levels": 1,
        "type": "residential"
      },
      "geometry": {
        "type": "Polygon",
        "coordinates": [
          [
            [
              70.85156416645209,
              22.767602353204012
            ],
            [
              70.85258397159741,
              22.767602353204012
            ],
            [
              70.85258397159741,
              22.768547909218924
            ],
            [
              70.85156416645209,
              22.768547909218924
            ],
            [
              70.85156416645209,
              22.767602353204012
            ]
          ]
        ]
      }
    },
    {
      "type": "Feature",
      "id": "bldg-5",
      "properties": {
        "building_id": "bldg-5",
        "building": "yes",
        "height": 5.4,
        "building:levels": 2,
        "type": "residential"
      },
      "geometry": {
        "type": "Polygon",
        "coordinates": [
          [
            [
              70.89621584319171,
              22.749176767655708
            ],
            [
              70.89704955891055,
              22.749176767655708
            ],
            [
              70.89704955891055,
              22.750069857130345
            ],
            [
              70.89621584319171,
              22.750069857130345
            ],
            [
              70.89621584319171,
              22.749176767655708
            ]
          ]
        ]
      }
    },
    {
      "type": "Feature",
      "id": "bldg-6",
      "properties": {
        "building_id": "bldg-6",
        "building": "yes",
        "height": 3.2,
        "building:levels": 1,
        "type": "residential"
      },
      "geometry": {
        "type": "Polygon",
        "coordinates": [
          [
            [
              70.91415260620951,
              22.755826497774187
            ],
            [
              70.91516399376025,
              22.755826497774187
            ],
            [
              70.91516399376025,
              22.75690042942928
            ],
            [
              70.91415260620951,
              22.75690042942928
            ],
            [
              70.91415260620951,
              22.755826497774187
            ]
          ]
        ]
      }
    },
    {
      "type": "Feature",
      "id": "bldg-7",
      "properties": {
        "building_id": "bldg-7",
        "building": "yes",
        "height": 16.5,
        "building:levels": 5,
        "type": "commercial"
      },
      "geometry": {
        "type": "Polygon",
        "coordinates": [
          [
            [
              70.89585864396057,
              22.752419147638072
            ],
            [
              70.89651068523494,
              22.752419147638072
            ],
            [
              70.89651068523494,
              22.753778256067875
            ],
            [
              70.89585864396057,
              22.753778256067875
            ],
            [
              70.89585864396057,
              22.752419147638072
            ]
          ]
        ]
      }
    },
    {
      "type": "Feature",
      "id": "bldg-8",
      "properties": {
        "building_id": "bldg-8",
        "building": "yes",
        "height": 5.3,
        "building:levels": 2,
        "type": "residential"
      },
      "geometry": {
        "type": "Polygon",
        "coordinates": [
          [
            [
              70.9167342553585,
              22.767543048936812
            ],
            [
              70.91741239304972,
              22.767543048936812
            ],
            [
              70.91741239304972,
              22.76869043535802
            ],
            [
              70.9167342553585,
              22.76869043535802
            ],
            [
              70.9167342553585,
              22.767543048936812
            ]
          ]
        ]
      }
    },
    {
      "type": "Feature",
      "id": "bldg-9",
      "properties": {
        "building_id": "bldg-9",
        "building": "yes",
        "height": 4.2,
        "building:levels": 1,
        "type": "residential"
      },
      "geometry": {
        "type": "Polygon",
        "coordinates": [
          [
            [
              70.84537822101541,
              22.78879608577163
            ],
            [
              70.84600573183229,
              22.78879608577163
            ],
            [
              70.84600573183229,
              22.79012354209329
            ],
            [
              70.84537822101541,
              22.79012354209329
            ],
            [
              70.84537822101541,
              22.78879608577163
            ]
          ]
        ]
      }
    },
    {
      "type": "Feature",
      "id": "bldg-10",
      "properties": {
        "building_id": "bldg-10",
        "building": "yes",
        "height": 3.8,
        "building:levels": 1,
        "type": "residential"
      },
      "geometry": {
        "type": "Polygon",
        "coordinates": [
          [
            [
              70.90139429036435,
              22.768392956410278
            ],
            [
              70.90241034478129,
              22.768392956410278
            ],
            [
              70.90241034478129,
              22.76943032463375
            ],
            [
              70.90139429036435,
              22.76943032463375
            ],
            [
              70.90139429036435,
              22.768392956410278
            ]
          ]
        ]
      }
    },
    {
      "type": "Feature",
      "id": "bldg-11",
      "properties": {
        "building_id": "bldg-11",
        "building": "yes",
        "height": 6.6,
        "building:levels": 2,
        "type": "residential"
      },
      "geometry": {
        "type": "Polygon",
        "coordinates": [
          [
            [
              70.9331610017109,
              22.82015694527627
            ],
            [
              70.93451260086415,
              22.82015694527627
            ],
            [
              70.93451260086415,
              22.821472807156614
            ],
            [
              70.9331610017109,
              22.821472807156614
            ],
            [
              70.9331610017109,
              22.82015694527627
            ]
          ]
        ]
      }
    },
    {
      "type": "Feature",
      "id": "bldg-12",
      "properties": {
        "building_id": "bldg-12",
        "building": "yes",
        "height": 4.6,
        "building:levels": 1,
        "type": "residential"
      },
      "geometry": {
        "type": "Polygon",
        "coordinates": [
          [
            [
              70.92849652729744,
              22.74359306931425
            ],
            [
              70.92925331358738,
              22.74359306931425
            ],
            [
              70.92925331358738,
              22.744229251145377
            ],
            [
              70.92849652729744,
              22.744229251145377
            ],
            [
              70.92849652729744,
              22.74359306931425
            ]
          ]
        ]
      }
    },
    {
      "type": "Feature",
      "id": "bldg-13",
      "properties": {
        "building_id": "bldg-13",
        "building": "yes",
        "height": 4.3,
        "building:levels": 1,
        "type": "residential"
      },
      "geometry": {
        "type": "Polygon",
        "coordinates": [
          [
            [
              70.87279094312404,
              22.763948390228
            ],
            [
              70.87405393313136,
              22.763948390228
            ],
            [
              70.87405393313136,
              22.764833792889352
            ],
            [
              70.87279094312404,
              22.764833792889352
            ],
            [
              70.87279094312404,
              22.763948390228
            ]
          ]
        ]
      }
    },
    {
      "type": "Feature",
      "id": "bldg-14",
      "properties": {
        "building_id": "bldg-14",
        "building": "yes",
        "height": 20.3,
        "building:levels": 6,
        "type": "commercial"
      },
      "geometry": {
        "type": "Polygon",
        "coordinates": [
          [
            [
              70.88881951385616,
              22.7494536929397
            ],
            [
              70.89006127144077,
              22.7494536929397
            ],
            [
              70.89006127144077,
              22.750113333454646
            ],
            [
              70.88881951385616,
              22.750113333454646
            ],
            [
              70.88881951385616,
              22.7494536929397
            ]
          ]
        ]
      }
    },
    {
      "type": "Feature",
      "id": "bldg-15",
      "properties": {
        "building_id": "bldg-15",
        "building": "yes",
        "height": 7.9,
        "building:levels": 2,
        "type": "residential"
      },
      "geometry": {
        "type": "Polygon",
        "coordinates": [
          [
            [
              70.91301124716001,
              22.755629971760445
            ],
            [
              70.91361566485371,
              22.755629971760445
            ],
            [
              70.91361566485371,
              22.756882340903207
            ],
            [
              70.91301124716001,
              22.756882340903207
            ],
            [
              70.91301124716001,
              22.755629971760445
            ]
          ]
        ]
      }
    },
    {
      "type": "Feature",
      "id": "bldg-16",
      "properties": {
        "building_id": "bldg-16",
        "building": "yes",
        "height": 3.5,
        "building:levels": 1,
        "type": "residential"
      },
      "geometry": {
        "type": "Polygon",
        "coordinates": [
          [
            [
              70.90848712761557,
              22.819938892537404
            ],
            [
              70.90914636333697,
              22.819938892537404
            ],
            [
              70.90914636333697,
              22.820825665120243
            ],
            [
              70.90848712761557,
              22.820825665120243
            ],
            [
              70.90848712761557,
              22.819938892537404
            ]
          ]
        ]
      }
    },
    {
      "type": "Feature",
      "id": "bldg-17",
      "properties": {
        "building_id": "bldg-17",
        "building": "yes",
        "height": 4.5,
        "building:levels": 1,
        "type": "residential"
      },
      "geometry": {
        "type": "Polygon",
        "coordinates": [
          [
            [
              70.92233039708113,
              22.80348396686457
            ],
            [
              70.923195115501,
              22.80348396686457
            ],
            [
              70.923195115501,
              22.8041348135448
            ],
            [
              70.92233039708113,
              22.8041348135448
            ],
            [
              70.92233039708113,
              22.80348396686457
            ]
          ]
        ]
      }
    },
    {
      "type": "Feature",
      "id": "bldg-18",
      "properties": {
        "building_id": "bldg-18",
        "building": "yes",
        "height": 5.6,
        "building:levels": 2,
        "type": "residential"
      },
      "geometry": {
        "type": "Polygon",
        "coordinates": [
          [
            [
              70.86626404250225,
              22.81506100687683
            ],
            [
              70.86737408847932,
              22.81506100687683
            ],
            [
              70.86737408847932,
              22.816370777070894
            ],
            [
              70.86626404250225,
              22.816370777070894
            ],
            [
              70.86626404250225,
              22.81506100687683
            ]
          ]
        ]
      }
    },
    {
      "type": "Feature",
      "id": "bldg-19",
      "properties": {
        "building_id": "bldg-19",
        "building": "yes",
        "height": 8.9,
        "building:levels": 3,
        "type": "commercial"
      },
      "geometry": {
        "type": "Polygon",
        "coordinates": [
          [
            [
              70.84483348755815,
              22.813358905289945
            ],
            [
              70.84604211559703,
              22.813358905289945
            ],
            [
              70.84604211559703,
              22.814407927048002
            ],
            [
              70.84483348755815,
              22.814407927048002
            ],
            [
              70.84483348755815,
              22.813358905289945
            ]
          ]
        ]
      }
    },
    {
      "type": "Feature",
      "id": "bldg-20",
      "properties": {
        "building_id": "bldg-20",
        "building": "yes",
        "height": 3.5,
        "building:levels": 1,
        "type": "residential"
      },
      "geometry": {
        "type": "Polygon",
        "coordinates": [
          [
            [
              70.88388372561455,
              22.792235909240084
            ],
            [
              70.88482575842924,
              22.792235909240084
            ],
            [
              70.88482575842924,
              22.792856244541483
            ],
            [
              70.88388372561455,
              22.792856244541483
            ],
            [
              70.88388372561455,
              22.792235909240084
            ]
          ]
        ]
      }
    },
    {
      "type": "Feature",
      "id": "bldg-21",
      "properties": {
        "building_id": "bldg-21",
        "building": "yes",
        "height": 12.5,
        "building:levels": 4,
        "type": "commercial"
      },
      "geometry": {
        "type": "Polygon",
        "coordinates": [
          [
            [
              70.83584289291898,
              22.804774537785075
            ],
            [
              70.83669437770385,
              22.804774537785075
            ],
            [
              70.83669437770385,
              22.80578139433801
            ],
            [
              70.83584289291898,
              22.80578139433801
            ],
            [
              70.83584289291898,
              22.804774537785075
            ]
          ]
        ]
      }
    },
    {
      "type": "Feature",
      "id": "bldg-22",
      "properties": {
        "building_id": "bldg-22",
        "building": "yes",
        "height": 3.3,
        "building:levels": 1,
        "type": "residential"
      },
      "geometry": {
        "type": "Polygon",
        "coordinates": [
          [
            [
              70.85832417137607,
              22.779571368113793
            ],
            [
              70.85952861228691,
              22.779571368113793
            ],
            [
              70.85952861228691,
              22.780354406646182
            ],
            [
              70.85832417137607,
              22.780354406646182
            ],
            [
              70.85832417137607,
              22.779571368113793
            ]
          ]
        ]
      }
    },
    {
      "type": "Feature",
      "id": "bldg-23",
      "properties": {
        "building_id": "bldg-23",
        "building": "yes",
        "height": 7.0,
        "building:levels": 2,
        "type": "residential"
      },
      "geometry": {
        "type": "Polygon",
        "coordinates": [
          [
            [
              70.8624622720421,
              22.75143353602062
            ],
            [
              70.86380603016396,
              22.75143353602062
            ],
            [
              70.86380603016396,
              22.75268003232427
            ],
            [
              70.8624622720421,
              22.75268003232427
            ],
            [
              70.8624622720421,
              22.75143353602062
            ]
          ]
        ]
      }
    },
    {
      "type": "Feature",
      "id": "bldg-24",
      "properties": {
        "building_id": "bldg-24",
        "building": "yes",
        "height": 6.1,
        "building:levels": 2,
        "type": "residential"
      },
      "geometry": {
        "type": "Polygon",
        "coordinates": [
          [
            [
              70.92325727335597,
              22.823354249013306
            ],
            [
              70.92400652940307,
              22.823354249013306
            ],
            [
              70.92400652940307,
              22.824668296212096
            ],
            [
              70.92325727335597,
              22.824668296212096
            ],
            [
              70.92325727335597,
              22.823354249013306
            ]
          ]
        ]
      }
    },
    {
      "type": "Feature",
      "id": "bldg-25",
      "properties": {
        "building_id": "bldg-25",
        "building": "yes",
        "height": 4.0,
        "building:levels": 1,
        "type": "residential"
      },
      "geometry": {
        "type": "Polygon",
        "coordinates": [
          [
            [
              70.91654657474709,
              22.834018204821618
            ],
            [
              70.91740097752705,
              22.834018204821618
            ],
            [
              70.91740097752705,
              22.834706246361243
            ],
            [
              70.91654657474709,
              22.834706246361243
            ],
            [
              70.91654657474709,
              22.834018204821618
            ]
          ]
        ]
      }
    },
    {
      "type": "Feature",
      "id": "bldg-26",
      "properties": {
        "building_id": "bldg-26",
        "building": "yes",
        "height": 5.9,
        "building:levels": 2,
        "type": "residential"
      },
      "geometry": {
        "type": "Polygon",
        "coordinates": [
          [
            [
              70.87677491778383,
              22.825314872931106
            ],
            [
              70.87806350225044,
              22.825314872931106
            ],
            [
              70.87806350225044,
              22.82592043463553
            ],
            [
              70.87677491778383,
              22.82592043463553
            ],
            [
              70.87677491778383,
              22.825314872931106
            ]
          ]
        ]
      }
    },
    {
      "type": "Feature",
      "id": "bldg-27",
      "properties": {
        "building_id": "bldg-27",
        "building": "yes",
        "height": 14.5,
        "building:levels": 5,
        "type": "commercial"
      },
      "geometry": {
        "type": "Polygon",
        "coordinates": [
          [
            [
              70.87606279818054,
              22.75844102870416
            ],
            [
              70.8767586904744,
              22.75844102870416
            ],
            [
              70.8767586904744,
              22.75931112084128
            ],
            [
              70.87606279818054,
              22.75931112084128
            ],
            [
              70.87606279818054,
              22.75844102870416
            ]
          ]
        ]
      }
    },
    {
      "type": "Feature",
      "id": "bldg-28",
      "properties": {
        "building_id": "bldg-28",
        "building": "yes",
        "height": 17.3,
        "building:levels": 5,
        "type": "commercial"
      },
      "geometry": {
        "type": "Polygon",
        "coordinates": [
          [
            [
              70.86603189734659,
              22.7916590977943
            ],
            [
              70.86719431251372,
              22.7916590977943
            ],
            [
              70.86719431251372,
              22.792550001476208
            ],
            [
              70.86603189734659,
              22.792550001476208
            ],
            [
              70.86603189734659,
              22.7916590977943
            ]
          ]
        ]
      }
    },
    {
      "type": "Feature",
      "id": "bldg-29",
      "properties": {
        "building_id": "bldg-29",
        "building": "yes",
        "height": 4.3,
        "building:levels": 1,
        "type": "residential"
      },
      "geometry": {
        "type": "Polygon",
        "coordinates": [
          [
            [
              70.93259561927162,
              22.76177926580851
            ],
            [
              70.93359341807634,
              22.76177926580851
            ],
            [
              70.93359341807634,
              22.762619968456367
            ],
            [
              70.93259561927162,
              22.762619968456367
            ],
            [
              70.93259561927162,
              22.76177926580851
            ]
          ]
        ]
      }
    },
    {
      "type": "Feature",
      "id": "bldg-30",
      "properties": {
        "building_id": "bldg-30",
        "building": "yes",
        "height": 4.3,
        "building:levels": 1,
        "type": "residential"
      },
      "geometry": {
        "type": "Polygon",
        "coordinates": [
          [
            [
              70.83633517091558,
              22.801950613905248
            ],
            [
              70.83733731413416,
              22.801950613905248
            ],
            [
              70.83733731413416,
              22.80259179690625
            ],
            [
              70.83633517091558,
              22.80259179690625
            ],
            [
              70.83633517091558,
              22.801950613905248
            ]
          ]
        ]
      }
    },
    {
      "type": "Feature",
      "id": "bldg-31",
      "properties": {
        "building_id": "bldg-31",
        "building": "yes",
        "height": 20.0,
        "building:levels": 6,
        "type": "commercial"
      },
      "geometry": {
        "type": "Polygon",
        "coordinates": [
          [
            [
              70.9271016941917,
              22.76033515065059
            ],
            [
              70.92781761008938,
              22.76033515065059
            ],
            [
              70.92781761008938,
              22.76132671285881
            ],
            [
              70.9271016941917,
              22.76132671285881
            ],
            [
              70.9271016941917,
              22.76033515065059
            ]
          ]
        ]
      }
    },
    {
      "type": "Feature",
      "id": "bldg-32",
      "properties": {
        "building_id": "bldg-32",
        "building": "yes",
        "height": 8.2,
        "building:levels": 3,
        "type": "commercial"
      },
      "geometry": {
        "type": "Polygon",
        "coordinates": [
          [
            [
              70.85756910039106,
              22.808884126291858
            ],
            [
              70.85877839608332,
              22.808884126291858
            ],
            [
              70.85877839608332,
              22.809674236327055
            ],
            [
              70.85756910039106,
              22.809674236327055
            ],
            [
              70.85756910039106,
              22.808884126291858
            ]
          ]
        ]
      }
    },
    {
      "type": "Feature",
      "id": "bldg-33",
      "properties": {
        "building_id": "bldg-33",
        "building": "yes",
        "height": 3.4,
        "building:levels": 1,
        "type": "residential"
      },
      "geometry": {
        "type": "Polygon",
        "coordinates": [
          [
            [
              70.8706960339185,
              22.80430394315285
            ],
            [
              70.8718028576871,
              22.80430394315285
            ],
            [
              70.8718028576871,
              22.80533256290011
            ],
            [
              70.8706960339185,
              22.80533256290011
            ],
            [
              70.8706960339185,
              22.80430394315285
            ]
          ]
        ]
      }
    },
    {
      "type": "Feature",
      "id": "bldg-34",
      "properties": {
        "building_id": "bldg-34",
        "building": "yes",
        "height": 6.6,
        "building:levels": 2,
        "type": "residential"
      },
      "geometry": {
        "type": "Polygon",
        "coordinates": [
          [
            [
              70.91949685213713,
              22.76961105722021
            ],
            [
              70.92024606694544,
              22.76961105722021
            ],
            [
              70.92024606694544,
              22.770243677333454
            ],
            [
              70.91949685213713,
              22.770243677333454
            ],
            [
              70.91949685213713,
              22.76961105722021
            ]
          ]
        ]
      }
    },
    {
      "type": "Feature",
      "id": "bldg-35",
      "properties": {
        "building_id": "bldg-35",
        "building": "yes",
        "height": 7.1,
        "building:levels": 2,
        "type": "residential"
      },
      "geometry": {
        "type": "Polygon",
        "coordinates": [
          [
            [
              70.90296185640828,
              22.73546723852984
            ],
            [
              70.90397153085492,
              22.73546723852984
            ],
            [
              70.90397153085492,
              22.73624843515
            ],
            [
              70.90296185640828,
              22.73624843515
            ],
            [
              70.90296185640828,
              22.73546723852984
            ]
          ]
        ]
      }
    },
    {
      "type": "Feature",
      "id": "bldg-36",
      "properties": {
        "building_id": "bldg-36",
        "building": "yes",
        "height": 3.6,
        "building:levels": 1,
        "type": "residential"
      },
      "geometry": {
        "type": "Polygon",
        "coordinates": [
          [
            [
              70.850679414478,
              22.810710334671978
            ],
            [
              70.85158880275505,
              22.810710334671978
            ],
            [
              70.85158880275505,
              22.81205971866297
            ],
            [
              70.850679414478,
              22.81205971866297
            ],
            [
              70.850679414478,
              22.810710334671978
            ]
          ]
        ]
      }
    },
    {
      "type": "Feature",
      "id": "bldg-37",
      "properties": {
        "building_id": "bldg-37",
        "building": "yes",
        "height": 4.2,
        "building:levels": 1,
        "type": "residential"
      },
      "geometry": {
        "type": "Polygon",
        "coordinates": [
          [
            [
              70.86780102306192,
              22.746058098637594
            ],
            [
              70.86914077795653,
              22.746058098637594
            ],
            [
              70.86914077795653,
              22.747359970120296
            ],
            [
              70.86780102306192,
              22.747359970120296
            ],
            [
              70.86780102306192,
              22.746058098637594
            ]
          ]
        ]
      }
    },
    {
      "type": "Feature",
      "id": "bldg-38",
      "properties": {
        "building_id": "bldg-38",
        "building": "yes",
        "height": 4.1,
        "building:levels": 1,
        "type": "residential"
      },
      "geometry": {
        "type": "Polygon",
        "coordinates": [
          [
            [
              70.90111626046291,
              22.825017026191194
            ],
            [
              70.9021604211122,
              22.825017026191194
            ],
            [
              70.9021604211122,
              22.826040746653877
            ],
            [
              70.90111626046291,
              22.826040746653877
            ],
            [
              70.90111626046291,
              22.825017026191194
            ]
          ]
        ]
      }
    },
    {
      "type": "Feature",
      "id": "bldg-39",
      "properties": {
        "building_id": "bldg-39",
        "building": "yes",
        "height": 4.7,
        "building:levels": 1,
        "type": "residential"
      },
      "geometry": {
        "type": "Polygon",
        "coordinates": [
          [
            [
              70.84202252062894,
              22.83393492430786
            ],
            [
              70.84334285507467,
              22.83393492430786
            ],
            [
              70.84334285507467,
              22.83504140547368
            ],
            [
              70.84202252062894,
              22.83504140547368
            ],
            [
              70.84202252062894,
              22.83393492430786
            ]
          ]
        ]
      }
    },
    {
      "type": "Feature",
      "id": "bldg-40",
      "properties": {
        "building_id": "bldg-40",
        "building": "yes",
        "height": 9.1,
        "building:levels": 3,
        "type": "commercial"
      },
      "geometry": {
        "type": "Polygon",
        "coordinates": [
          [
            [
              70.86865895165573,
              22.814652201463762
            ],
            [
              70.8699766398637,
              22.814652201463762
            ],
            [
              70.8699766398637,
              22.81596187060317
            ],
            [
              70.86865895165573,
              22.81596187060317
            ],
            [
              70.86865895165573,
              22.814652201463762
            ]
          ]
        ]
      }
    },
    {
      "type": "Feature",
      "id": "bldg-41",
      "properties": {
        "building_id": "bldg-41",
        "building": "yes",
        "height": 6.7,
        "building:levels": 2,
        "type": "residential"
      },
      "geometry": {
        "type": "Polygon",
        "coordinates": [
          [
            [
              70.89940663971441,
              22.742764254404033
            ],
            [
              70.9001359426857,
              22.742764254404033
            ],
            [
              70.9001359426857,
              22.744083097754856
            ],
            [
              70.89940663971441,
              22.744083097754856
            ],
            [
              70.89940663971441,
              22.742764254404033
            ]
          ]
        ]
      }
    },
    {
      "type": "Feature",
      "id": "bldg-42",
      "properties": {
        "building_id": "bldg-42",
        "building": "yes",
        "height": 3.7,
        "building:levels": 1,
        "type": "residential"
      },
      "geometry": {
        "type": "Polygon",
        "coordinates": [
          [
            [
              70.83339109266049,
              22.745062788167456
            ],
            [
              70.83452189407578,
              22.745062788167456
            ],
            [
              70.83452189407578,
              22.74566683743453
            ],
            [
              70.83339109266049,
              22.74566683743453
            ],
            [
              70.83339109266049,
              22.745062788167456
            ]
          ]
        ]
      }
    },
    {
      "type": "Feature",
      "id": "bldg-43",
      "properties": {
        "building_id": "bldg-43",
        "building": "yes",
        "height": 8.0,
        "building:levels": 2,
        "type": "commercial"
      },
      "geometry": {
        "type": "Polygon",
        "coordinates": [
          [
            [
              70.88950752959032,
              22.811102554417797
            ],
            [
              70.89062909859793,
              22.811102554417797
            ],
            [
              70.89062909859793,
              22.811881969865365
            ],
            [
              70.88950752959032,
              22.811881969865365
            ],
            [
              70.88950752959032,
              22.811102554417797
            ]
          ]
        ]
      }
    },
    {
      "type": "Feature",
      "id": "bldg-44",
      "properties": {
        "building_id": "bldg-44",
        "building": "yes",
        "height": 10.6,
        "building:levels": 3,
        "type": "commercial"
      },
      "geometry": {
        "type": "Polygon",
        "coordinates": [
          [
            [
              70.85707530853763,
              22.76988491303422
            ],
            [
              70.85827250166172,
              22.76988491303422
            ],
            [
              70.85827250166172,
              22.771004619353455
            ],
            [
              70.85707530853763,
              22.771004619353455
            ],
            [
              70.85707530853763,
              22.76988491303422
            ]
          ]
        ]
      }
    },
    {
      "type": "Feature",
      "id": "bldg-45",
      "properties": {
        "building_id": "bldg-45",
        "building": "yes",
        "height": 4.2,
        "building:levels": 1,
        "type": "residential"
      },
      "geometry": {
        "type": "Polygon",
        "coordinates": [
          [
            [
              70.9010542708921,
              22.79720347725235
            ],
            [
              70.90172921070638,
              22.79720347725235
            ],
            [
              70.90172921070638,
              22.798097649894796
            ],
            [
              70.9010542708921,
              22.798097649894796
            ],
            [
              70.9010542708921,
              22.79720347725235
            ]
          ]
        ]
      }
    },
    {
      "type": "Feature",
      "id": "bldg-46",
      "properties": {
        "building_id": "bldg-46",
        "building": "yes",
        "height": 7.0,
        "building:levels": 2,
        "type": "residential"
      },
      "geometry": {
        "type": "Polygon",
        "coordinates": [
          [
            [
              70.85791768382155,
              22.8423203635102
            ],
            [
              70.85883216200129,
              22.8423203635102
            ],
            [
              70.85883216200129,
              22.843634000754346
            ],
            [
              70.85791768382155,
              22.843634000754346
            ],
            [
              70.85791768382155,
              22.8423203635102
            ]
          ]
        ]
      }
    },
    {
      "type": "Feature",
      "id": "bldg-47",
      "properties": {
        "building_id": "bldg-47",
        "building": "yes",
        "height": 3.9,
        "building:levels": 1,
        "type": "residential"
      },
      "geometry": {
        "type": "Polygon",
        "coordinates": [
          [
            [
              70.91512961401449,
              22.789798347350253
            ],
            [
              70.91619113712218,
              22.789798347350253
            ],
            [
              70.91619113712218,
              22.790792361505307
            ],
            [
              70.91512961401449,
              22.790792361505307
            ],
            [
              70.91512961401449,
              22.789798347350253
            ]
          ]
        ]
      }
    },
    {
      "type": "Feature",
      "id": "bldg-48",
      "properties": {
        "building_id": "bldg-48",
        "building": "yes",
        "height": 3.8,
        "building:levels": 1,
        "type": "residential"
      },
      "geometry": {
        "type": "Polygon",
        "coordinates": [
          [
            [
              70.90782529360062,
              22.764888315675012
            ],
            [
              70.90844474637377,
              22.764888315675012
            ],
            [
              70.90844474637377,
              22.766004693511736
            ],
            [
              70.90782529360062,
              22.766004693511736
            ],
            [
              70.90782529360062,
              22.764888315675012
            ]
          ]
        ]
      }
    },
    {
      "type": "Feature",
      "id": "bldg-49",
      "properties": {
        "building_id": "bldg-49",
        "building": "yes",
        "height": 3.1,
        "building:levels": 1,
        "type": "residential"
      },
      "geometry": {
        "type": "Polygon",
        "coordinates": [
          [
            [
              70.93014174701662,
              22.840391937144187
            ],
            [
              70.93147363852879,
              22.840391937144187
            ],
            [
              70.93147363852879,
              22.841288064104393
            ],
            [
              70.93014174701662,
              22.841288064104393
            ],
            [
              70.93014174701662,
              22.840391937144187
            ]
          ]
        ]
      }
    },
    {
      "type": "Feature",
      "id": "bldg-50",
      "properties": {
        "building_id": "bldg-50",
        "building": "yes",
        "height": 10.7,
        "building:levels": 3,
        "type": "commercial"
      },
      "geometry": {
        "type": "Polygon",
        "coordinates": [
          [
            [
              70.92885846858151,
              22.781271176620702
            ],
            [
              70.93023179243674,
              22.781271176620702
            ],
            [
              70.93023179243674,
              22.782642072602375
            ],
            [
              70.92885846858151,
              22.782642072602375
            ],
            [
              70.92885846858151,
              22.781271176620702
            ]
          ]
        ]
      }
    },
    {
      "type": "Feature",
      "id": "bldg-51",
      "properties": {
        "building_id": "bldg-51",
        "building": "yes",
        "height": 3.7,
        "building:levels": 1,
        "type": "residential"
      },
      "geometry": {
        "type": "Polygon",
        "coordinates": [
          [
            [
              70.86298223010662,
              22.776704176801353
            ],
            [
              70.86426313944385,
              22.776704176801353
            ],
            [
              70.86426313944385,
              22.777557714405475
            ],
            [
              70.86298223010662,
              22.777557714405475
            ],
            [
              70.86298223010662,
              22.776704176801353
            ]
          ]
        ]
      }
    },
    {
      "type": "Feature",
      "id": "bldg-52",
      "properties": {
        "building_id": "bldg-52",
        "building": "yes",
        "height": 3.4,
        "building:levels": 1,
        "type": "residential"
      },
      "geometry": {
        "type": "Polygon",
        "coordinates": [
          [
            [
              70.890328919377,
              22.83832131023797
            ],
            [
              70.89148574321433,
              22.83832131023797
            ],
            [
              70.89148574321433,
              22.83937735917404
            ],
            [
              70.890328919377,
              22.83937735917404
            ],
            [
              70.890328919377,
              22.83832131023797
            ]
          ]
        ]
      }
    },
    {
      "type": "Feature",
      "id": "bldg-53",
      "properties": {
        "building_id": "bldg-53",
        "building": "yes",
        "height": 11.4,
        "building:levels": 4,
        "type": "commercial"
      },
      "geometry": {
        "type": "Polygon",
        "coordinates": [
          [
            [
              70.89660471797062,
              22.84437869935073
            ],
            [
              70.89731678518281,
              22.84437869935073
            ],
            [
              70.89731678518281,
              22.84539336307262
            ],
            [
              70.89660471797062,
              22.84539336307262
            ],
            [
              70.89660471797062,
              22.84437869935073
            ]
          ]
        ]
      }
    },
    {
      "type": "Feature",
      "id": "bldg-54",
      "properties": {
        "building_id": "bldg-54",
        "building": "yes",
        "height": 4.4,
        "building:levels": 1,
        "type": "residential"
      },
      "geometry": {
        "type": "Polygon",
        "coordinates": [
          [
            [
              70.90945894261284,
              22.811621966530982
            ],
            [
              70.91062092988003,
              22.811621966530982
            ],
            [
              70.91062092988003,
              22.812509559451957
            ],
            [
              70.90945894261284,
              22.812509559451957
            ],
            [
              70.90945894261284,
              22.811621966530982
            ]
          ]
        ]
      }
    },
    {
      "type": "Feature",
      "id": "bldg-55",
      "properties": {
        "building_id": "bldg-55",
        "building": "yes",
        "height": 5.9,
        "building:levels": 2,
        "type": "residential"
      },
      "geometry": {
        "type": "Polygon",
        "coordinates": [
          [
            [
              70.91652673124234,
              22.824067403983044
            ],
            [
              70.9178203890972,
              22.824067403983044
            ],
            [
              70.9178203890972,
              22.82539799642509
            ],
            [
              70.91652673124234,
              22.82539799642509
            ],
            [
              70.91652673124234,
              22.824067403983044
            ]
          ]
        ]
      }
    },
    {
      "type": "Feature",
      "id": "bldg-56",
      "properties": {
        "building_id": "bldg-56",
        "building": "yes",
        "height": 9.4,
        "building:levels": 3,
        "type": "commercial"
      },
      "geometry": {
        "type": "Polygon",
        "coordinates": [
          [
            [
              70.88459770907517,
              22.822828273293375
            ],
            [
              70.88571768021978,
              22.822828273293375
            ],
            [
              70.88571768021978,
              22.82398984679518
            ],
            [
              70.88459770907517,
              22.82398984679518
            ],
            [
              70.88459770907517,
              22.822828273293375
            ]
          ]
        ]
      }
    },
    {
      "type": "Feature",
      "id": "bldg-57",
      "properties": {
        "building_id": "bldg-57",
        "building": "yes",
        "height": 6.5,
        "building:levels": 2,
        "type": "residential"
      },
      "geometry": {
        "type": "Polygon",
        "coordinates": [
          [
            [
              70.92511032236797,
              22.771517864791434
            ],
            [
              70.92601078873008,
              22.771517864791434
            ],
            [
              70.92601078873008,
              22.772193050343304
            ],
            [
              70.92511032236797,
              22.772193050343304
            ],
            [
              70.92511032236797,
              22.771517864791434
            ]
          ]
        ]
      }
    },
    {
      "type": "Feature",
      "id": "bldg-58",
      "properties": {
        "building_id": "bldg-58",
        "building": "yes",
        "height": 6.6,
        "building:levels": 2,
        "type": "residential"
      },
      "geometry": {
        "type": "Polygon",
        "coordinates": [
          [
            [
              70.83622093862098,
              22.785732361529984
            ],
            [
              70.83725505432875,
              22.785732361529984
            ],
            [
              70.83725505432875,
              22.786561594531687
            ],
            [
              70.83622093862098,
              22.786561594531687
            ],
            [
              70.83622093862098,
              22.785732361529984
            ]
          ]
        ]
      }
    },
    {
      "type": "Feature",
      "id": "bldg-59",
      "properties": {
        "building_id": "bldg-59",
        "building": "yes",
        "height": 3.5,
        "building:levels": 1,
        "type": "residential"
      },
      "geometry": {
        "type": "Polygon",
        "coordinates": [
          [
            [
              70.8355429857694,
              22.737738920883345
            ],
            [
              70.83680106621793,
              22.737738920883345
            ],
            [
              70.83680106621793,
              22.738627073396472
            ],
            [
              70.8355429857694,
              22.738627073396472
            ],
            [
              70.8355429857694,
              22.737738920883345
            ]
          ]
        ]
      }
    },
    {
      "type": "Feature",
      "id": "bldg-60",
      "properties": {
        "building_id": "bldg-60",
        "building": "yes",
        "height": 3.4,
        "building:levels": 1,
        "type": "residential"
      },
      "geometry": {
        "type": "Polygon",
        "coordinates": [
          [
            [
              70.8869269706347,
              22.819690121756715
            ],
            [
              70.8876996274567,
              22.819690121756715
            ],
            [
              70.8876996274567,
              22.82078843413737
            ],
            [
              70.8869269706347,
              22.82078843413737
            ],
            [
              70.8869269706347,
              22.819690121756715
            ]
          ]
        ]
      }
    },
    {
      "type": "Feature",
      "id": "bldg-61",
      "properties": {
        "building_id": "bldg-61",
        "building": "yes",
        "height": 8.2,
        "building:levels": 3,
        "type": "commercial"
      },
      "geometry": {
        "type": "Polygon",
        "coordinates": [
          [
            [
              70.83785864495289,
              22.79295674677503
            ],
            [
              70.83889115305018,
              22.79295674677503
            ],
            [
              70.83889115305018,
              22.79406669069623
            ],
            [
              70.83785864495289,
              22.79406669069623
            ],
            [
              70.83785864495289,
              22.79295674677503
            ]
          ]
        ]
      }
    },
    {
      "type": "Feature",
      "id": "bldg-62",
      "properties": {
        "building_id": "bldg-62",
        "building": "yes",
        "height": 4.3,
        "building:levels": 1,
        "type": "residential"
      },
      "geometry": {
        "type": "Polygon",
        "coordinates": [
          [
            [
              70.93405943367493,
              22.791207564531828
            ],
            [
              70.93491779885328,
              22.791207564531828
            ],
            [
              70.93491779885328,
              22.79244371348764
            ],
            [
              70.93405943367493,
              22.79244371348764
            ],
            [
              70.93405943367493,
              22.791207564531828
            ]
          ]
        ]
      }
    },
    {
      "type": "Feature",
      "id": "bldg-63",
      "properties": {
        "building_id": "bldg-63",
        "building": "yes",
        "height": 10.2,
        "building:levels": 3,
        "type": "commercial"
      },
      "geometry": {
        "type": "Polygon",
        "coordinates": [
          [
            [
              70.87834288745601,
              22.74210205534446
            ],
            [
              70.87896316805076,
              22.74210205534446
            ],
            [
              70.87896316805076,
              22.743472174076203
            ],
            [
              70.87834288745601,
              22.743472174076203
            ],
            [
              70.87834288745601,
              22.74210205534446
            ]
          ]
        ]
      }
    },
    {
      "type": "Feature",
      "id": "bldg-64",
      "properties": {
        "building_id": "bldg-64",
        "building": "yes",
        "height": 4.2,
        "building:levels": 1,
        "type": "residential"
      },
      "geometry": {
        "type": "Polygon",
        "coordinates": [
          [
            [
              70.90501199970572,
              22.779440154957328
            ],
            [
              70.90575063516178,
              22.779440154957328
            ],
            [
              70.90575063516178,
              22.780165304591463
            ],
            [
              70.90501199970572,
              22.780165304591463
            ],
            [
              70.90501199970572,
              22.779440154957328
            ]
          ]
        ]
      }
    },
    {
      "type": "Feature",
      "id": "bldg-65",
      "properties": {
        "building_id": "bldg-65",
        "building": "yes",
        "height": 15.4,
        "building:levels": 5,
        "type": "commercial"
      },
      "geometry": {
        "type": "Polygon",
        "coordinates": [
          [
            [
              70.88955549417875,
              22.813622769783624
            ],
            [
              70.89068365208013,
              22.813622769783624
            ],
            [
              70.89068365208013,
              22.814446716901184
            ],
            [
              70.88955549417875,
              22.814446716901184
            ],
            [
              70.88955549417875,
              22.813622769783624
            ]
          ]
        ]
      }
    },
    {
      "type": "Feature",
      "id": "bldg-66",
      "properties": {
        "building_id": "bldg-66",
        "building": "yes",
        "height": 4.1,
        "building:levels": 1,
        "type": "residential"
      },
      "geometry": {
        "type": "Polygon",
        "coordinates": [
          [
            [
              70.90919659103787,
              22.795619813856305
            ],
            [
              70.91028596763485,
              22.795619813856305
            ],
            [
              70.91028596763485,
              22.796555493906247
            ],
            [
              70.90919659103787,
              22.796555493906247
            ],
            [
              70.90919659103787,
              22.795619813856305
            ]
          ]
        ]
      }
    },
    {
      "type": "Feature",
      "id": "bldg-67",
      "properties": {
        "building_id": "bldg-67",
        "building": "yes",
        "height": 3.2,
        "building:levels": 1,
        "type": "residential"
      },
      "geometry": {
        "type": "Polygon",
        "coordinates": [
          [
            [
              70.86971540118428,
              22.818532335315805
            ],
            [
              70.87032691597518,
              22.818532335315805
            ],
            [
              70.87032691597518,
              22.819225193428213
            ],
            [
              70.86971540118428,
              22.819225193428213
            ],
            [
              70.86971540118428,
              22.818532335315805
            ]
          ]
        ]
      }
    },
    {
      "type": "Feature",
      "id": "bldg-68",
      "properties": {
        "building_id": "bldg-68",
        "building": "yes",
        "height": 3.4,
        "building:levels": 1,
        "type": "residential"
      },
      "geometry": {
        "type": "Polygon",
        "coordinates": [
          [
            [
              70.83665433229743,
              22.829321915877596
            ],
            [
              70.83781725858492,
              22.829321915877596
            ],
            [
              70.83781725858492,
              22.830301254940867
            ],
            [
              70.83665433229743,
              22.830301254940867
            ],
            [
              70.83665433229743,
              22.829321915877596
            ]
          ]
        ]
      }
    },
    {
      "type": "Feature",
      "id": "bldg-69",
      "properties": {
        "building_id": "bldg-69",
        "building": "yes",
        "height": 5.0,
        "building:levels": 2,
        "type": "residential"
      },
      "geometry": {
        "type": "Polygon",
        "coordinates": [
          [
            [
              70.8837587702642,
              22.78655529766773
            ],
            [
              70.88449733176012,
              22.78655529766773
            ],
            [
              70.88449733176012,
              22.787502378987117
            ],
            [
              70.8837587702642,
              22.787502378987117
            ],
            [
              70.8837587702642,
              22.78655529766773
            ]
          ]
        ]
      }
    },
    {
      "type": "Feature",
      "id": "bldg-70",
      "properties": {
        "building_id": "bldg-70",
        "building": "yes",
        "height": 6.9,
        "building:levels": 2,
        "type": "residential"
      },
      "geometry": {
        "type": "Polygon",
        "coordinates": [
          [
            [
              70.89673028859352,
              22.804680643851324
            ],
            [
              70.89736653180134,
              22.804680643851324
            ],
            [
              70.89736653180134,
              22.805580333943023
            ],
            [
              70.89673028859352,
              22.805580333943023
            ],
            [
              70.89673028859352,
              22.804680643851324
            ]
          ]
        ]
      }
    },
    {
      "type": "Feature",
      "id": "bldg-71",
      "properties": {
        "building_id": "bldg-71",
        "building": "yes",
        "height": 3.3,
        "building:levels": 1,
        "type": "residential"
      },
      "geometry": {
        "type": "Polygon",
        "coordinates": [
          [
            [
              70.88476269343968,
              22.82956168844226
            ],
            [
              70.88588964834497,
              22.82956168844226
            ],
            [
              70.88588964834497,
              22.830292035983923
            ],
            [
              70.88476269343968,
              22.830292035983923
            ],
            [
              70.88476269343968,
              22.82956168844226
            ]
          ]
        ]
      }
    },
    {
      "type": "Feature",
      "id": "bldg-72",
      "properties": {
        "building_id": "bldg-72",
        "building": "yes",
        "height": 6.4,
        "building:levels": 2,
        "type": "residential"
      },
      "geometry": {
        "type": "Polygon",
        "coordinates": [
          [
            [
              70.89927729470095,
              22.73629317468409
            ],
            [
              70.90034591516597,
              22.73629317468409
            ],
            [
              70.90034591516597,
              22.737645358877227
            ],
            [
              70.89927729470095,
              22.737645358877227
            ],
            [
              70.89927729470095,
              22.73629317468409
            ]
          ]
        ]
      }
    },
    {
      "type": "Feature",
      "id": "bldg-73",
      "properties": {
        "building_id": "bldg-73",
        "building": "yes",
        "height": 14.4,
        "building:levels": 4,
        "type": "commercial"
      },
      "geometry": {
        "type": "Polygon",
        "coordinates": [
          [
            [
              70.87288637116929,
              22.805530033749818
            ],
            [
              70.87385297348168,
              22.805530033749818
            ],
            [
              70.87385297348168,
              22.806566527181268
            ],
            [
              70.87288637116929,
              22.806566527181268
            ],
            [
              70.87288637116929,
              22.805530033749818
            ]
          ]
        ]
      }
    },
    {
      "type": "Feature",
      "id": "bldg-74",
      "properties": {
        "building_id": "bldg-74",
        "building": "yes",
        "height": 3.3,
        "building:levels": 1,
        "type": "residential"
      },
      "geometry": {
        "type": "Polygon",
        "coordinates": [
          [
            [
              70.87249253407451,
              22.841275026694362
            ],
            [
              70.87381681458807,
              22.841275026694362
            ],
            [
              70.87381681458807,
              22.842031659602192
            ],
            [
              70.87249253407451,
              22.842031659602192
            ],
            [
              70.87249253407451,
              22.841275026694362
            ]
          ]
        ]
      }
    },
    {
      "type": "Feature",
      "id": "bldg-75",
      "properties": {
        "building_id": "bldg-75",
        "building": "yes",
        "height": 3.3,
        "building:levels": 1,
        "type": "residential"
      },
      "geometry": {
        "type": "Polygon",
        "coordinates": [
          [
            [
              70.84314313495895,
              22.735467641763606
            ],
            [
              70.84381868932755,
              22.735467641763606
            ],
            [
              70.84381868932755,
              22.736614047182336
            ],
            [
              70.84314313495895,
              22.736614047182336
            ],
            [
              70.84314313495895,
              22.735467641763606
            ]
          ]
        ]
      }
    },
    {
      "type": "Feature",
      "id": "bldg-76",
      "properties": {
        "building_id": "bldg-76",
        "building": "yes",
        "height": 4.3,
        "building:levels": 1,
        "type": "residential"
      },
      "geometry": {
        "type": "Polygon",
        "coordinates": [
          [
            [
              70.86586415677625,
              22.82800024743554
            ],
            [
              70.86648277432484,
              22.82800024743554
            ],
            [
              70.86648277432484,
              22.829251822221615
            ],
            [
              70.86586415677625,
              22.829251822221615
            ],
            [
              70.86586415677625,
              22.82800024743554
            ]
          ]
        ]
      }
    },
    {
      "type": "Feature",
      "id": "bldg-77",
      "properties": {
        "building_id": "bldg-77",
        "building": "yes",
        "height": 8.3,
        "building:levels": 3,
        "type": "commercial"
      },
      "geometry": {
        "type": "Polygon",
        "coordinates": [
          [
            [
              70.84473756493394,
              22.81138357371537
            ],
            [
              70.84584071921135,
              22.81138357371537
            ],
            [
              70.84584071921135,
              22.812685551326194
            ],
            [
              70.84473756493394,
              22.812685551326194
            ],
            [
              70.84473756493394,
              22.81138357371537
            ]
          ]
        ]
      }
    },
    {
      "type": "Feature",
      "id": "bldg-78",
      "properties": {
        "building_id": "bldg-78",
        "building": "yes",
        "height": 9.6,
        "building:levels": 3,
        "type": "commercial"
      },
      "geometry": {
        "type": "Polygon",
        "coordinates": [
          [
            [
              70.91619104094251,
              22.764987626227327
            ],
            [
              70.91693299257754,
              22.764987626227327
            ],
            [
              70.91693299257754,
              22.76618811802864
            ],
            [
              70.91619104094251,
              22.76618811802864
            ],
            [
              70.91619104094251,
              22.764987626227327
            ]
          ]
        ]
      }
    },
    {
      "type": "Feature",
      "id": "bldg-79",
      "properties": {
        "building_id": "bldg-79",
        "building": "yes",
        "height": 4.7,
        "building:levels": 1,
        "type": "residential"
      },
      "geometry": {
        "type": "Polygon",
        "coordinates": [
          [
            [
              70.93556372753376,
              22.779602614629784
            ],
            [
              70.9364613420024,
              22.779602614629784
            ],
            [
              70.9364613420024,
              22.780823744998376
            ],
            [
              70.93556372753376,
              22.780823744998376
            ],
            [
              70.93556372753376,
              22.779602614629784
            ]
          ]
        ]
      }
    },
    {
      "type": "Feature",
      "id": "bldg-80",
      "properties": {
        "building_id": "bldg-80",
        "building": "yes",
        "height": 8.6,
        "building:levels": 3,
        "type": "commercial"
      },
      "geometry": {
        "type": "Polygon",
        "coordinates": [
          [
            [
              70.92932716425182,
              22.8295418797793
            ],
            [
              70.93027035947372,
              22.8295418797793
            ],
            [
              70.93027035947372,
              22.830742576633533
            ],
            [
              70.92932716425182,
              22.830742576633533
            ],
            [
              70.92932716425182,
              22.8295418797793
            ]
          ]
        ]
      }
    },
    {
      "type": "Feature",
      "id": "bldg-81",
      "properties": {
        "building_id": "bldg-81",
        "building": "yes",
        "height": 4.5,
        "building:levels": 1,
        "type": "residential"
      },
      "geometry": {
        "type": "Polygon",
        "coordinates": [
          [
            [
              70.84322278140996,
              22.834455342561668
            ],
            [
              70.84422698330792,
              22.834455342561668
            ],
            [
              70.84422698330792,
              22.835716508534553
            ],
            [
              70.84322278140996,
              22.835716508534553
            ],
            [
              70.84322278140996,
              22.834455342561668
            ]
          ]
        ]
      }
    },
    {
      "type": "Feature",
      "id": "bldg-82",
      "properties": {
        "building_id": "bldg-82",
        "building": "yes",
        "height": 3.4,
        "building:levels": 1,
        "type": "residential"
      },
      "geometry": {
        "type": "Polygon",
        "coordinates": [
          [
            [
              70.92583008070302,
              22.776928435227656
            ],
            [
              70.9264387508242,
              22.776928435227656
            ],
            [
              70.9264387508242,
              22.778252740808792
            ],
            [
              70.92583008070302,
              22.778252740808792
            ],
            [
              70.92583008070302,
              22.776928435227656
            ]
          ]
        ]
      }
    },
    {
      "type": "Feature",
      "id": "bldg-83",
      "properties": {
        "building_id": "bldg-83",
        "building": "yes",
        "height": 7.0,
        "building:levels": 2,
        "type": "residential"
      },
      "geometry": {
        "type": "Polygon",
        "coordinates": [
          [
            [
              70.86552837545062,
              22.83987756515444
            ],
            [
              70.86688886116818,
              22.83987756515444
            ],
            [
              70.86688886116818,
              22.840936315464937
            ],
            [
              70.86552837545062,
              22.840936315464937
            ],
            [
              70.86552837545062,
              22.83987756515444
            ]
          ]
        ]
      }
    },
    {
      "type": "Feature",
      "id": "bldg-84",
      "properties": {
        "building_id": "bldg-84",
        "building": "yes",
        "height": 8.6,
        "building:levels": 3,
        "type": "commercial"
      },
      "geometry": {
        "type": "Polygon",
        "coordinates": [
          [
            [
              70.87920686846759,
              22.76627059904775
            ],
            [
              70.8800698001039,
              22.76627059904775
            ],
            [
              70.8800698001039,
              22.767408613812613
            ],
            [
              70.87920686846759,
              22.767408613812613
            ],
            [
              70.87920686846759,
              22.76627059904775
            ]
          ]
        ]
      }
    },
    {
      "type": "Feature",
      "id": "bldg-85",
      "properties": {
        "building_id": "bldg-85",
        "building": "yes",
        "height": 3.2,
        "building:levels": 1,
        "type": "residential"
      },
      "geometry": {
        "type": "Polygon",
        "coordinates": [
          [
            [
              70.91498773810628,
              22.821939463871107
            ],
            [
              70.9156607029887,
              22.821939463871107
            ],
            [
              70.9156607029887,
              22.82293500011487
            ],
            [
              70.91498773810628,
              22.82293500011487
            ],
            [
              70.91498773810628,
              22.821939463871107
            ]
          ]
        ]
      }
    },
    {
      "type": "Feature",
      "id": "bldg-86",
      "properties": {
        "building_id": "bldg-86",
        "building": "yes",
        "height": 3.5,
        "building:levels": 1,
        "type": "residential"
      },
      "geometry": {
        "type": "Polygon",
        "coordinates": [
          [
            [
              70.88949592208857,
              22.783011050148797
            ],
            [
              70.89080608543478,
              22.783011050148797
            ],
            [
              70.89080608543478,
              22.783891782158836
            ],
            [
              70.88949592208857,
              22.783891782158836
            ],
            [
              70.88949592208857,
              22.783011050148797
            ]
          ]
        ]
      }
    },
    {
      "type": "Feature",
      "id": "bldg-87",
      "properties": {
        "building_id": "bldg-87",
        "building": "yes",
        "height": 3.4,
        "building:levels": 1,
        "type": "residential"
      },
      "geometry": {
        "type": "Polygon",
        "coordinates": [
          [
            [
              70.84732384770817,
              22.818948741681904
            ],
            [
              70.84841842215883,
              22.818948741681904
            ],
            [
              70.84841842215883,
              22.819629639822804
            ],
            [
              70.84732384770817,
              22.819629639822804
            ],
            [
              70.84732384770817,
              22.818948741681904
            ]
          ]
        ]
      }
    },
    {
      "type": "Feature",
      "id": "bldg-88",
      "properties": {
        "building_id": "bldg-88",
        "building": "yes",
        "height": 3.3,
        "building:levels": 1,
        "type": "residential"
      },
      "geometry": {
        "type": "Polygon",
        "coordinates": [
          [
            [
              70.90527204564803,
              22.741566959821924
            ],
            [
              70.90652953369546,
              22.741566959821924
            ],
            [
              70.90652953369546,
              22.742731953603652
            ],
            [
              70.90527204564803,
              22.742731953603652
            ],
            [
              70.90527204564803,
              22.741566959821924
            ]
          ]
        ]
      }
    },
    {
      "type": "Feature",
      "id": "bldg-89",
      "properties": {
        "building_id": "bldg-89",
        "building": "yes",
        "height": 9.7,
        "building:levels": 3,
        "type": "commercial"
      },
      "geometry": {
        "type": "Polygon",
        "coordinates": [
          [
            [
              70.84137341394656,
              22.8440553759333
            ],
            [
              70.84227283058316,
              22.8440553759333
            ],
            [
              70.84227283058316,
              22.844951889650957
            ],
            [
              70.84137341394656,
              22.844951889650957
            ],
            [
              70.84137341394656,
              22.8440553759333
            ]
          ]
        ]
      }
    },
    {
      "type": "Feature",
      "id": "bldg-90",
      "properties": {
        "building_id": "bldg-90",
        "building": "yes",
        "height": 3.3,
        "building:levels": 1,
        "type": "residential"
      },
      "geometry": {
        "type": "Polygon",
        "coordinates": [
          [
            [
              70.93091250077383,
              22.843981615313947
            ],
            [
              70.93211520332203,
              22.843981615313947
            ],
            [
              70.93211520332203,
              22.84488262298237
            ],
            [
              70.93091250077383,
              22.84488262298237
            ],
            [
              70.93091250077383,
              22.843981615313947
            ]
          ]
        ]
      }
    },
    {
      "type": "Feature",
      "id": "bldg-91",
      "properties": {
        "building_id": "bldg-91",
        "building": "yes",
        "height": 3.5,
        "building:levels": 1,
        "type": "residential"
      },
      "geometry": {
        "type": "Polygon",
        "coordinates": [
          [
            [
              70.91335359045276,
              22.79587873421637
            ],
            [
              70.91429296806017,
              22.79587873421637
            ],
            [
              70.91429296806017,
              22.797203817724448
            ],
            [
              70.91335359045276,
              22.797203817724448
            ],
            [
              70.91335359045276,
              22.79587873421637
            ]
          ]
        ]
      }
    },
    {
      "type": "Feature",
      "id": "bldg-92",
      "properties": {
        "building_id": "bldg-92",
        "building": "yes",
        "height": 3.5,
        "building:levels": 1,
        "type": "residential"
      },
      "geometry": {
        "type": "Polygon",
        "coordinates": [
          [
            [
              70.88374554658945,
              22.734949086903676
            ],
            [
              70.88472047510304,
              22.734949086903676
            ],
            [
              70.88472047510304,
              22.735594129524223
            ],
            [
              70.88374554658945,
              22.735594129524223
            ],
            [
              70.88374554658945,
              22.734949086903676
            ]
          ]
        ]
      }
    },
    {
      "type": "Feature",
      "id": "bldg-93",
      "properties": {
        "building_id": "bldg-93",
        "building": "yes",
        "height": 16.1,
        "building:levels": 5,
        "type": "commercial"
      },
      "geometry": {
        "type": "Polygon",
        "coordinates": [
          [
            [
              70.8446243117131,
              22.80617820633096
            ],
            [
              70.84582114761652,
              22.80617820633096
            ],
            [
              70.84582114761652,
              22.807244901343037
            ],
            [
              70.8446243117131,
              22.807244901343037
            ],
            [
              70.8446243117131,
              22.80617820633096
            ]
          ]
        ]
      }
    },
    {
      "type": "Feature",
      "id": "bldg-94",
      "properties": {
        "building_id": "bldg-94",
        "building": "yes",
        "height": 16.2,
        "building:levels": 5,
        "type": "commercial"
      },
      "geometry": {
        "type": "Polygon",
        "coordinates": [
          [
            [
              70.8713391006192,
              22.76561031532816
            ],
            [
              70.87263397992174,
              22.76561031532816
            ],
            [
              70.87263397992174,
              22.766389191998975
            ],
            [
              70.8713391006192,
              22.766389191998975
            ],
            [
              70.8713391006192,
              22.76561031532816
            ]
          ]
        ]
      }
    },
    {
      "type": "Feature",
      "id": "bldg-95",
      "properties": {
        "building_id": "bldg-95",
        "building": "yes",
        "height": 6.0,
        "building:levels": 2,
        "type": "residential"
      },
      "geometry": {
        "type": "Polygon",
        "coordinates": [
          [
            [
              70.83394680140296,
              22.841969971345776
            ],
            [
              70.83458132933251,
              22.841969971345776
            ],
            [
              70.83458132933251,
              22.843282885836736
            ],
            [
              70.83394680140296,
              22.843282885836736
            ],
            [
              70.83394680140296,
              22.841969971345776
            ]
          ]
        ]
      }
    },
    {
      "type": "Feature",
      "id": "bldg-96",
      "properties": {
        "building_id": "bldg-96",
        "building": "yes",
        "height": 6.0,
        "building:levels": 2,
        "type": "residential"
      },
      "geometry": {
        "type": "Polygon",
        "coordinates": [
          [
            [
              70.93574679708264,
              22.741577494236115
            ],
            [
              70.93678988051018,
              22.741577494236115
            ],
            [
              70.93678988051018,
              22.74295293626461
            ],
            [
              70.93574679708264,
              22.74295293626461
            ],
            [
              70.93574679708264,
              22.741577494236115
            ]
          ]
        ]
      }
    },
    {
      "type": "Feature",
      "id": "bldg-97",
      "properties": {
        "building_id": "bldg-97",
        "building": "yes",
        "height": 6.5,
        "building:levels": 2,
        "type": "residential"
      },
      "geometry": {
        "type": "Polygon",
        "coordinates": [
          [
            [
              70.89797564194016,
              22.811372829934243
            ],
            [
              70.89893927479197,
              22.811372829934243
            ],
            [
              70.89893927479197,
              22.812474876398312
            ],
            [
              70.89797564194016,
              22.812474876398312
            ],
            [
              70.89797564194016,
              22.811372829934243
            ]
          ]
        ]
      }
    },
    {
      "type": "Feature",
      "id": "bldg-98",
      "properties": {
        "building_id": "bldg-98",
        "building": "yes",
        "height": 11.8,
        "building:levels": 4,
        "type": "commercial"
      },
      "geometry": {
        "type": "Polygon",
        "coordinates": [
          [
            [
              70.92630804781523,
              22.73840983000461
            ],
            [
              70.9271328183669,
              22.73840983000461
            ],
            [
              70.9271328183669,
              22.739770159191874
            ],
            [
              70.92630804781523,
              22.739770159191874
            ],
            [
              70.92630804781523,
              22.73840983000461
            ]
          ]
        ]
      }
    },
    {
      "type": "Feature",
      "id": "bldg-99",
      "properties": {
        "building_id": "bldg-99",
        "building": "yes",
        "height": 5.5,
        "building:levels": 2,
        "type": "residential"
      },
      "geometry": {
        "type": "Polygon",
        "coordinates": [
          [
            [
              70.87997734981653,
              22.80307960248988
            ],
            [
              70.8807992547629,
              22.80307960248988
            ],
            [
              70.8807992547629,
              22.80383009941766
            ],
            [
              70.87997734981653,
              22.80383009941766
            ],
            [
              70.87997734981653,
              22.80307960248988
            ]
          ]
        ]
      }
    },
    {
      "type": "Feature",
      "id": "bldg-100",
      "properties": {
        "building_id": "bldg-100",
        "building": "yes",
        "height": 20.1,
        "building:levels": 6,
        "type": "commercial"
      },
      "geometry": {
        "type": "Polygon",
        "coordinates": [
          [
            [
              70.86941753785993,
              22.79867972660423
            ],
            [
              70.8700797255695,
              22.79867972660423
            ],
            [
              70.8700797255695,
              22.800059242450363
            ],
            [
              70.86941753785993,
              22.800059242450363
            ],
            [
              70.86941753785993,
              22.79867972660423
            ]
          ]
        ]
      }
    },
    {
      "type": "Feature",
      "id": "bldg-101",
      "properties": {
        "building_id": "bldg-101",
        "building": "yes",
        "height": 7.6,
        "building:levels": 2,
        "type": "residential"
      },
      "geometry": {
        "type": "Polygon",
        "coordinates": [
          [
            [
              70.90518500721154,
              22.793417275022655
            ],
            [
              70.90603262930458,
              22.793417275022655
            ],
            [
              70.90603262930458,
              22.79466831103842
            ],
            [
              70.90518500721154,
              22.79466831103842
            ],
            [
              70.90518500721154,
              22.793417275022655
            ]
          ]
        ]
      }
    },
    {
      "type": "Feature",
      "id": "bldg-102",
      "properties": {
        "building_id": "bldg-102",
        "building": "yes",
        "height": 8.2,
        "building:levels": 3,
        "type": "commercial"
      },
      "geometry": {
        "type": "Polygon",
        "coordinates": [
          [
            [
              70.84928314679469,
              22.83534392469799
            ],
            [
              70.85054117658903,
              22.83534392469799
            ],
            [
              70.85054117658903,
              22.836703764628627
            ],
            [
              70.84928314679469,
              22.836703764628627
            ],
            [
              70.84928314679469,
              22.83534392469799
            ]
          ]
        ]
      }
    },
    {
      "type": "Feature",
      "id": "bldg-103",
      "properties": {
        "building_id": "bldg-103",
        "building": "yes",
        "height": 3.2,
        "building:levels": 1,
        "type": "residential"
      },
      "geometry": {
        "type": "Polygon",
        "coordinates": [
          [
            [
              70.89612208898399,
              22.780196794508747
            ],
            [
              70.89746827177066,
              22.780196794508747
            ],
            [
              70.89746827177066,
              22.781489645620347
            ],
            [
              70.89612208898399,
              22.781489645620347
            ],
            [
              70.89612208898399,
              22.780196794508747
            ]
          ]
        ]
      }
    },
    {
      "type": "Feature",
      "id": "bldg-104",
      "properties": {
        "building_id": "bldg-104",
        "building": "yes",
        "height": 3.7,
        "building:levels": 1,
        "type": "residential"
      },
      "geometry": {
        "type": "Polygon",
        "coordinates": [
          [
            [
              70.8351179440154,
              22.77546898663861
            ],
            [
              70.83636638668003,
              22.77546898663861
            ],
            [
              70.83636638668003,
              22.776858807542066
            ],
            [
              70.8351179440154,
              22.776858807542066
            ],
            [
              70.8351179440154,
              22.77546898663861
            ]
          ]
        ]
      }
    },
    {
      "type": "Feature",
      "id": "bldg-105",
      "properties": {
        "building_id": "bldg-105",
        "building": "yes",
        "height": 10.3,
        "building:levels": 3,
        "type": "commercial"
      },
      "geometry": {
        "type": "Polygon",
        "coordinates": [
          [
            [
              70.8941016286375,
              22.77602292837342
            ],
            [
              70.89547756015575,
              22.77602292837342
            ],
            [
              70.89547756015575,
              22.777296623511926
            ],
            [
              70.8941016286375,
              22.777296623511926
            ],
            [
              70.8941016286375,
              22.77602292837342
            ]
          ]
        ]
      }
    },
    {
      "type": "Feature",
      "id": "bldg-106",
      "properties": {
        "building_id": "bldg-106",
        "building": "yes",
        "height": 11.0,
        "building:levels": 3,
        "type": "commercial"
      },
      "geometry": {
        "type": "Polygon",
        "coordinates": [
          [
            [
              70.8813347257899,
              22.780137234063158
            ],
            [
              70.88215345144745,
              22.780137234063158
            ],
            [
              70.88215345144745,
              22.78078233446048
            ],
            [
              70.8813347257899,
              22.78078233446048
            ],
            [
              70.8813347257899,
              22.780137234063158
            ]
          ]
        ]
      }
    },
    {
      "type": "Feature",
      "id": "bldg-107",
      "properties": {
        "building_id": "bldg-107",
        "building": "yes",
        "height": 8.9,
        "building:levels": 3,
        "type": "commercial"
      },
      "geometry": {
        "type": "Polygon",
        "coordinates": [
          [
            [
              70.9168430502147,
              22.845446206725804
            ],
            [
              70.91824035968436,
              22.845446206725804
            ],
            [
              70.91824035968436,
              22.846490552090287
            ],
            [
              70.9168430502147,
              22.846490552090287
            ],
            [
              70.9168430502147,
              22.845446206725804
            ]
          ]
        ]
      }
    },
    {
      "type": "Feature",
      "id": "bldg-108",
      "properties": {
        "building_id": "bldg-108",
        "building": "yes",
        "height": 3.6,
        "building:levels": 1,
        "type": "residential"
      },
      "geometry": {
        "type": "Polygon",
        "coordinates": [
          [
            [
              70.93085669666708,
              22.828680290101744
            ],
            [
              70.93165457514847,
              22.828680290101744
            ],
            [
              70.93165457514847,
              22.829640725409995
            ],
            [
              70.93085669666708,
              22.829640725409995
            ],
            [
              70.93085669666708,
              22.828680290101744
            ]
          ]
        ]
      }
    },
    {
      "type": "Feature",
      "id": "bldg-109",
      "properties": {
        "building_id": "bldg-109",
        "building": "yes",
        "height": 6.9,
        "building:levels": 2,
        "type": "residential"
      },
      "geometry": {
        "type": "Polygon",
        "coordinates": [
          [
            [
              70.93182984971271,
              22.801322878784735
            ],
            [
              70.93261276395712,
              22.801322878784735
            ],
            [
              70.93261276395712,
              22.80246023933226
            ],
            [
              70.93182984971271,
              22.80246023933226
            ],
            [
              70.93182984971271,
              22.801322878784735
            ]
          ]
        ]
      }
    },
    {
      "type": "Feature",
      "id": "bldg-110",
      "properties": {
        "building_id": "bldg-110",
        "building": "yes",
        "height": 8.9,
        "building:levels": 3,
        "type": "commercial"
      },
      "geometry": {
        "type": "Polygon",
        "coordinates": [
          [
            [
              70.86968029339718,
              22.746210327245993
            ],
            [
              70.87081755195365,
              22.746210327245993
            ],
            [
              70.87081755195365,
              22.747226573406717
            ],
            [
              70.86968029339718,
              22.747226573406717
            ],
            [
              70.86968029339718,
              22.746210327245993
            ]
          ]
        ]
      }
    },
    {
      "type": "Feature",
      "id": "bldg-111",
      "properties": {
        "building_id": "bldg-111",
        "building": "yes",
        "height": 11.4,
        "building:levels": 4,
        "type": "commercial"
      },
      "geometry": {
        "type": "Polygon",
        "coordinates": [
          [
            [
              70.88657624138014,
              22.82891995284706
            ],
            [
              70.88761776685115,
              22.82891995284706
            ],
            [
              70.88761776685115,
              22.82996870322429
            ],
            [
              70.88657624138014,
              22.82996870322429
            ],
            [
              70.88657624138014,
              22.82891995284706
            ]
          ]
        ]
      }
    },
    {
      "type": "Feature",
      "id": "bldg-112",
      "properties": {
        "building_id": "bldg-112",
        "building": "yes",
        "height": 6.9,
        "building:levels": 2,
        "type": "residential"
      },
      "geometry": {
        "type": "Polygon",
        "coordinates": [
          [
            [
              70.87465070501557,
              22.7484076506842
            ],
            [
              70.87527373115662,
              22.7484076506842
            ],
            [
              70.87527373115662,
              22.74961176048874
            ],
            [
              70.87465070501557,
              22.74961176048874
            ],
            [
              70.87465070501557,
              22.7484076506842
            ]
          ]
        ]
      }
    },
    {
      "type": "Feature",
      "id": "bldg-113",
      "properties": {
        "building_id": "bldg-113",
        "building": "yes",
        "height": 4.7,
        "building:levels": 1,
        "type": "residential"
      },
      "geometry": {
        "type": "Polygon",
        "coordinates": [
          [
            [
              70.90586974729209,
              22.75754616822273
            ],
            [
              70.90657884447256,
              22.75754616822273
            ],
            [
              70.90657884447256,
              22.758157803955264
            ],
            [
              70.90586974729209,
              22.758157803955264
            ],
            [
              70.90586974729209,
              22.75754616822273
            ]
          ]
        ]
      }
    },
    {
      "type": "Feature",
      "id": "bldg-114",
      "properties": {
        "building_id": "bldg-114",
        "building": "yes",
        "height": 4.7,
        "building:levels": 1,
        "type": "residential"
      },
      "geometry": {
        "type": "Polygon",
        "coordinates": [
          [
            [
              70.89387644946407,
              22.77726966957337
            ],
            [
              70.89482642940169,
              22.77726966957337
            ],
            [
              70.89482642940169,
              22.778592996528964
            ],
            [
              70.89387644946407,
              22.778592996528964
            ],
            [
              70.89387644946407,
              22.77726966957337
            ]
          ]
        ]
      }
    },
    {
      "type": "Feature",
      "id": "bldg-115",
      "properties": {
        "building_id": "bldg-115",
        "building": "yes",
        "height": 10.9,
        "building:levels": 3,
        "type": "commercial"
      },
      "geometry": {
        "type": "Polygon",
        "coordinates": [
          [
            [
              70.8859962897597,
              22.821220302746916
            ],
            [
              70.88691352398556,
              22.821220302746916
            ],
            [
              70.88691352398556,
              22.8223179721071
            ],
            [
              70.8859962897597,
              22.8223179721071
            ],
            [
              70.8859962897597,
              22.821220302746916
            ]
          ]
        ]
      }
    },
    {
      "type": "Feature",
      "id": "bldg-116",
      "properties": {
        "building_id": "bldg-116",
        "building": "yes",
        "height": 4.2,
        "building:levels": 1,
        "type": "residential"
      },
      "geometry": {
        "type": "Polygon",
        "coordinates": [
          [
            [
              70.93107950981033,
              22.74997538334682
            ],
            [
              70.93242077991047,
              22.74997538334682
            ],
            [
              70.93242077991047,
              22.750969076381285
            ],
            [
              70.93107950981033,
              22.750969076381285
            ],
            [
              70.93107950981033,
              22.74997538334682
            ]
          ]
        ]
      }
    },
    {
      "type": "Feature",
      "id": "bldg-117",
      "properties": {
        "building_id": "bldg-117",
        "building": "yes",
        "height": 7.0,
        "building:levels": 2,
        "type": "residential"
      },
      "geometry": {
        "type": "Polygon",
        "coordinates": [
          [
            [
              70.88025307141118,
              22.843332147787855
            ],
            [
              70.88124716588638,
              22.843332147787855
            ],
            [
              70.88124716588638,
              22.844195149076086
            ],
            [
              70.88025307141118,
              22.844195149076086
            ],
            [
              70.88025307141118,
              22.843332147787855
            ]
          ]
        ]
      }
    },
    {
      "type": "Feature",
      "id": "bldg-118",
      "properties": {
        "building_id": "bldg-118",
        "building": "yes",
        "height": 3.7,
        "building:levels": 1,
        "type": "residential"
      },
      "geometry": {
        "type": "Polygon",
        "coordinates": [
          [
            [
              70.85762359246417,
              22.742145474412585
            ],
            [
              70.8583266962417,
              22.742145474412585
            ],
            [
              70.8583266962417,
              22.742847911083754
            ],
            [
              70.85762359246417,
              22.742847911083754
            ],
            [
              70.85762359246417,
              22.742145474412585
            ]
          ]
        ]
      }
    },
    {
      "type": "Feature",
      "id": "bldg-119",
      "properties": {
        "building_id": "bldg-119",
        "building": "yes",
        "height": 12.1,
        "building:levels": 4,
        "type": "commercial"
      },
      "geometry": {
        "type": "Polygon",
        "coordinates": [
          [
            [
              70.84706527392179,
              22.805339704504632
            ],
            [
              70.8478107779893,
              22.805339704504632
            ],
            [
              70.8478107779893,
              22.806216238331288
            ],
            [
              70.84706527392179,
              22.806216238331288
            ],
            [
              70.84706527392179,
              22.805339704504632
            ]
          ]
        ]
      }
    },
    {
      "type": "Feature",
      "id": "bldg-120",
      "properties": {
        "building_id": "bldg-120",
        "building": "yes",
        "height": 3.2,
        "building:levels": 1,
        "type": "residential"
      },
      "geometry": {
        "type": "Polygon",
        "coordinates": [
          [
            [
              70.88192308263885,
              22.808389551106828
            ],
            [
              70.88266093853582,
              22.808389551106828
            ],
            [
              70.88266093853582,
              22.809143382321878
            ],
            [
              70.88192308263885,
              22.809143382321878
            ],
            [
              70.88192308263885,
              22.808389551106828
            ]
          ]
        ]
      }
    }
  ]
}