{
"type": "FeatureCollection",
"name": "buildings",
"crs": { "type": "name", "properties": { "name": "urn:ogc:def:crs:OGC:1.3:CRS84" } },
"features": [
{ "type": "Feature", "properties": { "building": "substation", "name": "Mettur Auto Sub Station" }, "geometry": { "type": "Polygon", "coordinates": [ [ [ 77.8283205, 11.8153381 ], [ 77.830528, 11.8145089 ], [ 77.8304246, 11.8153753 ], [ 77.8306279, 11.8163178 ], [ 77.8309833, 11.8172661 ], [ 77.8311552, 11.8178778 ], [ 77.8311773, 11.8184645 ], [ 77.8304559, 11.8183917 ], [ 77.8295696, 11.8170887 ], [ 77.8287426, 11.8158983 ], [ 77.8283205, 11.8153381 ] ] ] } },
{ "type": "Feature", "properties": { "building": "yes", "name": "Lower Mettur Barrage I Power House" }, "geometry": { "type": "Polygon", "coordinates": [ [ [ 77.779615, 11.727629 ], [ 77.7791135, 11.7277415 ], [ 77.779034, 11.7273867 ], [ 77.7795377, 11.7272786 ], [ 77.779615, 11.727629 ] ] ] } },
{ "type": "Feature", "properties": { "building": "industrial", "name": "Mettur Dam Power House" }, "geometry": { "type": "Polygon", "coordinates": [ [ [ 77.8092949, 11.801014 ], [ 77.8092077, 11.8008801 ], [ 77.8099335, 11.8003818 ], [ 77.8100309, 11.8005256 ], [ 77.8092949, 11.801014 ] ] ] } },
{ "type": "Feature", "properties": { "building": "yes", "name": "Mettur Tunnel Power House" }, "geometry": { "type": "Polygon", "coordinates": [ [ [ 77.8107379, 11.7984383 ], [ 77.8106897, 11.7982755 ], [ 77.8105382, 11.7977642 ], [ 77.8105181, 11.7976963 ], [ 77.8104848, 11.797584 ], [ 77.8107786, 11.7974957 ], [ 77.8110404, 11.7983671 ], [ 77.8107379, 11.7984383 ] ] ] } },
{ "type": "Feature", "properties": { "building": "industrial", "name": null }, "geometry": { "type": "Polygon", "coordinates": [ [ [ 77.8222113, 11.776513 ], [ 77.8222248, 11.7763641 ], [ 77.822287, 11.7762276 ], [ 77.8223911, 11.7761182 ], [ 77.8225259, 11.7760478 ], [ 77.8226766, 11.776024 ], [ 77.8228271, 11.7760495 ], [ 77.822961, 11.7761215 ], [ 77.8230638, 11.776232 ], [ 77.8231243, 11.7763693 ], [ 77.823136, 11.7765184 ], [ 77.8230976, 11.7766631 ], [ 77.8230134, 11.7767878 ], [ 77.8228923, 11.7768789 ], [ 77.8227476, 11.7769266 ], [ 77.8225948, 11.7769257 ], [ 77.8224507, 11.7768763 ], [ 77.8223307, 11.7767838 ], [ 77.822248, 11.7766582 ], [ 77.8222113, 11.776513 ] ] ] } },
{ "type": "Feature", "properties": { "building": "yes", "name": null }, "geometry": { "type": "Polygon", "coordinates": [ [ [ 77.8827104, 11.8021096 ], [ 77.8827104, 11.8020604 ], [ 77.8827392, 11.8020604 ], [ 77.8827392, 11.8021096 ], [ 77.8827104, 11.8021096 ] ] ] } },
{ "type": "Feature", "properties": { "building": "yes", "name": null }, "geometry": { "type": "Polygon", "coordinates": [ [ [ 77.7911451, 11.8889666 ], [ 77.7912204, 11.8889499 ], [ 77.7912036, 11.8888777 ], [ 77.7911284, 11.8888944 ], [ 77.7911451, 11.8889666 ] ] ] } },
{ "type": "Feature", "properties": { "building": "yes", "name": null }, "geometry": { "type": "Polygon", "coordinates": [ [ [ 77.7910405, 11.8889902 ], [ 77.7911029, 11.8889764 ], [ 77.7910855, 11.888901 ], [ 77.7910231, 11.8889148 ], [ 77.7910405, 11.8889902 ] ] ] } },
{ "type": "Feature", "properties": { "building": "yes", "name": null }, "geometry": { "type": "Polygon", "coordinates": [ [ [ 77.7910124, 11.8888511 ], [ 77.7910729, 11.8888389 ], [ 77.7910628, 11.888791 ], [ 77.7910023, 11.8888032 ], [ 77.7910124, 11.8888511 ] ] ] } },
{ "type": "Feature", "properties": { "building": "yes", "name": null }, "geometry": { "type": "Polygon", "coordinates": [ [ [ 77.7909849, 11.888775 ], [ 77.7910494, 11.8887625 ], [ 77.7910367, 11.8886995 ], [ 77.7909721, 11.888712 ], [ 77.7909849, 11.888775 ] ] ] } },
{ "type": "Feature", "properties": { "building": "yes", "name": null }, "geometry": { "type": "Polygon", "coordinates": [ [ [ 77.7909688, 11.8886949 ], [ 77.7910503, 11.8886781 ], [ 77.7910329, 11.8885974 ], [ 77.7909514, 11.8886142 ], [ 77.7909688, 11.8886949 ] ] ] } },
{ "type": "Feature", "properties": { "building": "yes", "name": null }, "geometry": { "type": "Polygon", "coordinates": [ [ [ 77.7907261, 11.8885722 ], [ 77.7907845, 11.8885578 ], [ 77.7907691, 11.8884981 ], [ 77.7907106, 11.8885125 ], [ 77.7907261, 11.8885722 ] ] ] } },
{ "type": "Feature", "properties": { "building": "yes", "name": null }, "geometry": { "type": "Polygon", "coordinates": [ [ [ 77.7909151, 11.8885014 ], [ 77.7909243, 11.8885505 ], [ 77.7909906, 11.8885386 ], [ 77.7909815, 11.8884896 ], [ 77.7909151, 11.8885014 ] ] ] } },
{ "type": "Feature", "properties": { "building": "yes", "name": null }, "geometry": { "type": "Polygon", "coordinates": [ [ [ 77.7909058, 11.8884509 ], [ 77.790914, 11.8884884 ], [ 77.7909951, 11.8884714 ], [ 77.7909869, 11.8884338 ], [ 77.7909058, 11.8884509 ] ] ] } },
{ "type": "Feature", "properties": { "building": "yes", "name": null }, "geometry": { "type": "Polygon", "coordinates": [ [ [ 77.7909004, 11.8884397 ], [ 77.7909822, 11.8884226 ], [ 77.7909711, 11.8883717 ], [ 77.7908893, 11.8883887 ], [ 77.7909004, 11.8884397 ] ] ] } },
{ "type": "Feature", "properties": { "building": "yes", "name": null }, "geometry": { "type": "Polygon", "coordinates": [ [ [ 77.7908796, 11.8883701 ], [ 77.7909348, 11.888359 ], [ 77.7909187, 11.8882829 ], [ 77.7908635, 11.888294 ], [ 77.7908796, 11.8883701 ] ] ] } },
{ "type": "Feature", "properties": { "building": "yes", "name": null }, "geometry": { "type": "Polygon", "coordinates": [ [ [ 77.7908561, 11.8882789 ], [ 77.7909151, 11.8882681 ], [ 77.790901, 11.8881946 ], [ 77.7908421, 11.8882054 ], [ 77.7908561, 11.8882789 ] ] ] } },
{ "type": "Feature", "properties": { "building": "yes", "name": null }, "geometry": { "type": "Polygon", "coordinates": [ [ [ 77.7909842, 11.8882579 ], [ 77.7910405, 11.8882468 ], [ 77.7910299, 11.8881952 ], [ 77.7909735, 11.8882063 ], [ 77.7909842, 11.8882579 ] ] ] } },
{ "type": "Feature", "properties": { "building": "yes", "name": null }, "geometry": { "type": "Polygon", "coordinates": [ [ [ 77.7910586, 11.8882658 ], [ 77.7911291, 11.888252 ], [ 77.7911178, 11.888197 ], [ 77.7910474, 11.8882108 ], [ 77.7910586, 11.8882658 ] ] ] } },
{ "type": "Feature", "properties": { "building": "yes", "name": null }, "geometry": { "type": "Polygon", "coordinates": [ [ [ 77.791123, 11.8879548 ], [ 77.791235, 11.8879285 ], [ 77.7912198, 11.8878665 ], [ 77.7911078, 11.8878928 ], [ 77.791123, 11.8879548 ] ] ] } },
{ "type": "Feature", "properties": { "building": "yes", "name": null }, "geometry": { "type": "Polygon", "coordinates": [ [ [ 77.7912538, 11.8877264 ], [ 77.7913081, 11.8877159 ], [ 77.7912978, 11.8876652 ], [ 77.7912435, 11.8876757 ], [ 77.7912538, 11.8877264 ] ] ] } },
{ "type": "Feature", "properties": { "building": "yes", "name": null }, "geometry": { "type": "Polygon", "coordinates": [ [ [ 77.7911619, 11.8876851 ], [ 77.7912323, 11.88767 ], [ 77.791222, 11.8876239 ], [ 77.7911516, 11.887639 ], [ 77.7911619, 11.8876851 ] ] ] } },
{ "type": "Feature", "properties": { "building": "yes", "name": null }, "geometry": { "type": "Polygon", "coordinates": [ [ [ 77.7910975, 11.8877028 ], [ 77.7911494, 11.8876913 ], [ 77.791136, 11.8876335 ], [ 77.7910841, 11.8876451 ], [ 77.7910975, 11.8877028 ] ] ] } },
{ "type": "Feature", "properties": { "building": "yes", "name": null }, "geometry": { "type": "Polygon", "coordinates": [ [ [ 77.790826, 11.8878452 ], [ 77.7908604, 11.8878361 ], [ 77.7908496, 11.8877974 ], [ 77.7908152, 11.8878065 ], [ 77.790826, 11.8878452 ] ] ] } },
{ "type": "Feature", "properties": { "building": "yes", "name": null }, "geometry": { "type": "Polygon", "coordinates": [ [ [ 77.7908394, 11.8879095 ], [ 77.7908705, 11.8879037 ], [ 77.7908598, 11.8878486 ], [ 77.7908286, 11.8878544 ], [ 77.7908394, 11.8879095 ] ] ] } },
{ "type": "Feature", "properties": { "building": "yes", "name": null }, "geometry": { "type": "Polygon", "coordinates": [ [ [ 77.7910057, 11.8877763 ], [ 77.7910392, 11.887768 ], [ 77.7910258, 11.8877162 ], [ 77.7909923, 11.8877245 ], [ 77.7910057, 11.8877763 ] ] ] } },
{ "type": "Feature", "properties": { "building": "yes", "name": null }, "geometry": { "type": "Polygon", "coordinates": [ [ [ 77.7910137, 11.8878872 ], [ 77.7910624, 11.8878767 ], [ 77.7910469, 11.8878084 ], [ 77.7909983, 11.887819 ], [ 77.7910137, 11.8878872 ] ] ] } },
{ "type": "Feature", "properties": { "building": "yes", "name": null }, "geometry": { "type": "Polygon", "coordinates": [ [ [ 77.790956, 11.8879023 ], [ 77.7910032, 11.8878893 ], [ 77.7909797, 11.8878079 ], [ 77.7909326, 11.8878209 ], [ 77.790956, 11.8879023 ] ] ] } },
{ "type": "Feature", "properties": { "building": "yes", "name": null }, "geometry": { "type": "Polygon", "coordinates": [ [ [ 77.7908736, 11.8878715 ], [ 77.7909272, 11.8878603 ], [ 77.7909192, 11.8878232 ], [ 77.7908655, 11.8878344 ], [ 77.7908736, 11.8878715 ] ] ] } },
{ "type": "Feature", "properties": { "building": "yes", "name": null }, "geometry": { "type": "Polygon", "coordinates": [ [ [ 77.7908079, 11.8877999 ], [ 77.7908508, 11.8877896 ], [ 77.7908381, 11.887739 ], [ 77.7907951, 11.8877494 ], [ 77.7908079, 11.8877999 ] ] ] } },
{ "type": "Feature", "properties": { "building": "yes", "name": null }, "geometry": { "type": "Polygon", "coordinates": [ [ [ 77.7908856, 11.8877999 ], [ 77.7909366, 11.8877863 ], [ 77.7909152, 11.8877095 ], [ 77.7908642, 11.8877232 ], [ 77.7908856, 11.8877999 ] ] ] } },
{ "type": "Feature", "properties": { "building": "yes", "name": null }, "geometry": { "type": "Polygon", "coordinates": [ [ [ 77.7909064, 11.8880283 ], [ 77.7909572, 11.8880157 ], [ 77.7909411, 11.8879534 ], [ 77.7908903, 11.8879659 ], [ 77.7909064, 11.8880283 ] ] ] } },
{ "type": "Feature", "properties": { "building": "yes", "name": null }, "geometry": { "type": "Polygon", "coordinates": [ [ [ 77.7909239, 11.8881438 ], [ 77.7909668, 11.8881348 ], [ 77.7909534, 11.8880731 ], [ 77.7909105, 11.8880821 ], [ 77.7909239, 11.8881438 ] ] ] } },
{ "type": "Feature", "properties": { "building": "yes", "name": null }, "geometry": { "type": "Polygon", "coordinates": [ [ [ 77.7908716, 11.8881536 ], [ 77.7909055, 11.8881473 ], [ 77.7908934, 11.888085 ], [ 77.7908595, 11.8880913 ], [ 77.7908716, 11.8881536 ] ] ] } },
{ "type": "Feature", "properties": { "building": "yes", "name": null }, "geometry": { "type": "Polygon", "coordinates": [ [ [ 77.7907877, 11.8880781 ], [ 77.7908454, 11.8880656 ], [ 77.7908333, 11.8880125 ], [ 77.7907757, 11.888025 ], [ 77.7907877, 11.8880781 ] ] ] } },
{ "type": "Feature", "properties": { "building": "yes", "name": null }, "geometry": { "type": "Polygon", "coordinates": [ [ [ 77.7907958, 11.8881641 ], [ 77.7908477, 11.8881536 ], [ 77.7908329, 11.888084 ], [ 77.790781, 11.8880946 ], [ 77.7907958, 11.8881641 ] ] ] } },
{ "type": "Feature", "properties": { "building": "yes", "name": null }, "geometry": { "type": "Polygon", "coordinates": [ [ [ 77.7907415, 11.8879627 ], [ 77.7908065, 11.8879456 ], [ 77.7907951, 11.887904 ], [ 77.7907301, 11.8879211 ], [ 77.7907415, 11.8879627 ] ] ] } },
{ "type": "Feature", "properties": { "building": "yes", "name": null }, "geometry": { "type": "Polygon", "coordinates": [ [ [ 77.7906598, 11.8880499 ], [ 77.79074, 11.8880364 ], [ 77.7907278, 11.8879669 ], [ 77.7906466, 11.8879806 ], [ 77.7906499, 11.8879992 ], [ 77.7906055, 11.8880067 ], [ 77.7906116, 11.8880414 ], [ 77.790657, 11.8880337 ], [ 77.7906598, 11.8880499 ] ] ] } },
{ "type": "Feature", "properties": { "building": "yes", "name": null }, "geometry": { "type": "Polygon", "coordinates": [ [ [ 77.7906295, 11.8879673 ], [ 77.7906906, 11.8879565 ], [ 77.7906812, 11.8879053 ], [ 77.7906201, 11.8879161 ], [ 77.7906295, 11.8879673 ] ] ] } },
{ "type": "Feature", "properties": { "building": "yes", "name": null }, "geometry": { "type": "Polygon", "coordinates": [ [ [ 77.7906281, 11.8879023 ], [ 77.7906683, 11.887894 ], [ 77.7906542, 11.887829 ], [ 77.7906141, 11.8878373 ], [ 77.7906281, 11.8879023 ] ] ] } },
{ "type": "Feature", "properties": { "building": "yes", "name": null }, "geometry": { "type": "Polygon", "coordinates": [ [ [ 77.7906771, 11.8878662 ], [ 77.7907261, 11.8878579 ], [ 77.79071, 11.8877673 ], [ 77.790661, 11.8877757 ], [ 77.7906771, 11.8878662 ] ] ] } },
{ "type": "Feature", "properties": { "building": "yes", "name": null }, "geometry": { "type": "Polygon", "coordinates": [ [ [ 77.7906047, 11.8878295 ], [ 77.7906556, 11.8878202 ], [ 77.7906462, 11.8877709 ], [ 77.7905953, 11.8877802 ], [ 77.7906047, 11.8878295 ] ] ] } },
{ "type": "Feature", "properties": { "building": "yes", "name": null }, "geometry": { "type": "Polygon", "coordinates": [ [ [ 77.7904981, 11.8878682 ], [ 77.7905832, 11.8878623 ], [ 77.7905791, 11.8878058 ], [ 77.790494, 11.8878118 ], [ 77.7904981, 11.8878682 ] ] ] } },
{ "type": "Feature", "properties": { "building": "yes", "name": null }, "geometry": { "type": "Polygon", "coordinates": [ [ [ 77.79037, 11.8878373 ], [ 77.7904203, 11.8878341 ], [ 77.7904168, 11.8877831 ], [ 77.7903665, 11.8877864 ], [ 77.79037, 11.8878373 ] ] ] } },
{ "type": "Feature", "properties": { "building": "yes", "name": null }, "geometry": { "type": "Polygon", "coordinates": [ [ [ 77.7902339, 11.8879587 ], [ 77.7903304, 11.8879495 ], [ 77.7903238, 11.8878831 ], [ 77.7902273, 11.8878923 ], [ 77.7902339, 11.8879587 ] ] ] } },
{ "type": "Feature", "properties": { "building": "yes", "name": null }, "geometry": { "type": "Polygon", "coordinates": [ [ [ 77.7904377, 11.8879226 ], [ 77.7905028, 11.8879246 ], [ 77.7905041, 11.8878807 ], [ 77.7904391, 11.8878788 ], [ 77.7904377, 11.8879226 ] ] ] } },
{ "type": "Feature", "properties": { "building": "yes", "name": null }, "geometry": { "type": "Polygon", "coordinates": [ [ [ 77.7904404, 11.8880119 ], [ 77.7905066, 11.8880136 ], [ 77.7905086, 11.8879394 ], [ 77.7904424, 11.8879377 ], [ 77.7904404, 11.8880119 ] ] ] } },
{ "type": "Feature", "properties": { "building": "yes", "name": null }, "geometry": { "type": "Polygon", "coordinates": [ [ [ 77.7903834, 11.8880506 ], [ 77.7904773, 11.8880532 ], [ 77.7904781, 11.8880246 ], [ 77.7903842, 11.888022 ], [ 77.7903834, 11.8880506 ] ] ] } },
{ "type": "Feature", "properties": { "building": "yes", "name": null }, "geometry": { "type": "Polygon", "coordinates": [ [ [ 77.790724, 11.8881556 ], [ 77.7907644, 11.888146 ], [ 77.7907456, 11.8880699 ], [ 77.7907053, 11.8880795 ], [ 77.790724, 11.8881556 ] ] ] } },
{ "type": "Feature", "properties": { "building": "yes", "name": null }, "geometry": { "type": "Polygon", "coordinates": [ [ [ 77.7906127, 11.8882028 ], [ 77.7906709, 11.888191 ], [ 77.7906575, 11.888128 ], [ 77.7905993, 11.8881398 ], [ 77.7906127, 11.8882028 ] ] ] } },
{ "type": "Feature", "properties": { "building": "yes", "name": null }, "geometry": { "type": "Polygon", "coordinates": [ [ [ 77.7905343, 11.8882186 ], [ 77.7905911, 11.8882038 ], [ 77.790573, 11.8881369 ], [ 77.7905162, 11.8881516 ], [ 77.7905343, 11.8882186 ] ] ] } },
{ "type": "Feature", "properties": { "building": "yes", "name": null }, "geometry": { "type": "Polygon", "coordinates": [ [ [ 77.7907696, 11.8883472 ], [ 77.790826, 11.8883335 ], [ 77.7907952, 11.8882121 ], [ 77.7907388, 11.8882258 ], [ 77.7907696, 11.8883472 ] ] ] } },
{ "type": "Feature", "properties": { "building": "yes", "name": null }, "geometry": { "type": "Polygon", "coordinates": [ [ [ 77.7906469, 11.8883078 ], [ 77.7907328, 11.8882894 ], [ 77.7907236, 11.8882483 ], [ 77.7906377, 11.8882667 ], [ 77.7906469, 11.8883078 ] ] ] } },
{ "type": "Feature", "properties": { "building": "yes", "name": null }, "geometry": { "type": "Polygon", "coordinates": [ [ [ 77.7906744, 11.8883708 ], [ 77.7907374, 11.888357 ], [ 77.7907253, 11.8883038 ], [ 77.7906623, 11.8883176 ], [ 77.7906744, 11.8883708 ] ] ] } },
{ "type": "Feature", "properties": { "building": "yes", "name": null }, "geometry": { "type": "Polygon", "coordinates": [ [ [ 77.7905075, 11.8883347 ], [ 77.7906147, 11.8883085 ], [ 77.7905981, 11.8882435 ], [ 77.7904908, 11.8882697 ], [ 77.7905075, 11.8883347 ] ] ] } },
{ "type": "Feature", "properties": { "building": "yes", "name": null }, "geometry": { "type": "Polygon", "coordinates": [ [ [ 77.7905262, 11.8884023 ], [ 77.7906067, 11.8883833 ], [ 77.790593, 11.8883277 ], [ 77.7905125, 11.8883467 ], [ 77.7905262, 11.8884023 ] ] ] } },
{ "type": "Feature", "properties": { "building": "yes", "name": null }, "geometry": { "type": "Polygon", "coordinates": [ [ [ 77.7903975, 11.8883656 ], [ 77.7904893, 11.8883459 ], [ 77.7904733, 11.8882742 ], [ 77.7903814, 11.8882939 ], [ 77.7903975, 11.8883656 ] ] ] } },
{ "type": "Feature", "properties": { "building": "yes", "name": null }, "geometry": { "type": "Polygon", "coordinates": [ [ [ 77.7901956, 11.8881904 ], [ 77.7902633, 11.8881848 ], [ 77.7902465, 11.8879886 ], [ 77.7901789, 11.8879942 ], [ 77.7901956, 11.8881904 ] ] ] } },
{ "type": "Feature", "properties": { "building": "yes", "name": null }, "geometry": { "type": "Polygon", "coordinates": [ [ [ 77.7902909, 11.888191 ], [ 77.790423, 11.8881858 ], [ 77.7904202, 11.8881181 ], [ 77.7902881, 11.8881233 ], [ 77.7902909, 11.888191 ] ] ] } },
{ "type": "Feature", "properties": { "building": "yes", "name": null }, "geometry": { "type": "Polygon", "coordinates": [ [ [ 77.7902935, 11.8882697 ], [ 77.7904344, 11.8882625 ], [ 77.7904312, 11.8882039 ], [ 77.7902904, 11.8882111 ], [ 77.7902935, 11.8882697 ] ] ] } },
{ "type": "Feature", "properties": { "building": "yes", "name": null }, "geometry": { "type": "Polygon", "coordinates": [ [ [ 77.790193, 11.8883997 ], [ 77.7902513, 11.8884032 ], [ 77.7902601, 11.8882647 ], [ 77.7902017, 11.8882612 ], [ 77.790193, 11.8883997 ] ] ] } },
{ "type": "Feature", "properties": { "building": "yes", "name": null }, "geometry": { "type": "Polygon", "coordinates": [ [ [ 77.7900213, 11.8886661 ], [ 77.7900818, 11.8886507 ], [ 77.7900643, 11.8885851 ], [ 77.7900039, 11.8886005 ], [ 77.7900213, 11.8886661 ] ] ] } },
{ "type": "Feature", "properties": { "building": "yes", "name": null }, "geometry": { "type": "Polygon", "coordinates": [ [ [ 77.7902044, 11.8885873 ], [ 77.7902842, 11.8885736 ], [ 77.7902721, 11.8885069 ], [ 77.7901923, 11.8885206 ], [ 77.7902044, 11.8885873 ] ] ] } },
{ "type": "Feature", "properties": { "building": "yes", "name": null }, "geometry": { "type": "Polygon", "coordinates": [ [ [ 77.7902325, 11.8888163 ], [ 77.7903177, 11.8887956 ], [ 77.7902695, 11.8886059 ], [ 77.7901842, 11.8886267 ], [ 77.7902325, 11.8888163 ] ] ] } },
{ "type": "Feature", "properties": { "building": "yes", "name": null }, "geometry": { "type": "Polygon", "coordinates": [ [ [ 77.7905075, 11.888651 ], [ 77.7905783, 11.8886394 ], [ 77.7905643, 11.8885567 ], [ 77.7904934, 11.8885683 ], [ 77.7905075, 11.888651 ] ] ] } },
{ "type": "Feature", "properties": { "building": "yes", "name": null }, "geometry": { "type": "Polygon", "coordinates": [ [ [ 77.7905323, 11.8887448 ], [ 77.7905882, 11.8887374 ], [ 77.7905768, 11.8886548 ], [ 77.7905209, 11.8886621 ], [ 77.7905323, 11.8887448 ] ] ] } },
{ "type": "Feature", "properties": { "building": "yes", "name": null }, "geometry": { "type": "Polygon", "coordinates": [ [ [ 77.7904645, 11.8888629 ], [ 77.7905504, 11.8888439 ], [ 77.7905353, 11.888779 ], [ 77.7904495, 11.8887981 ], [ 77.7904645, 11.8888629 ] ] ] } },
{ "type": "Feature", "properties": { "building": "yes", "name": null }, "geometry": { "type": "Polygon", "coordinates": [ [ [ 77.7904954, 11.8889653 ], [ 77.7905479, 11.8889531 ], [ 77.7905331, 11.8888921 ], [ 77.7904806, 11.8889043 ], [ 77.7904954, 11.8889653 ] ] ] } },
{ "type": "Feature", "properties": { "building": "yes", "name": null }, "geometry": { "type": "Polygon", "coordinates": [ [ [ 77.7905162, 11.8890663 ], [ 77.7906047, 11.8890532 ], [ 77.7905946, 11.8889883 ], [ 77.7905061, 11.8890014 ], [ 77.7905162, 11.8890663 ] ] ] } },
{ "type": "Feature", "properties": { "building": "yes", "name": null }, "geometry": { "type": "Polygon", "coordinates": [ [ [ 77.7914878, 11.888754 ], [ 77.7915881, 11.8887328 ], [ 77.79157, 11.8886508 ], [ 77.7914697, 11.888672 ], [ 77.7914878, 11.888754 ] ] ] } },
{ "type": "Feature", "properties": { "building": "yes", "name": null }, "geometry": { "type": "Polygon", "coordinates": [ [ [ 77.7915046, 11.8888839 ], [ 77.7915634, 11.8888696 ], [ 77.7915433, 11.8887902 ], [ 77.7914844, 11.8888045 ], [ 77.7915046, 11.8888839 ] ] ] } },
{ "type": "Feature", "properties": { "building": "yes", "name": null }, "geometry": { "type": "Polygon", "coordinates": [ [ [ 77.7915253, 11.8889896 ], [ 77.7915875, 11.8889767 ], [ 77.7915687, 11.88889 ], [ 77.7915066, 11.888903 ], [ 77.7915253, 11.8889896 ] ] ] } },
{ "type": "Feature", "properties": { "building": "yes", "name": null }, "geometry": { "type": "Polygon", "coordinates": [ [ [ 77.7913544, 11.8890781 ], [ 77.7914277, 11.8890663 ], [ 77.7914102, 11.8889633 ], [ 77.7913369, 11.8889751 ], [ 77.7913544, 11.8890781 ] ] ] } },
{ "type": "Feature", "properties": { "building": "yes", "name": null }, "geometry": { "type": "Polygon", "coordinates": [ [ [ 77.7916038, 11.8891497 ], [ 77.7916923, 11.8891267 ], [ 77.7916748, 11.8890621 ], [ 77.7915863, 11.8890851 ], [ 77.7916038, 11.8891497 ] ] ] } },
{ "type": "Feature", "properties": { "building": "yes", "name": null }, "geometry": { "type": "Polygon", "coordinates": [ [ [ 77.7917292, 11.8893452 ], [ 77.7917956, 11.8893334 ], [ 77.7917847, 11.8892748 ], [ 77.7917183, 11.8892866 ], [ 77.7917292, 11.8893452 ] ] ] } },
{ "type": "Feature", "properties": { "building": "yes", "name": null }, "geometry": { "type": "Polygon", "coordinates": [ [ [ 77.7916293, 11.8893695 ], [ 77.7917028, 11.8893535 ], [ 77.7916894, 11.8892944 ], [ 77.7916159, 11.8893104 ], [ 77.7916293, 11.8893695 ] ] ] } },
{ "type": "Feature", "properties": { "building": "yes", "name": null }, "geometry": { "type": "Polygon", "coordinates": [ [ [ 77.7914838, 11.8894896 ], [ 77.7915397, 11.8894732 ], [ 77.7915169, 11.8893984 ], [ 77.791461, 11.8894148 ], [ 77.7914838, 11.8894896 ] ] ] } },
{ "type": "Feature", "properties": { "building": "yes", "name": null }, "geometry": { "type": "Polygon", "coordinates": [ [ [ 77.7911633, 11.8895178 ], [ 77.7912265, 11.8895014 ], [ 77.7912057, 11.8894246 ], [ 77.7911425, 11.889441 ], [ 77.7911633, 11.8895178 ] ] ] } },
{ "type": "Feature", "properties": { "building": "yes", "name": null }, "geometry": { "type": "Polygon", "coordinates": [ [ [ 77.7911673, 11.8900893 ], [ 77.7911773, 11.8901264 ], [ 77.791241, 11.89011 ], [ 77.791231, 11.8900729 ], [ 77.7911673, 11.8900893 ] ] ] } },
{ "type": "Feature", "properties": { "building": "yes", "name": null }, "geometry": { "type": "Polygon", "coordinates": [ [ [ 77.7912075, 11.8900316 ], [ 77.7912953, 11.8900119 ], [ 77.7912829, 11.8899588 ], [ 77.7911951, 11.8899785 ], [ 77.7912075, 11.8900316 ] ] ] } },
{ "type": "Feature", "properties": { "building": "yes", "name": null }, "geometry": { "type": "Polygon", "coordinates": [ [ [ 77.7913376, 11.8900027 ], [ 77.7914241, 11.889981 ], [ 77.7914031, 11.8899007 ], [ 77.7913166, 11.8899224 ], [ 77.7913376, 11.8900027 ] ] ] } },
{ "type": "Feature", "properties": { "building": "yes", "name": null }, "geometry": { "type": "Polygon", "coordinates": [ [ [ 77.792558, 11.8902625 ], [ 77.7926458, 11.8902468 ], [ 77.792634, 11.8901834 ], [ 77.7925461, 11.8901991 ], [ 77.792558, 11.8902625 ] ] ] } },
{ "type": "Feature", "properties": { "building": "yes", "name": null }, "geometry": { "type": "Polygon", "coordinates": [ [ [ 77.7932674, 11.8902612 ], [ 77.793329, 11.8902484 ], [ 77.7933076, 11.8901494 ], [ 77.793246, 11.8901621 ], [ 77.7932674, 11.8902612 ] ] ] } },
{ "type": "Feature", "properties": { "building": "yes", "name": null }, "geometry": { "type": "Polygon", "coordinates": [ [ [ 77.7911358, 11.8875493 ], [ 77.7912484, 11.887525 ], [ 77.7912357, 11.8874686 ], [ 77.7911231, 11.8874928 ], [ 77.7911358, 11.8875493 ] ] ] } },
{ "type": "Feature", "properties": { "building": "yes", "name": null }, "geometry": { "type": "Polygon", "coordinates": [ [ [ 77.7913932, 11.8872068 ], [ 77.7914516, 11.8871976 ], [ 77.7914415, 11.887136 ], [ 77.7913831, 11.8871452 ], [ 77.7913932, 11.8872068 ] ] ] } },
{ "type": "Feature", "properties": { "building": "yes", "name": null }, "geometry": { "type": "Polygon", "coordinates": [ [ [ 77.7911565, 11.8873669 ], [ 77.7912157, 11.887358 ], [ 77.7912049, 11.8872897 ], [ 77.7911458, 11.8872986 ], [ 77.7911565, 11.8873669 ] ] ] } },
{ "type": "Feature", "properties": { "building": "yes", "name": null }, "geometry": { "type": "Polygon", "coordinates": [ [ [ 77.7910868, 11.8873911 ], [ 77.7911459, 11.8873817 ], [ 77.7911332, 11.887305 ], [ 77.7910741, 11.8873144 ], [ 77.7910868, 11.8873911 ] ] ] } },
{ "type": "Feature", "properties": { "building": "yes", "name": null }, "geometry": { "type": "Polygon", "coordinates": [ [ [ 77.7915361, 11.8875893 ], [ 77.7916286, 11.8875683 ], [ 77.7916077, 11.88748 ], [ 77.7915152, 11.887501 ], [ 77.7915361, 11.8875893 ] ] ] } },
{ "type": "Feature", "properties": { "building": "yes", "name": null }, "geometry": { "type": "Polygon", "coordinates": [ [ [ 77.7923012, 11.887632 ], [ 77.7923383, 11.8876303 ], [ 77.7923356, 11.8875713 ], [ 77.7922985, 11.8875729 ], [ 77.7923012, 11.887632 ] ] ] } },
{ "type": "Feature", "properties": { "building": "yes", "name": null }, "geometry": { "type": "Polygon", "coordinates": [ [ [ 77.7922603, 11.8878675 ], [ 77.7923421, 11.8878623 ], [ 77.7923372, 11.8877888 ], [ 77.7922553, 11.887794 ], [ 77.7922603, 11.8878675 ] ] ] } },
{ "type": "Feature", "properties": { "building": "yes", "name": null }, "geometry": { "type": "Polygon", "coordinates": [ [ [ 77.7920558, 11.8877888 ], [ 77.7921201, 11.8877809 ], [ 77.7921125, 11.8877215 ], [ 77.7920482, 11.8877293 ], [ 77.7920558, 11.8877888 ] ] ] } },
{ "type": "Feature", "properties": { "building": "yes", "name": null }, "geometry": { "type": "Polygon", "coordinates": [ [ [ 77.7917654, 11.8879246 ], [ 77.7918289, 11.8879142 ], [ 77.7918135, 11.8878243 ], [ 77.79175, 11.8878347 ], [ 77.7917654, 11.8879246 ] ] ] } },
{ "type": "Feature", "properties": { "building": "yes", "name": null }, "geometry": { "type": "Polygon", "coordinates": [ [ [ 77.7475499, 11.8500262 ], [ 77.7477765, 11.8499513 ], [ 77.7477372, 11.8498372 ], [ 77.7475105, 11.849912 ], [ 77.7475499, 11.8500262 ] ] ] } },
{ "type": "Feature", "properties": { "building": "yes", "name": null }, "geometry": { "type": "Polygon", "coordinates": [ [ [ 77.7471381, 11.8501876 ], [ 77.7475177, 11.8500603 ], [ 77.7474713, 11.8499277 ], [ 77.7470917, 11.850055 ], [ 77.7471381, 11.8501876 ] ] ] } },
{ "type": "Feature", "properties": { "building": "yes", "name": null }, "geometry": { "type": "Polygon", "coordinates": [ [ [ 77.7818386, 11.8679494 ], [ 77.7819069, 11.8679271 ], [ 77.7818921, 11.8678834 ], [ 77.7818237, 11.8679057 ], [ 77.7818386, 11.8679494 ] ] ] } },
{ "type": "Feature", "properties": { "building": "yes", "name": null }, "geometry": { "type": "Polygon", "coordinates": [ [ [ 77.7816917, 11.8681272 ], [ 77.7817589, 11.8681022 ], [ 77.78173, 11.8680281 ], [ 77.7816629, 11.8680531 ], [ 77.7816917, 11.8681272 ] ] ] } },
{ "type": "Feature", "properties": { "building": "yes", "name": null }, "geometry": { "type": "Polygon", "coordinates": [ [ [ 77.7815227, 11.8677446 ], [ 77.781565, 11.8677257 ], [ 77.7815295, 11.8676496 ], [ 77.7814872, 11.8676685 ], [ 77.7815227, 11.8677446 ] ] ] } },
{ "type": "Feature", "properties": { "building": "yes", "name": null }, "geometry": { "type": "Polygon", "coordinates": [ [ [ 77.7814121, 11.8679848 ], [ 77.7814771, 11.8679612 ], [ 77.7814592, 11.867914 ], [ 77.7813942, 11.8679376 ], [ 77.7814121, 11.8679848 ] ] ] } },
{ "type": "Feature", "properties": { "building": "yes", "name": null }, "geometry": { "type": "Polygon", "coordinates": [ [ [ 77.7813128, 11.8680058 ], [ 77.7813853, 11.8679796 ], [ 77.7813695, 11.867938 ], [ 77.7812971, 11.8679642 ], [ 77.7813128, 11.8680058 ] ] ] } },
{ "type": "Feature", "properties": { "building": "yes", "name": null }, "geometry": { "type": "Polygon", "coordinates": [ [ [ 77.7813886, 11.8682329 ], [ 77.7814418, 11.8682132 ], [ 77.781423, 11.8681646 ], [ 77.7813698, 11.8681843 ], [ 77.7813886, 11.8682329 ] ] ] } },
{ "type": "Feature", "properties": { "building": "yes", "name": null }, "geometry": { "type": "Polygon", "coordinates": [ [ [ 77.7814516, 11.8680877 ], [ 77.7814214, 11.8679911 ], [ 77.7814797, 11.8679736 ], [ 77.7814919, 11.8680122 ], [ 77.7814641, 11.8680205 ], [ 77.7814823, 11.8680785 ], [ 77.7814516, 11.8680877 ] ] ] } },
{ "type": "Feature", "properties": { "building": "yes", "name": null }, "geometry": { "type": "Polygon", "coordinates": [ [ [ 77.7765593, 11.8678601 ], [ 77.7766007, 11.8678557 ], [ 77.776592, 11.8677776 ], [ 77.7765506, 11.867782 ], [ 77.7765593, 11.8678601 ] ] ] } },
{ "type": "Feature", "properties": { "building": "yes", "name": null }, "geometry": { "type": "Polygon", "coordinates": [ [ [ 77.7779614, 11.8692133 ], [ 77.7780056, 11.8691935 ], [ 77.7779727, 11.8691233 ], [ 77.7779286, 11.869143 ], [ 77.7779614, 11.8692133 ] ] ] } },
{ "type": "Feature", "properties": { "building": "yes", "name": null }, "geometry": { "type": "Polygon", "coordinates": [ [ [ 77.7800804, 11.8695821 ], [ 77.7802031, 11.8695466 ], [ 77.7801851, 11.869487 ], [ 77.7800624, 11.8695224 ], [ 77.7800804, 11.8695821 ] ] ] } },
{ "type": "Feature", "properties": { "building": "yes", "name": null }, "geometry": { "type": "Polygon", "coordinates": [ [ [ 77.7800207, 11.8695072 ], [ 77.7800602, 11.8694967 ], [ 77.7800334, 11.8694002 ], [ 77.7799939, 11.8694108 ], [ 77.7800207, 11.8695072 ] ] ] } },
{ "type": "Feature", "properties": { "building": "yes", "name": null }, "geometry": { "type": "Polygon", "coordinates": [ [ [ 77.77922, 11.8697697 ], [ 77.77933, 11.8697264 ], [ 77.7792913, 11.8696324 ], [ 77.7791814, 11.8696757 ], [ 77.77922, 11.8697697 ] ] ] } },
{ "type": "Feature", "properties": { "building": "yes", "name": null }, "geometry": { "type": "Polygon", "coordinates": [ [ [ 77.7799882, 11.8709827 ], [ 77.7801849, 11.8709637 ], [ 77.7801772, 11.8708871 ], [ 77.7800769, 11.8708967 ], [ 77.7800807, 11.8709344 ], [ 77.7799843, 11.8709438 ], [ 77.7799882, 11.8709827 ] ] ] } },
{ "type": "Feature", "properties": { "building": "yes", "name": null }, "geometry": { "type": "Polygon", "coordinates": [ [ [ 77.7801286, 11.8710034 ], [ 77.7801856, 11.8709968 ], [ 77.7801828, 11.8709735 ], [ 77.7801258, 11.8709801 ], [ 77.7801286, 11.8710034 ] ] ] } },
{ "type": "Feature", "properties": { "building": "yes", "name": null }, "geometry": { "type": "Polygon", "coordinates": [ [ [ 77.7799033, 11.8711222 ], [ 77.7799411, 11.8711125 ], [ 77.779923, 11.8710449 ], [ 77.7798852, 11.8710546 ], [ 77.7799033, 11.8711222 ] ] ] } },
{ "type": "Feature", "properties": { "building": "yes", "name": null }, "geometry": { "type": "Polygon", "coordinates": [ [ [ 77.7792321, 11.8713505 ], [ 77.7793139, 11.8713374 ], [ 77.7793018, 11.8712649 ], [ 77.77922, 11.8712781 ], [ 77.7792321, 11.8713505 ] ] ] } },
{ "type": "Feature", "properties": { "building": "yes", "name": null }, "geometry": { "type": "Polygon", "coordinates": [ [ [ 77.7791812, 11.871365 ], [ 77.779218, 11.8713587 ], [ 77.7792019, 11.8712682 ], [ 77.7791651, 11.8712744 ], [ 77.7791812, 11.871365 ] ] ] } },
{ "type": "Feature", "properties": { "building": "yes", "name": null }, "geometry": { "type": "Polygon", "coordinates": [ [ [ 77.7799268, 11.8683805 ], [ 77.7799751, 11.86837 ], [ 77.7799671, 11.868335 ], [ 77.7799189, 11.8683455 ], [ 77.7799268, 11.8683805 ] ] ] } },
{ "type": "Feature", "properties": { "building": "yes", "name": null }, "geometry": { "type": "Polygon", "coordinates": [ [ [ 77.7788579, 11.8670937 ], [ 77.778933, 11.8670622 ], [ 77.7789071, 11.8670029 ], [ 77.778832, 11.8670344 ], [ 77.7788579, 11.8670937 ] ] ] } },
{ "type": "Feature", "properties": { "building": "yes", "name": null }, "geometry": { "type": "Polygon", "coordinates": [ [ [ 77.7789102, 11.8672026 ], [ 77.7789395, 11.8672598 ], [ 77.7790065, 11.867227 ], [ 77.7789773, 11.8671698 ], [ 77.7789102, 11.8672026 ] ] ] } },
{ "type": "Feature", "properties": { "building": "yes", "name": null }, "geometry": { "type": "Polygon", "coordinates": [ [ [ 77.7797726, 11.867557 ], [ 77.7798323, 11.8675299 ], [ 77.7797988, 11.867459 ], [ 77.7797391, 11.8674861 ], [ 77.7797726, 11.867557 ] ] ] } },
{ "type": "Feature", "properties": { "building": "yes", "name": null }, "geometry": { "type": "Polygon", "coordinates": [ [ [ 77.7795969, 11.86762 ], [ 77.7796558, 11.8675972 ], [ 77.7796303, 11.8675342 ], [ 77.7795714, 11.867557 ], [ 77.7795969, 11.86762 ] ] ] } },
{ "type": "Feature", "properties": { "building": "yes", "name": null }, "geometry": { "type": "Polygon", "coordinates": [ [ [ 77.7787359, 11.8677971 ], [ 77.7787855, 11.8677801 ], [ 77.778768, 11.8677312 ], [ 77.7787184, 11.8677483 ], [ 77.7787359, 11.8677971 ] ] ] } },
{ "type": "Feature", "properties": { "building": "yes", "name": null }, "geometry": { "type": "Polygon", "coordinates": [ [ [ 77.7787305, 11.8676921 ], [ 77.7787842, 11.8676751 ], [ 77.7787683, 11.8676274 ], [ 77.7787147, 11.8676444 ], [ 77.7787305, 11.8676921 ] ] ] } },
{ "type": "Feature", "properties": { "building": "yes", "name": null }, "geometry": { "type": "Polygon", "coordinates": [ [ [ 77.7786796, 11.8676016 ], [ 77.7787661, 11.8675734 ], [ 77.7787379, 11.8674907 ], [ 77.7786514, 11.8675189 ], [ 77.7786796, 11.8676016 ] ] ] } },
{ "type": "Feature", "properties": { "building": "yes", "name": null }, "geometry": { "type": "Polygon", "coordinates": [ [ [ 77.8069849, 11.8812152 ], [ 77.8070915, 11.8811752 ], [ 77.8070622, 11.8811002 ], [ 77.8069555, 11.8811402 ], [ 77.8069849, 11.8812152 ] ] ] } },
{ "type": "Feature", "properties": { "building": "yes", "name": null }, "geometry": { "type": "Polygon", "coordinates": [ [ [ 77.8066269, 11.8811377 ], [ 77.8067087, 11.8811063 ], [ 77.806682, 11.8810401 ], [ 77.8066002, 11.8810716 ], [ 77.8066269, 11.8811377 ] ] ] } },
{ "type": "Feature", "properties": { "building": "yes", "name": null }, "geometry": { "type": "Polygon", "coordinates": [ [ [ 77.8065705, 11.8814212 ], [ 77.8066557, 11.8813897 ], [ 77.8066279, 11.8813177 ], [ 77.8065427, 11.8813492 ], [ 77.8065705, 11.8814212 ] ] ] } },
{ "type": "Feature", "properties": { "building": "yes", "name": null }, "geometry": { "type": "Polygon", "coordinates": [ [ [ 77.8069481, 11.8817992 ], [ 77.8070424, 11.8817581 ], [ 77.8070102, 11.8816873 ], [ 77.8069159, 11.8817283 ], [ 77.8069481, 11.8817992 ] ] ] } },
{ "type": "Feature", "properties": { "building": "yes", "name": null }, "geometry": { "type": "Polygon", "coordinates": [ [ [ 77.8069869, 11.8818897 ], [ 77.8070581, 11.8818597 ], [ 77.8070326, 11.8818019 ], [ 77.8069615, 11.881832 ], [ 77.8069869, 11.8818897 ] ] ] } },
{ "type": "Feature", "properties": { "building": "yes", "name": null }, "geometry": { "type": "Polygon", "coordinates": [ [ [ 77.8070211, 11.8819554 ], [ 77.8070966, 11.881922 ], [ 77.8070718, 11.8818682 ], [ 77.8069963, 11.8819015 ], [ 77.8070211, 11.8819554 ] ] ] } },
{ "type": "Feature", "properties": { "building": "yes", "name": null }, "geometry": { "type": "Polygon", "coordinates": [ [ [ 77.8070574, 11.8820479 ], [ 77.8071426, 11.8820107 ], [ 77.8071151, 11.8819503 ], [ 77.8070299, 11.8819875 ], [ 77.8070574, 11.8820479 ] ] ] } },
{ "type": "Feature", "properties": { "building": "yes", "name": null }, "geometry": { "type": "Polygon", "coordinates": [ [ [ 77.8072391, 11.8820617 ], [ 77.8072868, 11.8820411 ], [ 77.8072667, 11.8819964 ], [ 77.807219, 11.882017 ], [ 77.8072391, 11.8820617 ] ] ] } },
{ "type": "Feature", "properties": { "building": "yes", "name": null }, "geometry": { "type": "Polygon", "coordinates": [ [ [ 77.807172, 11.882231 ], [ 77.8072282, 11.8822085 ], [ 77.807204, 11.8821507 ], [ 77.8071479, 11.8821732 ], [ 77.807172, 11.882231 ] ] ] } },
{ "type": "Feature", "properties": { "building": "yes", "name": null }, "geometry": { "type": "Polygon", "coordinates": [ [ [ 77.8077534, 11.8831627 ], [ 77.8078164, 11.8831411 ], [ 77.8078019, 11.8831007 ], [ 77.8077389, 11.8831223 ], [ 77.8077534, 11.8831627 ] ] ] } },
{ "type": "Feature", "properties": { "building": "yes", "name": null }, "geometry": { "type": "Polygon", "coordinates": [ [ [ 77.8077125, 11.8833452 ], [ 77.8077811, 11.8833335 ], [ 77.807767, 11.8832541 ], [ 77.8076984, 11.8832658 ], [ 77.8077125, 11.8833452 ] ] ] } },
{ "type": "Feature", "properties": { "building": "yes", "name": null }, "geometry": { "type": "Polygon", "coordinates": [ [ [ 77.8071177, 11.883437 ], [ 77.8071573, 11.8834175 ], [ 77.8071177, 11.8833407 ], [ 77.8070781, 11.8833602 ], [ 77.8071177, 11.883437 ] ] ] } },
{ "type": "Feature", "properties": { "building": "yes", "name": null }, "geometry": { "type": "Polygon", "coordinates": [ [ [ 77.8072954, 11.8833852 ], [ 77.8073925, 11.8833543 ], [ 77.807365, 11.8832716 ], [ 77.8072679, 11.8833025 ], [ 77.8072954, 11.8833852 ] ] ] } },
{ "type": "Feature", "properties": { "building": "yes", "name": null }, "geometry": { "type": "Polygon", "coordinates": [ [ [ 77.8073611, 11.8835433 ], [ 77.8074224, 11.8835212 ], [ 77.807399, 11.8834589 ], [ 77.8073376, 11.883481 ], [ 77.8073611, 11.8835433 ] ] ] } },
{ "type": "Feature", "properties": { "building": "yes", "name": null }, "geometry": { "type": "Polygon", "coordinates": [ [ [ 77.8074925, 11.883727 ], [ 77.8075424, 11.8837063 ], [ 77.8075176, 11.8836492 ], [ 77.8074677, 11.88367 ], [ 77.8074925, 11.883727 ] ] ] } },
{ "type": "Feature", "properties": { "building": "yes", "name": null }, "geometry": { "type": "Polygon", "coordinates": [ [ [ 77.8075556, 11.8838517 ], [ 77.8075677, 11.8838803 ], [ 77.8076194, 11.8838593 ], [ 77.8076072, 11.8838307 ], [ 77.8075556, 11.8838517 ] ] ] } },
{ "type": "Feature", "properties": { "building": "yes", "name": null }, "geometry": { "type": "Polygon", "coordinates": [ [ [ 77.8075388, 11.8838314 ], [ 77.8075937, 11.8838059 ], [ 77.8075689, 11.8837547 ], [ 77.807514, 11.8837802 ], [ 77.8075388, 11.8838314 ] ] ] } },
{ "type": "Feature", "properties": { "building": "yes", "name": null }, "geometry": { "type": "Polygon", "coordinates": [ [ [ 77.8081738, 11.8837645 ], [ 77.8082099, 11.8837429 ], [ 77.8081676, 11.8836753 ], [ 77.8081316, 11.8836969 ], [ 77.8081738, 11.8837645 ] ] ] } },
{ "type": "Feature", "properties": { "building": "yes", "name": null }, "geometry": { "type": "Polygon", "coordinates": [ [ [ 77.8080129, 11.8839029 ], [ 77.808044, 11.8839553 ], [ 77.8081479, 11.8838963 ], [ 77.8081168, 11.8838438 ], [ 77.8080129, 11.8839029 ] ] ] } },
{ "type": "Feature", "properties": { "building": "yes", "name": null }, "geometry": { "type": "Polygon", "coordinates": [ [ [ 77.8070882, 11.8861424 ], [ 77.8071696, 11.8861278 ], [ 77.8071555, 11.886053 ], [ 77.8070741, 11.8860676 ], [ 77.8070882, 11.8861424 ] ] ] } },
{ "type": "Feature", "properties": { "building": "yes", "name": null }, "geometry": { "type": "Polygon", "coordinates": [ [ [ 77.8086432, 11.8846713 ], [ 77.8087257, 11.8846503 ], [ 77.8087052, 11.8845733 ], [ 77.8086227, 11.8845943 ], [ 77.8086432, 11.8846713 ] ] ] } },
{ "type": "Feature", "properties": { "building": "yes", "name": null }, "geometry": { "type": "Polygon", "coordinates": [ [ [ 77.8083683, 11.8846254 ], [ 77.8084191, 11.8846121 ], [ 77.8084036, 11.8845556 ], [ 77.8083529, 11.8845689 ], [ 77.8083683, 11.8846254 ] ] ] } },
{ "type": "Feature", "properties": { "building": "yes", "name": null }, "geometry": { "type": "Polygon", "coordinates": [ [ [ 77.8082449, 11.8847198 ], [ 77.8083019, 11.8847067 ], [ 77.8082874, 11.8846465 ], [ 77.8082304, 11.8846596 ], [ 77.8082449, 11.8847198 ] ] ] } },
{ "type": "Feature", "properties": { "building": "yes", "name": null }, "geometry": { "type": "Polygon", "coordinates": [ [ [ 77.8085312, 11.8847441 ], [ 77.8085849, 11.8847262 ], [ 77.8085648, 11.8846685 ], [ 77.8085111, 11.8846864 ], [ 77.8085312, 11.8847441 ] ] ] } },
{ "type": "Feature", "properties": { "building": "yes", "name": null }, "geometry": { "type": "Polygon", "coordinates": [ [ [ 77.8085668, 11.8848524 ], [ 77.8086344, 11.8848357 ], [ 77.8086123, 11.8847498 ], [ 77.8085446, 11.8847664 ], [ 77.8085668, 11.8848524 ] ] ] } },
{ "type": "Feature", "properties": { "building": "yes", "name": null }, "geometry": { "type": "Polygon", "coordinates": [ [ [ 77.8083864, 11.8848471 ], [ 77.8084383, 11.8848285 ], [ 77.8084188, 11.8847767 ], [ 77.8083669, 11.8847953 ], [ 77.8083864, 11.8848471 ] ] ] } },
{ "type": "Feature", "properties": { "building": "yes", "name": null }, "geometry": { "type": "Polygon", "coordinates": [ [ [ 77.8084085, 11.8849489 ], [ 77.8084937, 11.8849233 ], [ 77.8084759, 11.8848667 ], [ 77.8083908, 11.8848923 ], [ 77.8084085, 11.8849489 ] ] ] } },
{ "type": "Feature", "properties": { "building": "yes", "name": null }, "geometry": { "type": "Polygon", "coordinates": [ [ [ 77.8084702, 11.885147 ], [ 77.8085454, 11.8851194 ], [ 77.8085233, 11.8850617 ], [ 77.8084481, 11.8850893 ], [ 77.8084702, 11.885147 ] ] ] } },
{ "type": "Feature", "properties": { "building": "yes", "name": null }, "geometry": { "type": "Polygon", "coordinates": [ [ [ 77.8086861, 11.8851752 ], [ 77.8087524, 11.8851513 ], [ 77.8087249, 11.8850784 ], [ 77.8086586, 11.8851024 ], [ 77.8086861, 11.8851752 ] ] ] } },
{ "type": "Feature", "properties": { "building": "yes", "name": null }, "geometry": { "type": "Polygon", "coordinates": [ [ [ 77.810166, 11.8846818 ], [ 77.8102045, 11.8846627 ], [ 77.8101824, 11.88462 ], [ 77.8101439, 11.8846391 ], [ 77.810166, 11.8846818 ] ] ] } },
{ "type": "Feature", "properties": { "building": "yes", "name": null }, "geometry": { "type": "Polygon", "coordinates": [ [ [ 77.810225, 11.8847481 ], [ 77.8102725, 11.8847302 ], [ 77.8102477, 11.8846672 ], [ 77.8102002, 11.8846851 ], [ 77.810225, 11.8847481 ] ] ] } },
{ "type": "Feature", "properties": { "building": "yes", "name": null }, "geometry": { "type": "Polygon", "coordinates": [ [ [ 77.8104296, 11.8847691 ], [ 77.8104523, 11.884814 ], [ 77.8105079, 11.8847871 ], [ 77.8104852, 11.8847422 ], [ 77.8104296, 11.8847691 ] ] ] } },
{ "type": "Feature", "properties": { "building": "yes", "name": null }, "geometry": { "type": "Polygon", "coordinates": [ [ [ 77.8103068, 11.8847454 ], [ 77.8103799, 11.8847238 ], [ 77.810369, 11.8846885 ], [ 77.8102959, 11.8847101 ], [ 77.8103068, 11.8847454 ] ] ] } },
{ "type": "Feature", "properties": { "building": "yes", "name": null }, "geometry": { "type": "Polygon", "coordinates": [ [ [ 77.81039, 11.8846949 ], [ 77.8104638, 11.8846674 ], [ 77.8104427, 11.8846134 ], [ 77.8103689, 11.884641 ], [ 77.81039, 11.8846949 ] ] ] } },
{ "type": "Feature", "properties": { "building": "yes", "name": null }, "geometry": { "type": "Polygon", "coordinates": [ [ [ 77.8115085, 11.8824134 ], [ 77.8115702, 11.8823884 ], [ 77.8115497, 11.8823399 ], [ 77.811488, 11.8823649 ], [ 77.8115085, 11.8824134 ] ] ] } },
{ "type": "Feature", "properties": { "building": "yes", "name": null }, "geometry": { "type": "Polygon", "coordinates": [ [ [ 77.8121683, 11.8825892 ], [ 77.8122316, 11.882576 ], [ 77.8122155, 11.8825025 ], [ 77.8121522, 11.8825157 ], [ 77.8121683, 11.8825892 ] ] ] } },
{ "type": "Feature", "properties": { "building": "yes", "name": null }, "geometry": { "type": "Polygon", "coordinates": [ [ [ 77.8119926, 11.8824186 ], [ 77.8120516, 11.8824055 ], [ 77.8120392, 11.882352 ], [ 77.8119802, 11.8823651 ], [ 77.8119926, 11.8824186 ] ] ] } },
{ "type": "Feature", "properties": { "building": "yes", "name": null }, "geometry": { "type": "Polygon", "coordinates": [ [ [ 77.8119738, 11.8831234 ], [ 77.8120352, 11.8831019 ], [ 77.8120084, 11.8830284 ], [ 77.811947, 11.8830499 ], [ 77.8119738, 11.8831234 ] ] ] } },
{ "type": "Feature", "properties": { "building": "yes", "name": null }, "geometry": { "type": "Polygon", "coordinates": [ [ [ 77.811318, 11.883374 ], [ 77.8113963, 11.8833446 ], [ 77.8113628, 11.8832593 ], [ 77.8112845, 11.8832887 ], [ 77.811318, 11.883374 ] ] ] } },
{ "type": "Feature", "properties": { "building": "yes", "name": null }, "geometry": { "type": "Polygon", "coordinates": [ [ [ 77.8071821, 11.8870158 ], [ 77.8072464, 11.8869948 ], [ 77.8072283, 11.8869417 ], [ 77.807164, 11.8869627 ], [ 77.8071821, 11.8870158 ] ] ] } },
{ "type": "Feature", "properties": { "building": "yes", "name": null }, "geometry": { "type": "Polygon", "coordinates": [ [ [ 77.805739, 11.8866693 ], [ 77.8058023, 11.8866532 ], [ 77.8057862, 11.8865928 ], [ 77.805723, 11.886609 ], [ 77.805739, 11.8866693 ] ] ] } },
{ "type": "Feature", "properties": { "building": "yes", "name": null }, "geometry": { "type": "Polygon", "coordinates": [ [ [ 77.8062259, 11.8872323 ], [ 77.8062807, 11.8872102 ], [ 77.8062525, 11.8871433 ], [ 77.8061977, 11.8871654 ], [ 77.8062259, 11.8872323 ] ] ] } },
{ "type": "Feature", "properties": { "building": "yes", "name": null }, "geometry": { "type": "Polygon", "coordinates": [ [ [ 77.8055707, 11.8880591 ], [ 77.8056257, 11.8880393 ], [ 77.8056049, 11.8879841 ], [ 77.8055499, 11.888004 ], [ 77.8055707, 11.8880591 ] ] ] } },
{ "type": "Feature", "properties": { "building": "yes", "name": null }, "geometry": { "type": "Polygon", "coordinates": [ [ [ 77.8069413, 11.8881582 ], [ 77.8069633, 11.8881885 ], [ 77.8070324, 11.8881406 ], [ 77.8070104, 11.8881103 ], [ 77.8069413, 11.8881582 ] ] ] } },
{ "type": "Feature", "properties": { "building": "yes", "name": null }, "geometry": { "type": "Polygon", "coordinates": [ [ [ 77.8068508, 11.8880316 ], [ 77.8068942, 11.8880012 ], [ 77.8068573, 11.8879507 ], [ 77.8068139, 11.887981 ], [ 77.8068508, 11.8880316 ] ] ] } },
{ "type": "Feature", "properties": { "building": "yes", "name": null }, "geometry": { "type": "Polygon", "coordinates": [ [ [ 77.805953, 11.888128 ], [ 77.8059937, 11.8881003 ], [ 77.8059568, 11.8880484 ], [ 77.8059161, 11.8880762 ], [ 77.805953, 11.888128 ] ] ] } },
{ "type": "Feature", "properties": { "building": "yes", "name": null }, "geometry": { "type": "Polygon", "coordinates": [ [ [ 77.8064049, 11.8883701 ], [ 77.8064787, 11.8883308 ], [ 77.8064463, 11.8882728 ], [ 77.8063726, 11.8883121 ], [ 77.8064049, 11.8883701 ] ] ] } },
{ "type": "Feature", "properties": { "building": "yes", "name": null }, "geometry": { "type": "Polygon", "coordinates": [ [ [ 77.8065263, 11.8884791 ], [ 77.806594, 11.8884528 ], [ 77.8065784, 11.8884143 ], [ 77.8065107, 11.8884405 ], [ 77.8065263, 11.8884791 ] ] ] } },
{ "type": "Feature", "properties": { "building": "yes", "name": null }, "geometry": { "type": "Polygon", "coordinates": [ [ [ 77.8064451, 11.8885775 ], [ 77.806484, 11.8885585 ], [ 77.8064572, 11.888506 ], [ 77.8064183, 11.888525 ], [ 77.8064451, 11.8885775 ] ] ] } },
{ "type": "Feature", "properties": { "building": "yes", "name": null }, "geometry": { "type": "Polygon", "coordinates": [ [ [ 77.8063821, 11.888506 ], [ 77.8064619, 11.8884718 ], [ 77.8064295, 11.8883994 ], [ 77.8063497, 11.8884335 ], [ 77.8063821, 11.888506 ] ] ] } },
{ "type": "Feature", "properties": { "building": "yes", "name": null }, "geometry": { "type": "Polygon", "coordinates": [ [ [ 77.8065249, 11.8888032 ], [ 77.806596, 11.8887691 ], [ 77.8065707, 11.8887187 ], [ 77.8064996, 11.8887528 ], [ 77.8065249, 11.8888032 ] ] ] } },
{ "type": "Feature", "properties": { "building": "yes", "name": null }, "geometry": { "type": "Polygon", "coordinates": [ [ [ 77.8068508, 11.8892704 ], [ 77.8069237, 11.8892379 ], [ 77.8068888, 11.8891631 ], [ 77.806816, 11.8891956 ], [ 77.8068508, 11.8892704 ] ] ] } },
{ "type": "Feature", "properties": { "building": "yes", "name": null }, "geometry": { "type": "Polygon", "coordinates": [ [ [ 77.8078526, 11.8901746 ], [ 77.8079425, 11.8901641 ], [ 77.8079354, 11.8901058 ], [ 77.8078455, 11.8901163 ], [ 77.8078526, 11.8901746 ] ] ] } },
{ "type": "Feature", "properties": { "building": "yes", "name": null }, "geometry": { "type": "Polygon", "coordinates": [ [ [ 77.8079277, 11.8900119 ], [ 77.8079881, 11.8899843 ], [ 77.8079616, 11.8899288 ], [ 77.8079012, 11.8899563 ], [ 77.8079277, 11.8900119 ] ] ] } },
{ "type": "Feature", "properties": { "building": "yes", "name": null }, "geometry": { "type": "Polygon", "coordinates": [ [ [ 77.8074959, 11.8898688 ], [ 77.8075911, 11.8898321 ], [ 77.8075631, 11.8897626 ], [ 77.8074679, 11.8897993 ], [ 77.8074959, 11.8898688 ] ] ] } },
{ "type": "Feature", "properties": { "building": "yes", "name": null }, "geometry": { "type": "Polygon", "coordinates": [ [ [ 77.8060585, 11.890978 ], [ 77.806005, 11.8908675 ], [ 77.8061332, 11.8908081 ], [ 77.8061587, 11.8908609 ], [ 77.8061385, 11.8908703 ], [ 77.8061665, 11.890928 ], [ 77.8060585, 11.890978 ] ] ] } },
{ "type": "Feature", "properties": { "building": "yes", "name": null }, "geometry": { "type": "Polygon", "coordinates": [ [ [ 77.7992211, 11.795962 ], [ 77.7993208, 11.7959425 ], [ 77.7992515, 11.7956038 ], [ 77.7991343, 11.7956267 ], [ 77.7991606, 11.7957551 ], [ 77.7990533, 11.7957762 ], [ 77.799078, 11.7958968 ], [ 77.7992028, 11.7958724 ], [ 77.7992211, 11.795962 ] ] ] } },
{ "type": "Feature", "properties": { "building": "yes", "name": null }, "geometry": { "type": "Polygon", "coordinates": [ [ [ 77.8012557, 11.7874943 ], [ 77.8011927, 11.7872698 ], [ 77.8010657, 11.787304 ], [ 77.8011287, 11.7875285 ], [ 77.8012557, 11.7874943 ] ] ] } },
{ "type": "Feature", "properties": { "building": "yes", "name": null }, "geometry": { "type": "Polygon", "coordinates": [ [ [ 77.7489214, 11.8442663 ], [ 77.7489302, 11.8442858 ], [ 77.7489694, 11.8442687 ], [ 77.7489392, 11.8442024 ], [ 77.7488559, 11.8442388 ], [ 77.7488772, 11.8442856 ], [ 77.7489214, 11.8442663 ] ] ] } },
{ "type": "Feature", "properties": { "building": "yes", "name": null }, "geometry": { "type": "Polygon", "coordinates": [ [ [ 77.8464785, 11.8046714 ], [ 77.8465794, 11.8045424 ], [ 77.8464974, 11.804481 ], [ 77.8464478, 11.8045444 ], [ 77.8464069, 11.8045137 ], [ 77.8463755, 11.8045538 ], [ 77.846414, 11.8045827 ], [ 77.8463942, 11.8046082 ], [ 77.8464785, 11.8046714 ] ] ] } },
{ "type": "Feature", "properties": { "building": "yes", "name": null }, "geometry": { "type": "Polygon", "coordinates": [ [ [ 77.7478068, 11.8494154 ], [ 77.7478277, 11.8494549 ], [ 77.7477758, 11.8494813 ], [ 77.7478976, 11.8497105 ], [ 77.7480179, 11.8496493 ], [ 77.7478957, 11.8494193 ], [ 77.7478805, 11.8494271 ], [ 77.7478609, 11.8493903 ], [ 77.7478799, 11.8493807 ], [ 77.7478634, 11.8493496 ], [ 77.74775, 11.8494073 ], [ 77.7477655, 11.8494364 ], [ 77.7478068, 11.8494154 ] ] ] } },
{ "type": "Feature", "properties": { "building": "yes", "name": null }, "geometry": { "type": "Polygon", "coordinates": [ [ [ 77.7987935, 11.796072 ], [ 77.7990651, 11.7960105 ], [ 77.7990399, 11.7959039 ], [ 77.7990082, 11.7959111 ], [ 77.798999, 11.7958609 ], [ 77.7988811, 11.7958815 ], [ 77.7988913, 11.7959376 ], [ 77.7987683, 11.7959654 ], [ 77.7987935, 11.796072 ] ] ] } },
{ "type": "Feature", "properties": { "building": "yes", "name": null }, "geometry": { "type": "Polygon", "coordinates": [ [ [ 77.7990269, 11.7964045 ], [ 77.7990838, 11.7963908 ], [ 77.7990716, 11.7963424 ], [ 77.799111, 11.7963332 ], [ 77.7990876, 11.7962377 ], [ 77.7989907, 11.7962605 ], [ 77.7990269, 11.7964045 ] ] ] } },
{ "type": "Feature", "properties": { "building": "yes", "name": null }, "geometry": { "type": "Polygon", "coordinates": [ [ [ 77.7993223, 11.7958948 ], [ 77.7994414, 11.7958708 ], [ 77.7993818, 11.7955876 ], [ 77.7992627, 11.7956116 ], [ 77.7993223, 11.7958948 ] ] ] } },
{ "type": "Feature", "properties": { "building": "yes", "name": null }, "geometry": { "type": "Polygon", "coordinates": [ [ [ 77.7994632, 11.7962623 ], [ 77.7995173, 11.7962491 ], [ 77.7995076, 11.7962112 ], [ 77.7994551, 11.796224 ], [ 77.7994335, 11.7961226 ], [ 77.7993235, 11.7961451 ], [ 77.7993643, 11.7963371 ], [ 77.7994744, 11.7963146 ], [ 77.7994632, 11.7962623 ] ] ] } },
{ "type": "Feature", "properties": { "building": "yes", "name": null }, "geometry": { "type": "Polygon", "coordinates": [ [ [ 77.7989793, 11.7961959 ], [ 77.7993429, 11.796111 ], [ 77.799316, 11.7960006 ], [ 77.7989524, 11.7960855 ], [ 77.7989793, 11.7961959 ] ] ] } },
{ "type": "Feature", "properties": { "building": "yes", "name": null }, "geometry": { "type": "Polygon", "coordinates": [ [ [ 77.7988872, 11.7961803 ], [ 77.7989598, 11.7961673 ], [ 77.7989479, 11.7961037 ], [ 77.7988754, 11.7961166 ], [ 77.7988872, 11.7961803 ] ] ] } },
{ "type": "Feature", "properties": { "building": "yes", "name": null }, "geometry": { "type": "Polygon", "coordinates": [ [ [ 77.8753362, 11.8386043 ], [ 77.8753248, 11.8386046 ], [ 77.8752915, 11.8386361 ], [ 77.8752557, 11.8386363 ], [ 77.8752562, 11.8387089 ], [ 77.8754025, 11.8387079 ], [ 77.8754005, 11.8386024 ], [ 77.8753901, 11.8386027 ], [ 77.8753913, 11.8385756 ], [ 77.8753375, 11.8385733 ], [ 77.8753362, 11.8386043 ] ] ] } },
{ "type": "Feature", "properties": { "building": "yes", "name": null }, "geometry": { "type": "Polygon", "coordinates": [ [ [ 77.7351794, 11.7747001 ], [ 77.7352406, 11.7746771 ], [ 77.735209, 11.7745966 ], [ 77.7350403, 11.77466 ], [ 77.7350719, 11.7747405 ], [ 77.7351086, 11.7747267 ], [ 77.7351215, 11.7747611 ], [ 77.7351927, 11.7747354 ], [ 77.7351794, 11.7747001 ] ] ] } },
{ "type": "Feature", "properties": { "building": "yes", "name": null }, "geometry": { "type": "Polygon", "coordinates": [ [ [ 77.8008843, 11.7905754 ], [ 77.8008734, 11.7905291 ], [ 77.8008369, 11.7905373 ], [ 77.80082, 11.7904652 ], [ 77.8006562, 11.7905021 ], [ 77.8006842, 11.7906206 ], [ 77.8008843, 11.7905754 ] ] ] } },
{ "type": "Feature", "properties": { "building": "yes", "name": null }, "geometry": { "type": "Polygon", "coordinates": [ [ [ 77.893616, 11.7582206 ], [ 77.8938237, 11.7582149 ], [ 77.8938219, 11.7581529 ], [ 77.8937631, 11.7581545 ], [ 77.8937612, 11.7580899 ], [ 77.8936937, 11.7580918 ], [ 77.8936955, 11.7581541 ], [ 77.8936141, 11.7581563 ], [ 77.893616, 11.7582206 ] ] ] } },
{ "type": "Feature", "properties": { "building": "yes", "name": null }, "geometry": { "type": "Polygon", "coordinates": [ [ [ 77.8703476, 11.7505269 ], [ 77.870308, 11.7504431 ], [ 77.8702196, 11.7504832 ], [ 77.8702572, 11.7505628 ], [ 77.8702351, 11.7505729 ], [ 77.8702564, 11.7506179 ], [ 77.8702803, 11.750607 ], [ 77.8703096, 11.7506689 ], [ 77.87043, 11.7506119 ], [ 77.8703823, 11.7505112 ], [ 77.8703476, 11.7505269 ] ] ] } },
{ "type": "Feature", "properties": { "building": "yes", "name": null }, "geometry": { "type": "Polygon", "coordinates": [ [ [ 77.8371611, 11.8139779 ], [ 77.8372089, 11.8140714 ], [ 77.8373269, 11.8140136 ], [ 77.8372791, 11.8139202 ], [ 77.8371611, 11.8139779 ] ] ] } },
{ "type": "Feature", "properties": { "building": "yes", "name": null }, "geometry": { "type": "Polygon", "coordinates": [ [ [ 77.8395335, 11.8124368 ], [ 77.8395645, 11.8125331 ], [ 77.8396838, 11.8124964 ], [ 77.8396529, 11.8124001 ], [ 77.8395335, 11.8124368 ] ] ] } },
{ "type": "Feature", "properties": { "building": "yes", "name": null }, "geometry": { "type": "Polygon", "coordinates": [ [ [ 77.7932788, 11.764985 ], [ 77.7934301, 11.7649496 ], [ 77.7933603, 11.7646647 ], [ 77.7932091, 11.7647001 ], [ 77.7932788, 11.764985 ] ] ] } },
{ "type": "Feature", "properties": { "building": "yes", "name": null }, "geometry": { "type": "Polygon", "coordinates": [ [ [ 77.8426757, 11.8157724 ], [ 77.8428227, 11.8157384 ], [ 77.8427811, 11.8155664 ], [ 77.8426342, 11.8156004 ], [ 77.8426757, 11.8157724 ] ] ] } },
{ "type": "Feature", "properties": { "building": "yes", "name": null }, "geometry": { "type": "Polygon", "coordinates": [ [ [ 77.8448242, 11.8158013 ], [ 77.844854, 11.8158684 ], [ 77.844925, 11.8158382 ], [ 77.8448953, 11.8157711 ], [ 77.8448242, 11.8158013 ] ] ] } },
{ "type": "Feature", "properties": { "building": "yes", "name": null }, "geometry": { "type": "Polygon", "coordinates": [ [ [ 77.7974148, 11.8036455 ], [ 77.7974332, 11.8037189 ], [ 77.7975754, 11.8036848 ], [ 77.7975314, 11.8035092 ], [ 77.7974764, 11.8035224 ], [ 77.797502, 11.8036246 ], [ 77.7974148, 11.8036455 ] ] ] } },
{ "type": "Feature", "properties": { "building": "yes", "name": null }, "geometry": { "type": "Polygon", "coordinates": [ [ [ 77.8832294, 11.7501144 ], [ 77.8832783, 11.7502429 ], [ 77.8833467, 11.750218 ], [ 77.8832978, 11.7500894 ], [ 77.8832294, 11.7501144 ] ] ] } },
{ "type": "Feature", "properties": { "building": "yes", "name": null }, "geometry": { "type": "Polygon", "coordinates": [ [ [ 77.8907771, 11.7602086 ], [ 77.8908379, 11.7603438 ], [ 77.8908643, 11.7603324 ], [ 77.8908918, 11.7603936 ], [ 77.890966, 11.7603616 ], [ 77.8908777, 11.7601652 ], [ 77.8907771, 11.7602086 ] ] ] } },
{ "type": "Feature", "properties": { "building": "yes", "name": null }, "geometry": { "type": "Polygon", "coordinates": [ [ [ 77.7993681, 11.7936757 ], [ 77.7993861, 11.7937277 ], [ 77.7994873, 11.7936943 ], [ 77.7994694, 11.7936422 ], [ 77.7993681, 11.7936757 ] ] ] } },
{ "type": "Feature", "properties": { "building": "yes", "name": null }, "geometry": { "type": "Polygon", "coordinates": [ [ [ 77.8323036, 11.8078095 ], [ 77.8323923, 11.8078235 ], [ 77.8323991, 11.8077817 ], [ 77.8324208, 11.8077851 ], [ 77.8324394, 11.807672 ], [ 77.8323291, 11.8076546 ], [ 77.8323036, 11.8078095 ] ] ] } },
{ "type": "Feature", "properties": { "building": "yes", "name": null }, "geometry": { "type": "Polygon", "coordinates": [ [ [ 77.8564958, 11.8177887 ], [ 77.8565242, 11.8178409 ], [ 77.8566932, 11.817753 ], [ 77.8566648, 11.8177007 ], [ 77.8564958, 11.8177887 ] ] ] } },
{ "type": "Feature", "properties": { "building": "yes", "name": null }, "geometry": { "type": "Polygon", "coordinates": [ [ [ 77.8217331, 11.8046537 ], [ 77.8218741, 11.8047351 ], [ 77.821905, 11.804684 ], [ 77.8217639, 11.8046025 ], [ 77.8217331, 11.8046537 ] ] ] } },
{ "type": "Feature", "properties": { "building": "yes", "name": null }, "geometry": { "type": "Polygon", "coordinates": [ [ [ 77.845024, 11.8164655 ], [ 77.8451218, 11.8165062 ], [ 77.845217, 11.816287 ], [ 77.8451192, 11.8162463 ], [ 77.845024, 11.8164655 ] ] ] } },
{ "type": "Feature", "properties": { "building": "yes", "name": null }, "geometry": { "type": "Polygon", "coordinates": [ [ [ 77.8003706, 11.7864257 ], [ 77.8003905, 11.7865118 ], [ 77.800652, 11.7864541 ], [ 77.8006321, 11.7863679 ], [ 77.8003706, 11.7864257 ] ] ] } },
{ "type": "Feature", "properties": { "building": "yes", "name": null }, "geometry": { "type": "Polygon", "coordinates": [ [ [ 77.8944772, 11.7581183 ], [ 77.8945268, 11.7582078 ], [ 77.8946233, 11.7581566 ], [ 77.8945738, 11.7580671 ], [ 77.8944772, 11.7581183 ] ] ] } },
{ "type": "Feature", "properties": { "building": "yes", "name": null }, "geometry": { "type": "Polygon", "coordinates": [ [ [ 77.7983026, 11.7934479 ], [ 77.7983872, 11.7934208 ], [ 77.7983604, 11.7933407 ], [ 77.7982758, 11.7933678 ], [ 77.7983026, 11.7934479 ] ] ] } },
{ "type": "Feature", "properties": { "building": "yes", "name": null }, "geometry": { "type": "Polygon", "coordinates": [ [ [ 77.7981417, 11.7941936 ], [ 77.7982714, 11.7941583 ], [ 77.7982111, 11.7939456 ], [ 77.7980813, 11.7939809 ], [ 77.7981417, 11.7941936 ] ] ] } },
{ "type": "Feature", "properties": { "building": "yes", "name": null }, "geometry": { "type": "Polygon", "coordinates": [ [ [ 77.8553358, 11.8188716 ], [ 77.8553622, 11.8189608 ], [ 77.8554454, 11.8189372 ], [ 77.8554189, 11.818848 ], [ 77.8553358, 11.8188716 ] ] ] } },
{ "type": "Feature", "properties": { "building": "yes", "name": null }, "geometry": { "type": "Polygon", "coordinates": [ [ [ 77.8007609, 11.7862104 ], [ 77.8007719, 11.7862855 ], [ 77.800902, 11.7862671 ], [ 77.800891, 11.786192 ], [ 77.8007609, 11.7862104 ] ] ] } },
{ "type": "Feature", "properties": { "building": "yes", "name": null }, "geometry": { "type": "Polygon", "coordinates": [ [ [ 77.7995472, 11.7950666 ], [ 77.7996625, 11.7950495 ], [ 77.7996571, 11.7950088 ], [ 77.79957, 11.7948854 ], [ 77.7995123, 11.794892 ], [ 77.7995472, 11.7950666 ] ] ] } },
{ "type": "Feature", "properties": { "building": "yes", "name": null }, "geometry": { "type": "Polygon", "coordinates": [ [ [ 77.8922135, 11.7600799 ], [ 77.8922464, 11.7601667 ], [ 77.892351, 11.7601286 ], [ 77.8923181, 11.7600418 ], [ 77.8922135, 11.7600799 ] ] ] } },
{ "type": "Feature", "properties": { "building": "yes", "name": null }, "geometry": { "type": "Polygon", "coordinates": [ [ [ 77.7970742, 11.7891235 ], [ 77.7970974, 11.7892136 ], [ 77.7972088, 11.789186 ], [ 77.7971855, 11.789096 ], [ 77.7970742, 11.7891235 ] ] ] } },
{ "type": "Feature", "properties": { "building": "yes", "name": null }, "geometry": { "type": "Polygon", "coordinates": [ [ [ 77.846638, 11.8170772 ], [ 77.8467254, 11.8172087 ], [ 77.8467924, 11.817166 ], [ 77.8467051, 11.8170345 ], [ 77.846638, 11.8170772 ] ] ] } },
{ "type": "Feature", "properties": { "building": "yes", "name": null }, "geometry": { "type": "Polygon", "coordinates": [ [ [ 77.8565045, 11.8175158 ], [ 77.856582, 11.8176291 ], [ 77.8566483, 11.8175857 ], [ 77.8565708, 11.8174724 ], [ 77.8565045, 11.8175158 ] ] ] } },
{ "type": "Feature", "properties": { "building": "yes", "name": null }, "geometry": { "type": "Polygon", "coordinates": [ [ [ 77.7976777, 11.7816916 ], [ 77.7977318, 11.7816811 ], [ 77.797701, 11.7815288 ], [ 77.7976468, 11.7815393 ], [ 77.7976777, 11.7816916 ] ] ] } },
{ "type": "Feature", "properties": { "building": "yes", "name": null }, "geometry": { "type": "Polygon", "coordinates": [ [ [ 77.8555571, 11.817874 ], [ 77.8556388, 11.8178548 ], [ 77.8556133, 11.8177511 ], [ 77.8555316, 11.8177703 ], [ 77.8555571, 11.817874 ] ] ] } },
{ "type": "Feature", "properties": { "building": "yes", "name": null }, "geometry": { "type": "Polygon", "coordinates": [ [ [ 77.8554779, 11.8178858 ], [ 77.8555359, 11.8178671 ], [ 77.8554354, 11.8175691 ], [ 77.8553773, 11.8175878 ], [ 77.8554779, 11.8178858 ] ] ] } },
{ "type": "Feature", "properties": { "building": "yes", "name": null }, "geometry": { "type": "Polygon", "coordinates": [ [ [ 77.8206401, 11.7830176 ], [ 77.8206583, 11.7830896 ], [ 77.8207991, 11.7830555 ], [ 77.8207809, 11.7829834 ], [ 77.8206401, 11.7830176 ] ] ] } },
{ "type": "Feature", "properties": { "building": "yes", "name": null }, "geometry": { "type": "Polygon", "coordinates": [ [ [ 77.80008, 11.7872983 ], [ 77.8001299, 11.7874565 ], [ 77.800227, 11.7874271 ], [ 77.8001771, 11.7872689 ], [ 77.80008, 11.7872983 ] ] ] } },
{ "type": "Feature", "properties": { "building": "yes", "name": null }, "geometry": { "type": "Polygon", "coordinates": [ [ [ 77.8053501, 11.7753281 ], [ 77.8054584, 11.7752941 ], [ 77.8054264, 11.7751964 ], [ 77.8054571, 11.7751868 ], [ 77.8054281, 11.7750983 ], [ 77.8053974, 11.7751079 ], [ 77.8053685, 11.7750198 ], [ 77.8052603, 11.7750537 ], [ 77.8053501, 11.7753281 ] ] ] } },
{ "type": "Feature", "properties": { "building": "yes", "name": null }, "geometry": { "type": "Polygon", "coordinates": [ [ [ 77.7517904, 11.8490299 ], [ 77.751815, 11.8491166 ], [ 77.7520081, 11.8490641 ], [ 77.7519836, 11.8489774 ], [ 77.7517904, 11.8490299 ] ] ] } },
{ "type": "Feature", "properties": { "building": "yes", "name": null }, "geometry": { "type": "Polygon", "coordinates": [ [ [ 77.7994171, 11.7939113 ], [ 77.7994452, 11.7939971 ], [ 77.79968, 11.7939233 ], [ 77.7996637, 11.7938735 ], [ 77.7996086, 11.7938908 ], [ 77.7995968, 11.7938549 ], [ 77.7994171, 11.7939113 ] ] ] } },
{ "type": "Feature", "properties": { "building": "yes", "name": null }, "geometry": { "type": "Polygon", "coordinates": [ [ [ 77.8439572, 11.8161708 ], [ 77.8440237, 11.8162737 ], [ 77.8440565, 11.8162533 ], [ 77.84399, 11.8161504 ], [ 77.8439572, 11.8161708 ] ] ] } },
{ "type": "Feature", "properties": { "building": "yes", "name": null }, "geometry": { "type": "Polygon", "coordinates": [ [ [ 77.7977736, 11.7942999 ], [ 77.7978176, 11.7942896 ], [ 77.7977901, 11.7941767 ], [ 77.7977461, 11.794187 ], [ 77.7977736, 11.7942999 ] ] ] } },
{ "type": "Feature", "properties": { "building": "yes", "name": null }, "geometry": { "type": "Polygon", "coordinates": [ [ [ 77.7940097, 11.7810036 ], [ 77.794055, 11.7810623 ], [ 77.7942589, 11.7809113 ], [ 77.7942136, 11.7808527 ], [ 77.7940097, 11.7810036 ] ] ] } },
{ "type": "Feature", "properties": { "building": "yes", "name": null }, "geometry": { "type": "Polygon", "coordinates": [ [ [ 77.8448926, 11.8162843 ], [ 77.8449596, 11.8163107 ], [ 77.8450065, 11.8161965 ], [ 77.8449395, 11.8161701 ], [ 77.8448926, 11.8162843 ] ] ] } },
{ "type": "Feature", "properties": { "building": "yes", "name": null }, "geometry": { "type": "Polygon", "coordinates": [ [ [ 77.7994956, 11.7942303 ], [ 77.7995426, 11.7943268 ], [ 77.7996969, 11.7942548 ], [ 77.7996498, 11.7941583 ], [ 77.7994956, 11.7942303 ] ] ] } },
{ "type": "Feature", "properties": { "building": "yes", "name": null }, "geometry": { "type": "Polygon", "coordinates": [ [ [ 77.7985648, 11.7932825 ], [ 77.7985934, 11.7933522 ], [ 77.7987187, 11.7933029 ], [ 77.7986902, 11.7932333 ], [ 77.7985648, 11.7932825 ] ] ] } },
{ "type": "Feature", "properties": { "building": "yes", "name": null }, "geometry": { "type": "Polygon", "coordinates": [ [ [ 77.8951733, 11.7567148 ], [ 77.8952313, 11.7567961 ], [ 77.8954137, 11.7566713 ], [ 77.8953557, 11.75659 ], [ 77.8951733, 11.7567148 ] ] ] } },
{ "type": "Feature", "properties": { "building": "yes", "name": null }, "geometry": { "type": "Polygon", "coordinates": [ [ [ 77.7978896, 11.7940794 ], [ 77.7979195, 11.7941842 ], [ 77.7980537, 11.7941474 ], [ 77.7980237, 11.7940426 ], [ 77.7978896, 11.7940794 ] ] ] } },
{ "type": "Feature", "properties": { "building": "yes", "name": null }, "geometry": { "type": "Polygon", "coordinates": [ [ [ 77.7996748, 11.8071361 ], [ 77.7997812, 11.8071158 ], [ 77.7997448, 11.8069939 ], [ 77.7996436, 11.807032 ], [ 77.7996748, 11.8071361 ] ] ] } },
{ "type": "Feature", "properties": { "building": "yes", "name": "Mettur dam office" }, "geometry": { "type": "Polygon", "coordinates": [ [ [ 77.8000728, 11.8077178 ], [ 77.8000274, 11.8076568 ], [ 77.8001156, 11.8076022 ], [ 77.800087, 11.8075476 ], [ 77.800148, 11.8075019 ], [ 77.8001844, 11.8075654 ], [ 77.8001623, 11.8075793 ], [ 77.800196, 11.8076352 ], [ 77.8002233, 11.8076187 ], [ 77.8002661, 11.8076771 ], [ 77.8001973, 11.8077165 ], [ 77.8001597, 11.8076657 ], [ 77.8000728, 11.8077178 ] ] ] } },
{ "type": "Feature", "properties": { "building": "industrial", "name": null }, "geometry": { "type": "Polygon", "coordinates": [ [ [ 77.8061986, 11.7664997 ], [ 77.8069659, 11.7675904 ], [ 77.8071808, 11.7674455 ], [ 77.8064132, 11.766355 ], [ 77.8061986, 11.7664997 ] ] ] } },
{ "type": "Feature", "properties": { "building": "industrial", "name": null }, "geometry": { "type": "Polygon", "coordinates": [ [ [ 77.8073453, 11.7664894 ], [ 77.8081127, 11.76758 ], [ 77.8083275, 11.7674351 ], [ 77.80756, 11.7663446 ], [ 77.8073453, 11.7664894 ] ] ] } },
{ "type": "Feature", "properties": { "building": "industrial", "name": null }, "geometry": { "type": "Polygon", "coordinates": [ [ [ 77.8090585, 11.7688455 ], [ 77.8098742, 11.770013 ], [ 77.8100844, 11.7698722 ], [ 77.8092685, 11.7687049 ], [ 77.8090585, 11.7688455 ] ] ] } },
{ "type": "Feature", "properties": { "building": "industrial", "name": null }, "geometry": { "type": "Polygon", "coordinates": [ [ [ 77.807823, 11.7689088 ], [ 77.8086387, 11.7700763 ], [ 77.8088489, 11.7699355 ], [ 77.808033, 11.7687681 ], [ 77.807823, 11.7689088 ] ] ] } },
{ "type": "Feature", "properties": { "building": "industrial", "name": null }, "geometry": { "type": "Polygon", "coordinates": [ [ [ 77.8282908, 11.8133355 ], [ 77.8286104, 11.8132539 ], [ 77.8286412, 11.8133695 ], [ 77.8283217, 11.8134511 ], [ 77.8282908, 11.8133355 ] ] ] } },
{ "type": "Feature", "properties": { "building": "industrial", "name": null }, "geometry": { "type": "Polygon", "coordinates": [ [ [ 77.8286344, 11.8132433 ], [ 77.8288591, 11.813188 ], [ 77.8288875, 11.8132988 ], [ 77.8286628, 11.813354 ], [ 77.8286344, 11.8132433 ] ] ] } },
{ "type": "Feature", "properties": { "building": "industrial", "name": null }, "geometry": { "type": "Polygon", "coordinates": [ [ [ 77.8276582, 11.8130621 ], [ 77.8277965, 11.8130295 ], [ 77.8278593, 11.8132844 ], [ 77.827721, 11.8133171 ], [ 77.8276582, 11.8130621 ] ] ] } },
{ "type": "Feature", "properties": { "building": "industrial", "name": null }, "geometry": { "type": "Polygon", "coordinates": [ [ [ 77.8268388, 11.8111917 ], [ 77.8270277, 11.8111465 ], [ 77.8271482, 11.8116295 ], [ 77.8269594, 11.8116746 ], [ 77.8268388, 11.8111917 ] ] ] } },
{ "type": "Feature", "properties": { "building": "industrial", "name": null }, "geometry": { "type": "Polygon", "coordinates": [ [ [ 77.8271583, 11.8110965 ], [ 77.8273437, 11.8110545 ], [ 77.8274573, 11.8115338 ], [ 77.8272717, 11.8115759 ], [ 77.8271583, 11.8110965 ] ] ] } },
{ "type": "Feature", "properties": { "building": "church", "name": "St. Mary's Chruch" }, "geometry": { "type": "Polygon", "coordinates": [ [ [ 77.7960517, 11.7835411 ], [ 77.7966165, 11.7833764 ], [ 77.7964824, 11.7830104 ], [ 77.7963419, 11.7828603 ], [ 77.7962227, 11.7827603 ], [ 77.7958738, 11.7829881 ], [ 77.7960517, 11.7835411 ] ] ] } },
{ "type": "Feature", "properties": { "building": "yes", "name": "Sub Court" }, "geometry": { "type": "Polygon", "coordinates": [ [ [ 77.7975211, 11.7849934 ], [ 77.7975057, 11.7849082 ], [ 77.7973512, 11.7849288 ], [ 77.7972838, 11.7845562 ], [ 77.7976152, 11.7844902 ], [ 77.7976504, 11.7846304 ], [ 77.7976166, 11.7846442 ], [ 77.7976082, 11.7845947 ], [ 77.7975886, 11.7846057 ], [ 77.797597, 11.7846401 ], [ 77.7975436, 11.7846442 ], [ 77.7975591, 11.7847267 ], [ 77.7976812, 11.7847061 ], [ 77.7977178, 11.7848504 ], [ 77.7975843, 11.7848752 ], [ 77.7975956, 11.7849769 ], [ 77.7975211, 11.7849934 ] ] ] } },
{ "type": "Feature", "properties": { "building": "yes", "name": null }, "geometry": { "type": "Polygon", "coordinates": [ [ [ 77.8137651, 11.795906 ], [ 77.8138485, 11.7958847 ], [ 77.8138092, 11.795737 ], [ 77.813824, 11.7957332 ], [ 77.8138206, 11.7957206 ], [ 77.8138548, 11.7957119 ], [ 77.813823, 11.7955926 ], [ 77.8137447, 11.7956125 ], [ 77.8137734, 11.7957203 ], [ 77.8137193, 11.7957341 ], [ 77.8137651, 11.795906 ] ] ] } },
{ "type": "Feature", "properties": { "building": "hospital", "name": null }, "geometry": { "type": "Polygon", "coordinates": [ [ [ 77.8129052, 11.7943523 ], [ 77.8128579, 11.7941075 ], [ 77.8131772, 11.7940959 ], [ 77.8132347, 11.7943622 ], [ 77.8132127, 11.7943606 ], [ 77.8129052, 11.7943523 ] ] ] } },
{ "type": "Feature", "properties": { "building": "yes", "name": "TNGDECO OFFICE" }, "geometry": { "type": "Polygon", "coordinates": [ [ [ 77.7978119, 11.7786281 ], [ 77.7983734, 11.7786723 ], [ 77.7983061, 11.7777932 ], [ 77.7975021, 11.7780073 ], [ 77.7976828, 11.7783769 ], [ 77.7978119, 11.7786281 ] ] ] } },
{ "type": "Feature", "properties": { "building": "yes", "name": "Mettur Taluk Office" }, "geometry": { "type": "Polygon", "coordinates": [ [ [ 77.7995764, 11.7928461 ], [ 77.7992454, 11.7929379 ], [ 77.7992826, 11.7930747 ], [ 77.7994047, 11.7930279 ], [ 77.7994277, 11.7931094 ], [ 77.7995233, 11.7930799 ], [ 77.799502, 11.7929985 ], [ 77.7996206, 11.792969 ], [ 77.7995764, 11.7928461 ] ] ] } },
{ "type": "Feature", "properties": { "building": "yes", "name": "Mettur Dam RTOffice" }, "geometry": { "type": "Polygon", "coordinates": [ [ [ 77.8002987, 11.7831596 ], [ 77.8000609, 11.7827 ], [ 77.79988, 11.7822602 ], [ 77.8005691, 11.7819896 ], [ 77.8007195, 11.7825189 ], [ 77.8007886, 11.7825089 ], [ 77.8009004, 11.7829009 ], [ 77.8002987, 11.7831596 ] ] ] } },
{ "type": "Feature", "properties": { "building": "yes", "name": null }, "geometry": { "type": "Polygon", "coordinates": [ [ [ 77.8138418, 11.796244 ], [ 77.813866, 11.7963269 ], [ 77.8143312, 11.7961966 ], [ 77.814307, 11.7961138 ], [ 77.814196, 11.7961449 ], [ 77.8141936, 11.7961365 ], [ 77.8141047, 11.7961614 ], [ 77.8140919, 11.7961177 ], [ 77.8140225, 11.7961371 ], [ 77.8140353, 11.7961811 ], [ 77.8139513, 11.7962046 ], [ 77.8139536, 11.7962127 ], [ 77.8138418, 11.796244 ] ] ] } },
{ "type": "Feature", "properties": { "building": "church", "name": "St. Joseph RC Chruch" }, "geometry": { "type": "Polygon", "coordinates": [ [ [ 77.8142177, 11.7958888 ], [ 77.8141295, 11.7955763 ], [ 77.8142941, 11.7955318 ], [ 77.8143823, 11.7958443 ], [ 77.8142177, 11.7958888 ] ] ] } },
{ "type": "Feature", "properties": { "building": "yes", "name": null }, "geometry": { "type": "Polygon", "coordinates": [ [ [ 77.813777, 11.7959434 ], [ 77.8138194, 11.7961082 ], [ 77.8138029, 11.7961122 ], [ 77.8137614, 11.7959476 ], [ 77.813777, 11.7959434 ] ] ] } },
{ "type": "Feature", "properties": { "building": "yes", "name": null }, "geometry": { "type": "Polygon", "coordinates": [ [ [ 77.8124123, 11.7986367 ], [ 77.8123689, 11.798602 ], [ 77.8122946, 11.7985085 ], [ 77.8122645, 11.7983673 ], [ 77.812507, 11.798272 ], [ 77.8125397, 11.7984115 ], [ 77.8126326, 11.7985197 ], [ 77.8126883, 11.7985934 ], [ 77.8125477, 11.7986523 ], [ 77.8125008, 11.7986917 ], [ 77.8124512, 11.7987241 ], [ 77.8124123, 11.7986367 ] ] ] } },
{ "type": "Feature", "properties": { "building": "yes", "name": null }, "geometry": { "type": "Polygon", "coordinates": [ [ [ 77.812513, 11.7986778 ], [ 77.8124997, 11.7986866 ], [ 77.8124842, 11.7986908 ], [ 77.8124682, 11.7986901 ], [ 77.8124532, 11.7986844 ], [ 77.8124402, 11.7986737 ], [ 77.8124315, 11.7986592 ], [ 77.8124284, 11.7986428 ], [ 77.812431, 11.7986263 ], [ 77.8124391, 11.7986115 ], [ 77.8124518, 11.7986004 ], [ 77.8124676, 11.798594 ], [ 77.8124847, 11.7985932 ], [ 77.812501, 11.798598 ], [ 77.8125081, 11.798603 ], [ 77.8125141, 11.7986072 ], [ 77.8125235, 11.7986199 ], [ 77.8125283, 11.7986349 ], [ 77.812528, 11.7986506 ], [ 77.8125228, 11.7986654 ], [ 77.812513, 11.7986778 ] ] ] } },
{ "type": "Feature", "properties": { "building": "yes", "name": null }, "geometry": { "type": "Polygon", "coordinates": [ [ [ 77.8125081, 11.798603 ], [ 77.8126317, 11.7985479 ], [ 77.8126574, 11.7985921 ], [ 77.812528, 11.7986506 ], [ 77.8125283, 11.7986349 ], [ 77.8125235, 11.7986199 ], [ 77.8125141, 11.7986072 ], [ 77.8125081, 11.798603 ] ] ] } },
{ "type": "Feature", "properties": { "building": "yes", "name": null }, "geometry": { "type": "Polygon", "coordinates": [ [ [ 77.8161934, 11.7891491 ], [ 77.8172958, 11.7886311 ], [ 77.8174286, 11.7889724 ], [ 77.8171808, 11.7890729 ], [ 77.8172534, 11.7892478 ], [ 77.8165739, 11.7895596 ], [ 77.8164004, 11.7896428 ], [ 77.8161934, 11.7891491 ] ] ] } },
{ "type": "Feature", "properties": { "building": "fire_station", "name": "Mettur Fire Rescue Station" }, "geometry": { "type": "Polygon", "coordinates": [ [ [ 77.8266146, 11.8020605 ], [ 77.8266049, 11.8016562 ], [ 77.827368, 11.8015994 ], [ 77.8273067, 11.8020479 ], [ 77.8266146, 11.8020605 ] ] ] } },
{ "type": "Feature", "properties": { "building": "yes", "name": "Sub-Collector Office - Mettur Dam" }, "geometry": { "type": "Polygon", "coordinates": [ [ [ 77.8034709, 11.7946638 ], [ 77.8032551, 11.7947265 ], [ 77.8032016, 11.7945504 ], [ 77.8031613, 11.7945621 ], [ 77.8031418, 11.794498 ], [ 77.8031827, 11.7944861 ], [ 77.803161, 11.7944146 ], [ 77.8032917, 11.7943766 ], [ 77.8033015, 11.7944088 ], [ 77.8034786, 11.7943574 ], [ 77.8035156, 11.7944794 ], [ 77.8032703, 11.7945507 ], [ 77.8032921, 11.7946226 ], [ 77.8034449, 11.7945781 ], [ 77.8034709, 11.7946638 ] ] ] } },
{ "type": "Feature", "properties": { "building": "yes", "name": null }, "geometry": { "type": "Polygon", "coordinates": [ [ [ 77.7953508, 11.7731448 ], [ 77.7957062, 11.7730174 ], [ 77.7956034, 11.7727425 ], [ 77.7952481, 11.7728699 ], [ 77.7953508, 11.7731448 ] ] ] } }
]
}
