{
"type": "FeatureCollection",
"name": "water",
"crs": { "type": "name", "properties": { "name": "urn:ogc:def:crs:OGC:1.3:CRS84" } },
"features": [
{ "type": "Feature", "properties": { "natural": "water", "name": null }, "geometry": { "type": "Polygon", "coordinates": [ [ [ 77.8068546, 11.7960561 ], [ 77.8068388, 11.7963035 ], [ 77.8068283, 11.7964159 ], [ 77.8068334, 11.7967194 ], [ 77.8069246, 11.7974152 ], [ 77.8069541, 11.797725 ], [ 77.8068951, 11.7979928 ], [ 77.8067959, 11.7981713 ], [ 77.8064043, 11.7988067 ], [ 77.8052294, 11.8002455 ], [ 77.8048861, 11.8007076 ], [ 77.8045535, 11.8014847 ], [ 77.8042531, 11.8020991 ], [ 77.8038776, 11.8025454 ], [ 77.8035397, 11.8028657 ], [ 77.8018284, 11.8036586 ], [ 77.8013188, 11.8039317 ], [ 77.8010076, 11.8041995 ], [ 77.8006804, 11.8047141 ], [ 77.8006187, 11.8048401 ], [ 77.8005732, 11.8050055 ], [ 77.8004551, 11.8055096 ], [ 77.8004229, 11.8060268 ], [ 77.8004766, 11.8063734 ], [ 77.8007756, 11.8068368 ], [ 77.80084, 11.8069326 ], [ 77.8011471, 11.8067278 ], [ 77.8014489, 11.806523 ], [ 77.8011471, 11.806082 ], [ 77.8010157, 11.8058496 ], [ 77.8009701, 11.8056619 ], [ 77.8009714, 11.805142 ], [ 77.8010828, 11.8047718 ], [ 77.8015602, 11.804252 ], [ 77.8021449, 11.8039264 ], [ 77.8028325, 11.8037451 ], [ 77.8029786, 11.8036483 ], [ 77.8030519, 11.8035915 ], [ 77.8029501, 11.8038481 ], [ 77.8028999, 11.8040165 ], [ 77.802874, 11.8041815 ], [ 77.8028787, 11.8042589 ], [ 77.8028962, 11.8044475 ], [ 77.80294, 11.8047272 ], [ 77.8030092, 11.8049314 ], [ 77.8030669, 11.8050524 ], [ 77.8031056, 11.8051088 ], [ 77.80315, 11.805193 ], [ 77.803259, 11.8051163 ], [ 77.8033146, 11.8051988 ], [ 77.8034811, 11.8050803 ], [ 77.8035871, 11.8050048 ], [ 77.803541, 11.8049373 ], [ 77.8033789, 11.8046871 ], [ 77.8033175, 11.804482 ], [ 77.8033827, 11.8039921 ], [ 77.8034747, 11.8037743 ], [ 77.8036016, 11.8036511 ], [ 77.8037649, 11.8033698 ], [ 77.804009, 11.8030758 ], [ 77.8040882, 11.8028973 ], [ 77.804172, 11.8028106 ], [ 77.8042129, 11.8028474 ], [ 77.8043518, 11.8027045 ], [ 77.8044906, 11.8025059 ], [ 77.8047358, 11.8021555 ], [ 77.8049655, 11.8017001 ], [ 77.8053151, 11.800898 ], [ 77.8055738, 11.8005586 ], [ 77.8064011, 11.7995945 ], [ 77.8066994, 11.7992647 ], [ 77.8067967, 11.7991472 ], [ 77.8068417, 11.7991317 ], [ 77.8068894, 11.799165 ], [ 77.8069362, 11.799289 ], [ 77.8069407, 11.8001772 ], [ 77.8069702, 11.800684 ], [ 77.8070318, 11.8013403 ], [ 77.8071633, 11.8016659 ], [ 77.8072759, 11.8019258 ], [ 77.8075445, 11.8022291 ], [ 77.807817, 11.8020882 ], [ 77.808313, 11.8017083 ], [ 77.809059, 11.8012607 ], [ 77.8088772, 11.8010174 ], [ 77.8087291, 11.8008281 ], [ 77.8086952, 11.8007163 ], [ 77.80879, 11.8005549 ], [ 77.8087875, 11.8005483 ], [ 77.8086787, 11.8005282 ], [ 77.8086116, 11.8004084 ], [ 77.8085047, 11.8002017 ], [ 77.8084682, 11.8000661 ], [ 77.8084482, 11.7998429 ], [ 77.8084705, 11.7997274 ], [ 77.808525, 11.7997446 ], [ 77.8085711, 11.7997777 ], [ 77.8086278, 11.7998385 ], [ 77.8088829, 11.8003778 ], [ 77.808855, 11.8004804 ], [ 77.8087888, 11.8005475 ], [ 77.8087914, 11.8005548 ], [ 77.808918, 11.8005373 ], [ 77.8090693, 11.8006583 ], [ 77.8091544, 11.8007715 ], [ 77.8092263, 11.8008515 ], [ 77.8093815, 11.8007417 ], [ 77.80958, 11.8005921 ], [ 77.8097691, 11.8004608 ], [ 77.8097959, 11.8004083 ], [ 77.8097919, 11.8003334 ], [ 77.8095894, 11.7999934 ], [ 77.8093493, 11.7995103 ], [ 77.8092554, 11.7988776 ], [ 77.8092366, 11.7987253 ], [ 77.8092742, 11.7986623 ], [ 77.8093466, 11.7986255 ], [ 77.8095478, 11.7986177 ], [ 77.8098596, 11.7986376 ], [ 77.8103525, 11.7985204 ], [ 77.8107379, 11.7984383 ], [ 77.8106897, 11.7982755 ], [ 77.8106649, 11.7982383 ], [ 77.8105831, 11.7979442 ], [ 77.8105382, 11.7977642 ], [ 77.8105181, 11.7976963 ], [ 77.8103659, 11.7977342 ], [ 77.8095652, 11.7979416 ], [ 77.8094552, 11.7978851 ], [ 77.8094003, 11.7977998 ], [ 77.8093842, 11.797662 ], [ 77.8094821, 11.7969452 ], [ 77.8095049, 11.7966459 ], [ 77.8094754, 11.7963387 ], [ 77.809352, 11.7960236 ], [ 77.8092769, 11.7958398 ], [ 77.8091703, 11.7957251 ], [ 77.8090918, 11.7953147 ], [ 77.8089684, 11.7948841 ], [ 77.8086895, 11.7944115 ], [ 77.8084866, 11.7940446 ], [ 77.8081638, 11.793461 ], [ 77.8080652, 11.7931982 ], [ 77.8077158, 11.7922675 ], [ 77.8076434, 11.7920747 ], [ 77.8072625, 11.7907829 ], [ 77.8068012, 11.7897432 ], [ 77.8067566, 11.7896565 ], [ 77.8056264, 11.7874589 ], [ 77.8051704, 11.7863929 ], [ 77.8048472, 11.7855938 ], [ 77.804752, 11.7853584 ], [ 77.8039948, 11.7836083 ], [ 77.8039795, 11.7835729 ], [ 77.8034592, 11.7818977 ], [ 77.8032982, 11.7811205 ], [ 77.8030352, 11.7795935 ], [ 77.8028315, 11.7784108 ], [ 77.8026518, 11.7774053 ], [ 77.8024185, 11.7761001 ], [ 77.802279, 11.7752599 ], [ 77.8022605, 11.7751125 ], [ 77.8021449, 11.7741905 ], [ 77.8020966, 11.7738052 ], [ 77.8019142, 11.7728284 ], [ 77.8012544, 11.7704914 ], [ 77.8011149, 11.7701186 ], [ 77.8009433, 11.7698665 ], [ 77.8007984, 11.7695987 ], [ 77.800675, 11.7688949 ], [ 77.8000688, 11.7663111 ], [ 77.79957, 11.7648774 ], [ 77.7988833, 11.7624563 ], [ 77.79832, 11.7605289 ], [ 77.7977782, 11.7587065 ], [ 77.7974456, 11.7577875 ], [ 77.7967268, 11.755797 ], [ 77.7957076, 11.7528927 ], [ 77.7951229, 11.751627 ], [ 77.7945703, 11.7509127 ], [ 77.793535, 11.7496575 ], [ 77.7926338, 11.7489432 ], [ 77.7910459, 11.7473256 ], [ 77.7904183, 11.7466638 ], [ 77.7902305, 11.7461911 ], [ 77.7889109, 11.7435125 ], [ 77.7879023, 11.7415798 ], [ 77.7871513, 11.739752 ], [ 77.7865612, 11.7376196 ], [ 77.7857137, 11.7348674 ], [ 77.7846086, 11.7317895 ], [ 77.7834043, 11.7293183 ], [ 77.782951, 11.728147 ], [ 77.7829322, 11.7279133 ], [ 77.7830127, 11.7277767 ], [ 77.7834231, 11.7276401 ], [ 77.7835116, 11.727522 ], [ 77.7835035, 11.7274169 ], [ 77.7834472, 11.7273801 ], [ 77.7832836, 11.7273749 ], [ 77.7827632, 11.7273906 ], [ 77.7826586, 11.7273723 ], [ 77.782605, 11.7273276 ], [ 77.7825224, 11.7271198 ], [ 77.7808226, 11.7275287 ], [ 77.7793185, 11.727913 ], [ 77.7792375, 11.7279986 ], [ 77.7792494, 11.7281514 ], [ 77.7794453, 11.7288246 ], [ 77.7795365, 11.7289427 ], [ 77.7796975, 11.7290268 ], [ 77.779837, 11.7291843 ], [ 77.7800738, 11.7299196 ], [ 77.7809983, 11.7319524 ], [ 77.781508, 11.7334335 ], [ 77.7819425, 11.7346731 ], [ 77.7825808, 11.7362172 ], [ 77.7832246, 11.7373465 ], [ 77.7838683, 11.7387593 ], [ 77.7845979, 11.7411701 ], [ 77.7852362, 11.7427142 ], [ 77.7860033, 11.7442951 ], [ 77.7865505, 11.7456081 ], [ 77.7868134, 11.7469422 ], [ 77.7870279, 11.7481974 ], [ 77.7872103, 11.7488959 ], [ 77.7877629, 11.7494894 ], [ 77.7885675, 11.7501249 ], [ 77.7893937, 11.7506238 ], [ 77.7911586, 11.7517688 ], [ 77.7919632, 11.7525303 ], [ 77.792666, 11.7535859 ], [ 77.7929932, 11.7543632 ], [ 77.7932668, 11.7553716 ], [ 77.7937603, 11.7571047 ], [ 77.7941465, 11.7581183 ], [ 77.7947098, 11.7595153 ], [ 77.7952677, 11.7619889 ], [ 77.795611, 11.7645675 ], [ 77.7959275, 11.7657859 ], [ 77.7963364, 11.7672292 ], [ 77.7964854, 11.7677553 ], [ 77.796995, 11.7692258 ], [ 77.7976495, 11.7708433 ], [ 77.7985346, 11.7728862 ], [ 77.7990174, 11.7747767 ], [ 77.7999186, 11.7776125 ], [ 77.8005677, 11.7804378 ], [ 77.8011417, 11.78299 ], [ 77.8017265, 11.7845864 ], [ 77.8022897, 11.7860515 ], [ 77.8027725, 11.7870703 ], [ 77.8034216, 11.7883568 ], [ 77.8039849, 11.7893336 ], [ 77.8043631, 11.7900688 ], [ 77.8049371, 11.7912818 ], [ 77.8055325, 11.7927338 ], [ 77.8058973, 11.7935661 ], [ 77.8061843, 11.794233 ], [ 77.8063908, 11.7947502 ], [ 77.8066376, 11.7951992 ], [ 77.8066943, 11.795456 ], [ 77.8068546, 11.7960561 ] ] ] } },
{ "type": "Feature", "properties": { "natural": "water", "name": null }, "geometry": { "type": "Polygon", "coordinates": [ [ [ 77.8162714, 11.8016793 ], [ 77.8167337, 11.8017594 ], [ 77.817183, 11.8018343 ], [ 77.8179773, 11.8016039 ], [ 77.8183392, 11.8014023 ], [ 77.8184775, 11.8011776 ], [ 77.8191482, 11.8002907 ], [ 77.8193188, 11.7999682 ], [ 77.8193365, 11.7996917 ], [ 77.8192541, 11.7991331 ], [ 77.8190305, 11.7981424 ], [ 77.8189953, 11.7975722 ], [ 77.8189776, 11.7965528 ], [ 77.8189011, 11.7961381 ], [ 77.8193424, 11.7951878 ], [ 77.8197366, 11.7941699 ], [ 77.8200249, 11.7928525 ], [ 77.8202443, 11.7914282 ], [ 77.8202291, 11.7906263 ], [ 77.8200374, 11.7898244 ], [ 77.8199063, 11.7881937 ], [ 77.8195751, 11.7870123 ], [ 77.8189766, 11.7855213 ], [ 77.8183493, 11.7843053 ], [ 77.8178716, 11.7836922 ], [ 77.8173939, 11.7831999 ], [ 77.8168856, 11.782492 ], [ 77.8168458, 11.7818479 ], [ 77.8162345, 11.7811324 ], [ 77.8156291, 11.7810736 ], [ 77.8152067, 11.7804836 ], [ 77.8151386, 11.7800524 ], [ 77.8143579, 11.7796731 ], [ 77.8137302, 11.7792189 ], [ 77.8133017, 11.7789463 ], [ 77.8128144, 11.77857 ], [ 77.8122708, 11.777543 ], [ 77.8118099, 11.7767222 ], [ 77.8112453, 11.7759358 ], [ 77.8105722, 11.7751721 ], [ 77.8098543, 11.774429 ], [ 77.808904, 11.7735459 ], [ 77.8080379, 11.7725091 ], [ 77.8064818, 11.7701753 ], [ 77.8060778, 11.7689868 ], [ 77.805768, 11.7686335 ], [ 77.805275, 11.7674123 ], [ 77.8048162, 11.7662049 ], [ 77.8046113, 11.7657793 ], [ 77.8042535, 11.765515 ], [ 77.8034672, 11.7649386 ], [ 77.8026047, 11.7644828 ], [ 77.8019043, 11.7643543 ], [ 77.8012569, 11.7647386 ], [ 77.8004602, 11.7655632 ], [ 77.7957567, 11.7652357 ], [ 77.7963364, 11.7672292 ], [ 77.8010705, 11.7667968 ], [ 77.8030845, 11.7670521 ], [ 77.8036213, 11.7673738 ], [ 77.8039874, 11.7677703 ], [ 77.8050942, 11.7700498 ], [ 77.8056004, 11.7710315 ], [ 77.8065514, 11.7727992 ], [ 77.8069914, 11.7734639 ], [ 77.8074701, 11.7740339 ], [ 77.8086108, 11.774971 ], [ 77.8095225, 11.7754381 ], [ 77.8105543, 11.7762867 ], [ 77.8110223, 11.7770119 ], [ 77.8116055, 11.7778632 ], [ 77.8126622, 11.7792381 ], [ 77.814247, 11.7809251 ], [ 77.815664, 11.7827222 ], [ 77.8168073, 11.7845802 ], [ 77.817412, 11.7859678 ], [ 77.8179961, 11.7877944 ], [ 77.8182447, 11.7899547 ], [ 77.818166, 11.7911928 ], [ 77.8183585, 11.7926149 ], [ 77.818454, 11.7931311 ], [ 77.818306, 11.7936995 ], [ 77.817884, 11.7944098 ], [ 77.8176022, 11.7949722 ], [ 77.8174398, 11.7953262 ], [ 77.8168219, 11.7961456 ], [ 77.8161175, 11.7967889 ], [ 77.8154566, 11.7973153 ], [ 77.8150296, 11.7975683 ], [ 77.8146703, 11.7980061 ], [ 77.8144423, 11.7982291 ], [ 77.8143176, 11.7984016 ], [ 77.8142072, 11.7985846 ], [ 77.8141196, 11.798644 ], [ 77.8140321, 11.7989086 ], [ 77.813895, 11.7993485 ], [ 77.8138566, 11.7995232 ], [ 77.8147229, 11.80074 ], [ 77.815552, 11.8016254 ], [ 77.8162714, 11.8016793 ] ] ] } }
]
}
