{
  "type": "FeatureCollection",
  "features": [
    {
      "type": "Feature",
      "id": "river-centerline-1",
      "properties": {
        "name": "River Channel",
        "waterway": "river",
        "width": 80.0
      },
      "geometry": {
        "type": "LineString",
        "coordinates": [
          [
            70.88499999999999,
            22.73
          ],
          [
            70.89259365767501,
            22.734137931034482
          ],
          [
            70.89898844377254,
            22.738275862068967
          ],
          [
            70.90317476217635,
            22.74241379310345
          ],
          [
            70.9044916852593,
            22.74655172413793
          ],
          [
            70.90273129982309,
            22.750689655172415
          ],
          [
            70.89817153202074,
            22.754827586206897
          ],
          [
            70.89153226892803,
            22.75896551724138
          ],
          [
            70.88386170420316,
            22.76310344827586
          ],
          [
            70.87637085135574,
            22.767241379310345
          ],
          [
            70.87024235134149,
            22.771379310344827
          ],
          [
            70.86644375955915,
            22.77551724137931
          ],
          [
            70.8655747901277,
            22.779655172413793
          ],
          [
            70.86777263421345,
            22.783793103448275
          ],
          [
            70.87269030056147,
            22.787931034482757
          ],
          [
            70.87955139778511,
            22.79206896551724
          ],
          [
            70.88727270949458,
            22.796206896551723
          ],
          [
            70.89463521034719,
            22.800344827586205
          ],
          [
            70.90047652334505,
            22.80448275862069
          ],
          [
            70.9038744336046,
            22.80862068965517
          ],
          [
            70.90429248580915,
            22.812758620689653
          ],
          [
            70.90166467870772,
            22.816896551724138
          ],
          [
            70.89640588526139,
            22.82103448275862
          ],
          [
            70.88934635332495,
            22.8251724137931
          ],
          [
            70.88160062776615,
            22.829310344827583
          ],
          [
            70.87439158833764,
            22.833448275862068
          ],
          [
            70.86885738385281,
            22.83758620689655
          ],
          [
            70.8658717435137,
            22.84172413793103
          ],
          [
            70.86590603428154,
            22.845862068965516
          ],
          [
            70.8689548423981,
            22.849999999999998
          ]
        ]
      }
    }
  ]
}