{
  "type": "FeatureCollection",
  "features": [
    {
      "type": "Feature",
      "id": 27283370,
      "properties": {
        "bridge": "yes",
        "highway": "trunk",
        "layer": "1",
        "ref": "NH707A",
        "affected_length_km": 0.06
      },
      "geometry": {
        "type": "LineString",
        "coordinates": [
          [
            78.4848432,
            30.3528514
          ],
          [
            78.4853328,
            30.3525698
          ]
        ]
      }
    },
    {
      "type": "Feature",
      "id": 27283371,
      "properties": {
        "highway": "trunk",
        "ref": "NH707A",
        "affected_length_km": 2.56
      },
      "geometry": {
        "type": "MultiLineString",
        "coordinates": [
          [
            [
              78.47602316254579,
              30.367865726343105
            ],
            [
              78.4764469,
              30.3677494
            ],
            [
              78.4770074,
              30.3675041
            ],
            [
              78.4772301,
              30.3673675
            ],
            [
              78.4772918,
              30.3673351
            ],
            [
              78.4774581,
              30.3672125
            ],
            [
              78.4776244,
              30.3670574
            ],
            [
              78.4778658,
              30.3670204
            ],
            [
              78.477965,
              30.3670042
            ],
            [
              78.4782976,
              30.3668792
            ],
            [
              78.4785095,
              30.3668445
            ],
            [
              78.4786651,
              30.3667404
            ],
            [
              78.4792578,
              30.366657
            ],
            [
              78.4796843,
              30.3665275
            ],
            [
              78.4800839,
              30.3663932
            ],
            [
              78.4803575,
              30.3662474
            ],
            [
              78.4806338,
              30.3660739
            ],
            [
              78.4808537,
              30.3658933
            ],
            [
              78.480792,
              30.3656966
            ],
            [
              78.4807813,
              30.3654907
            ],
            [
              78.4807625,
              30.3653703
            ],
            [
              78.4806633,
              30.3652592
            ],
            [
              78.4804192,
              30.3650672
            ],
            [
              78.4802744,
              30.3649514
            ],
            [
              78.48028692366968,
              30.36486111111111
            ]
          ],
          [
            [
              78.4805123172818,
              30.363713303729405
            ],
            [
              78.4805319,
              30.3637017
            ],
            [
              78.4806392,
              30.3634749
            ],
            [
              78.48055056689698,
              30.36325430834743
            ]
          ],
          [
            [
              78.4805543337141,
              30.363209106542037
            ],
            [
              78.4805909,
              30.3630792
            ],
            [
              78.4806874,
              30.362901
            ],
            [
              78.4807759,
              30.3627737
            ],
            [
              78.4809771,
              30.3626302
            ],
            [
              78.4815565,
              30.3623016
            ],
            [
              78.4820135,
              30.3620259
            ],
            [
              78.4822431,
              30.361885
            ],
            [
              78.4823182,
              30.3617947
            ],
            [
              78.4823424,
              30.3616906
            ],
            [
              78.482456,
              30.3614168
            ],
            [
              78.4826454,
              30.3612115
            ],
            [
              78.4828413,
              30.3611259
            ],
            [
              78.4829378,
              30.361068
            ],
            [
              78.4829995,
              30.3610078
            ],
            [
              78.4830049,
              30.3608968
            ],
            [
              78.4829593,
              30.3608065
            ],
            [
              78.4828842,
              30.3607209
            ],
            [
              78.4826562,
              30.3606283
            ],
            [
              78.4822538,
              30.3605033
            ],
            [
              78.4821331,
              30.3604686
            ],
            [
              78.4820178,
              30.3604015
            ],
            [
              78.4819132,
              30.3603413
            ],
            [
              78.4818408,
              30.3602534
            ],
            [
              78.4817845,
              30.3601585
            ],
            [
              78.4818022,
              30.3599106
            ],
            [
              78.4816773,
              30.3596017
            ],
            [
              78.4816373,
              30.3593489
            ],
            [
              78.4816312,
              30.3593104
            ],
            [
              78.4816584,
              30.3590938
            ],
            [
              78.4815404,
              30.3589272
            ],
            [
              78.4813124,
              30.358705
            ],
            [
              78.48097222222223,
              30.358521765488682
            ]
          ],
          [
            [
              78.48097222222223,
              30.357158921207052
            ],
            [
              78.4811354,
              30.3570178
            ],
            [
              78.4814388,
              30.3566539
            ],
            [
              78.4815779,
              30.3564184
            ],
            [
              78.4817898,
              30.3563559
            ],
            [
              78.4824631,
              30.3563744
            ],
            [
              78.4830853,
              30.3563721
            ],
            [
              78.4834957,
              30.3563142
            ],
            [
              78.4837988,
              30.3562772
            ],
            [
              78.4844295,
              30.3560285
            ],
            [
              78.4846491,
              30.3559254
            ],
            [
              78.4854707,
              30.355646
            ],
            [
              78.4858158,
              30.3554324
            ],
            [
              78.4859017,
              30.3553583
            ],
            [
              78.485958,
              30.3552611
            ],
            [
              78.4859714,
              30.3551917
            ],
            [
              78.4858875,
              30.355056
            ],
            [
              78.4857327,
              30.3549949
            ],
            [
              78.4855932,
              30.354951
            ],
            [
              78.485561,
              30.3548676
            ],
            [
              78.4855664,
              30.3547612
            ],
            [
              78.48562,
              30.3546292
            ],
            [
              78.4857836,
              30.3544302
            ],
            [
              78.4856603,
              30.354296
            ],
            [
              78.4855208,
              30.3541687
            ],
            [
              78.4854537,
              30.3540714
            ],
            [
              78.4853813,
              30.3537937
            ],
            [
              78.4853408,
              30.3536732
            ],
            [
              78.4852552,
              30.3533771
            ],
            [
              78.4851533,
              30.3532544
            ],
            [
              78.4850058,
              30.3532058
            ],
            [
              78.4847644,
              30.3531364
            ],
            [
              78.4846608,
              30.3529803
            ],
            [
              78.4846433,
              30.3529335
            ],
            [
              78.4846685,
              30.3529108
            ],
            [
              78.4848432,
              30.3528514
            ]
          ]
        ]
      }
    },
    {
      "type": "Feature",
      "id": 27286262,
      "properties": {
        "highway": "trunk",
        "ref": "NH707A",
        "affected_length_km": 1.53
      },
      "geometry": {
        "type": "MultiLineString",
        "coordinates": [
          [
            [
              78.4853328,
              30.3525698
            ],
            [
              78.4854899,
              30.35256
            ],
            [
              78.4856012,
              30.352589
            ],
            [
              78.4857112,
              30.3526908
            ],
            [
              78.4857705,
              30.3527986
            ],
            [
              78.4860737,
              30.3532753
            ],
            [
              78.4864591,
              30.3535319
            ],
            [
              78.4866916,
              30.3539104
            ],
            [
              78.4874349,
              30.3546439
            ],
            [
              78.4875351,
              30.3548607
            ],
            [
              78.4875042,
              30.3552368
            ],
            [
              78.4873303,
              30.3560865
            ],
            [
              78.4870837,
              30.3564452
            ],
            [
              78.4865369,
              30.3568723
            ],
            [
              78.4858277,
              30.3573342
            ],
            [
              78.4845236,
              30.3575708
            ],
            [
              78.4839281,
              30.3576671
            ],
            [
              78.4832221,
              30.3578254
            ],
            [
              78.483092,
              30.3579459
            ],
            [
              78.4830521,
              30.3580553
            ],
            [
              78.4830565,
              30.3581513
            ],
            [
              78.4830901,
              30.3582327
            ],
            [
              78.4833446,
              30.3584855
            ],
            [
              78.4838038,
              30.3589456
            ],
            [
              78.484182,
              30.359723
            ],
            [
              78.48458333333335,
              30.360523477937548
            ]
          ],
          [
            [
              78.48458333333335,
              30.36210050595287
            ],
            [
              78.48445616939894,
              30.36236111111111
            ]
          ],
          [
            [
              78.48430555555557,
              30.36247445557595
            ],
            [
              78.483951799672,
              30.362916666666663
            ]
          ],
          [
            [
              78.48375000000001,
              30.363172394630844
            ],
            [
              78.483657,
              30.3633172
            ],
            [
              78.4835913,
              30.3635399
            ],
            [
              78.48360713510243,
              30.363615087119797
            ]
          ]
        ]
      }
    },
    {
      "type": "Feature",
      "id": 227388012,
      "properties": {
        "highway": "primary",
        "source": "Bing",
        "surface": "paved",
        "affected_length_km": 6.18
      },
      "geometry": {
        "type": "MultiLineString",
        "coordinates": [
          [
            [
              78.48986111111113,
              30.30050517518023
            ],
            [
              78.4901208,
              30.3007739
            ],
            [
              78.4905982,
              30.3014395
            ],
            [
              78.4910022,
              30.3018773
            ],
            [
              78.4912683,
              30.3025159
            ],
            [
              78.49131217834349,
              30.302701067232373
            ]
          ],
          [
            [
              78.49189685861778,
              30.30494661128664
            ],
            [
              78.4920901,
              30.3054687
            ],
            [
              78.4921449,
              30.3061444
            ],
            [
              78.4918553,
              30.3069418
            ],
            [
              78.491728,
              30.3075752
            ],
            [
              78.4916909,
              30.30781
            ],
            [
              78.4916401,
              30.3079688
            ],
            [
              78.4915501,
              30.30806
            ],
            [
              78.491417,
              30.3083303
            ],
            [
              78.4913192,
              30.3089114
            ],
            [
              78.4912096,
              30.3091445
            ],
            [
              78.4911039,
              30.3093303
            ],
            [
              78.4910844,
              30.3094688
            ],
            [
              78.4909826,
              30.3096005
            ],
            [
              78.4909239,
              30.3096816
            ],
            [
              78.4908809,
              30.3097391
            ],
            [
              78.4907713,
              30.3098945
            ],
            [
              78.4906931,
              30.3100532
            ],
            [
              78.4904974,
              30.3101816
            ],
            [
              78.4904426,
              30.3103438
            ],
            [
              78.4904152,
              30.3105059
            ],
            [
              78.4903917,
              30.310658
            ],
            [
              78.4903526,
              30.3107863
            ],
            [
              78.4902235,
              30.3109721
            ],
            [
              78.49017203573942,
              30.31098482519582
            ]
          ],
          [
            [
              78.48905228289897,
              30.312139041264484
            ],
            [
              78.4890495,
              30.3122062
            ],
            [
              78.4890201,
              30.3125356
            ],
            [
              78.4889771,
              30.31274
            ],
            [
              78.488891,
              30.3129916
            ],
            [
              78.4888147,
              30.3131741
            ],
            [
              78.4886073,
              30.313468
            ],
            [
              78.4882277,
              30.3139426
            ],
            [
              78.4881103,
              30.3140727
            ],
            [
              78.4879792,
              30.3141909
            ],
            [
              78.4878599,
              30.3142838
            ],
            [
              78.487807,
              30.3143531
            ],
            [
              78.4877464,
              30.3144595
            ],
            [
              78.4875331,
              30.314848
            ],
            [
              78.4873453,
              30.3153226
            ],
            [
              78.4871907,
              30.3156097
            ],
            [
              78.4871594,
              30.315701
            ],
            [
              78.4871183,
              30.315777
            ],
            [
              78.4869598,
              30.3159881
            ],
            [
              78.486637,
              30.3161604
            ],
            [
              78.4865277777778,
              30.316260920564517
            ]
          ],
          [
            [
              78.4865277777778,
              30.317745231966683
            ],
            [
              78.4865411,
              30.3177819
            ],
            [
              78.4866428,
              30.3180656
            ],
            [
              78.4866448,
              30.3182328
            ],
            [
              78.4866526,
              30.3183696
            ],
            [
              78.4867035,
              30.3184896
            ],
            [
              78.4867465,
              30.318574
            ],
            [
              78.4870166,
              30.3189169
            ],
            [
              78.4875175,
              30.3194979
            ],
            [
              78.4877992,
              30.319856
            ],
            [
              78.4878599,
              30.3200738
            ],
            [
              78.4878207,
              30.3203492
            ],
            [
              78.4878168,
              30.3206008
            ],
            [
              78.4877464,
              30.3208727
            ],
            [
              78.4876642,
              30.3210281
            ],
            [
              78.4876603,
              30.3212325
            ],
            [
              78.4876525,
              30.3214605
            ],
            [
              78.487629,
              30.321697
            ],
            [
              78.487582,
              30.3219047
            ],
            [
              78.4875194,
              30.3219604
            ],
            [
              78.4874353,
              30.3220635
            ],
            [
              78.487404,
              30.3221564
            ],
            [
              78.4874079,
              30.3222324
            ],
            [
              78.4874235,
              30.3223084
            ],
            [
              78.4874627,
              30.3223793
            ],
            [
              78.487537,
              30.3224536
            ],
            [
              78.4876799,
              30.3225938
            ],
            [
              78.4877229,
              30.322761
            ],
            [
              78.4877816,
              30.3235683
            ],
            [
              78.4878129,
              30.3244837
            ],
            [
              78.4877894,
              30.3247708
            ],
            [
              78.4878423,
              30.3250225
            ],
            [
              78.4878833,
              30.3251559
            ],
            [
              78.4879186,
              30.325291
            ],
            [
              78.4879186,
              30.3253704
            ],
            [
              78.4879147,
              30.3256254
            ],
            [
              78.4878873,
              30.3259919
            ],
            [
              78.4879127,
              30.3261608
            ],
            [
              78.4879225,
              30.3263195
            ],
            [
              78.4879675,
              30.3265948
            ],
            [
              78.4880497,
              30.3271555
            ],
            [
              78.4880516,
              30.3275761
            ],
            [
              78.4881279,
              30.3278463
            ],
            [
              78.4881279,
              30.3280709
            ],
            [
              78.4880888,
              30.3284154
            ],
            [
              78.4879949,
              30.3286738
            ],
            [
              78.4876936,
              30.3292734
            ],
            [
              78.4875722,
              30.32965
            ],
            [
              78.4874568,
              30.3300502
            ],
            [
              78.4873198,
              30.3302917
            ],
            [
              78.4871868,
              30.3304082
            ],
            [
              78.4869344,
              30.3304994
            ],
            [
              78.4868013,
              30.3305281
            ],
            [
              78.4866468,
              30.3305197
            ],
            [
              78.4865548,
              30.3305045
            ],
            [
              78.4864237,
              30.3304876
            ],
            [
              78.4860206,
              30.3303491
            ],
            [
              78.4859248,
              30.3304285
            ],
            [
              78.485915,
              30.330469
            ],
            [
              78.4859072,
              30.3305214
            ],
            [
              78.4858876,
              30.3306464
            ],
            [
              78.4858387,
              30.3307781
            ],
            [
              78.4858504,
              30.3310314
            ],
            [
              78.4859111,
              30.3312273
            ],
            [
              78.4859991,
              30.3312982
            ],
            [
              78.4860989,
              30.331354
            ],
            [
              78.4861928,
              30.3313945
            ],
            [
              78.4863102,
              30.3314435
            ],
            [
              78.4863767,
              30.3314806
            ],
            [
              78.48641,
              30.3315533
            ],
            [
              78.4863885,
              30.3316748
            ],
            [
              78.4863396,
              30.331788
            ],
            [
              78.486273,
              30.3319839
            ],
            [
              78.486228,
              30.3321713
            ],
            [
              78.4861537,
              30.3325648
            ],
            [
              78.4861283,
              30.3327996
            ],
            [
              78.4861146,
              30.333139
            ],
            [
              78.4861106,
              30.3335156
            ],
            [
              78.4862124,
              30.3339614
            ],
            [
              78.4861987,
              30.3340746
            ],
            [
              78.4861596,
              30.3341371
            ],
            [
              78.4861322,
              30.334235
            ],
            [
              78.4861615,
              30.3342924
            ],
            [
              78.4862046,
              30.33436
            ],
            [
              78.486277,
              30.3344613
            ],
            [
              78.48632,
              30.3345711
            ],
            [
              78.4863337,
              30.3347349
            ],
            [
              78.4863396,
              30.3348615
            ],
            [
              78.4863454,
              30.3349409
            ],
            [
              78.4864315,
              30.335076
            ],
            [
              78.4864628,
              30.3351723
            ],
            [
              78.4864746,
              30.3352753
            ],
            [
              78.4865137,
              30.3355337
            ],
            [
              78.4866174,
              30.3360335
            ],
            [
              78.4867074,
              30.3364405
            ],
            [
              78.4866585,
              30.3365824
            ],
            [
              78.4866076,
              30.3366398
            ],
            [
              78.4864668,
              30.3367985
            ],
            [
              78.486412,
              30.3368846
            ],
            [
              78.4864139,
              30.3369184
            ],
            [
              78.486457,
              30.3370282
            ],
            [
              78.4865059,
              30.3370923
            ],
            [
              78.4865294,
              30.3372359
            ],
            [
              78.4865176,
              30.3374199
            ],
            [
              78.4864981,
              30.3375044
            ],
            [
              78.4864765,
              30.3375736
            ],
            [
              78.4863944,
              30.33781
            ],
            [
              78.4863474,
              30.3379519
            ],
            [
              78.4862887,
              30.3380549
            ],
            [
              78.4862261,
              30.3381647
            ],
            [
              78.4862085,
              30.3382609
            ],
            [
              78.4862143,
              30.3383622
            ],
            [
              78.4861087,
              30.338597
            ],
            [
              78.4860069,
              30.3387692
            ],
            [
              78.4858896,
              30.3389398
            ],
            [
              78.4857917,
              30.3390242
            ],
            [
              78.4857154,
              30.3391238
            ],
            [
              78.4856039,
              30.3392606
            ],
            [
              78.4855569,
              30.3393197
            ],
            [
              78.4854513,
              30.3394362
            ],
            [
              78.4852556,
              30.3397013
            ],
            [
              78.4851597,
              30.3398651
            ],
            [
              78.4851186,
              30.3399344
            ],
            [
              78.4850599,
              30.3400644
            ],
            [
              78.4848212,
              30.3403852
            ],
            [
              78.4844847,
              30.3407179
            ],
            [
              78.4844045,
              30.3408091
            ],
            [
              78.4843301,
              30.3409357
            ],
            [
              78.4842734,
              30.3410387
            ],
            [
              78.4841873,
              30.3411536
            ],
            [
              78.484109,
              30.3413224
            ],
            [
              78.4839897,
              30.3415065
            ],
            [
              78.4837705,
              30.3417547
            ],
            [
              78.4836551,
              30.3419388
            ],
            [
              78.4835279,
              30.3420958
            ],
            [
              78.4833694,
              30.3422596
            ],
            [
              78.4832696,
              30.3423441
            ],
            [
              78.4831385,
              30.3424065
            ],
            [
              78.4830133,
              30.3425349
            ],
            [
              78.4829155,
              30.342626
            ],
            [
              78.4828783,
              30.3427088
            ],
            [
              78.4828353,
              30.3428321
            ],
            [
              78.4827805,
              30.3429756
            ],
            [
              78.4827335,
              30.3430685
            ],
            [
              78.4825476,
              30.3432407
            ],
            [
              78.4824107,
              30.3433403
            ],
            [
              78.4822933,
              30.3435733
            ],
            [
              78.4821054,
              30.3437642
            ],
            [
              78.4820154,
              30.3438537
            ],
            [
              78.4819059,
              30.3439178
            ],
            [
              78.4817278,
              30.3440495
            ],
            [
              78.4815869,
              30.3442538
            ],
            [
              78.4815341,
              30.3444126
            ],
            [
              78.4815204,
              30.344497
            ],
            [
              78.4815067,
              30.3446692
            ],
            [
              78.4815263,
              30.3448837
            ],
            [
              78.4815126,
              30.3451387
            ],
            [
              78.4814598,
              30.3455068
            ],
            [
              78.4813248,
              30.345728
            ],
            [
              78.4812367,
              30.3457904
            ],
            [
              78.4810919,
              30.345836
            ],
            [
              78.4810078,
              30.3458546
            ],
            [
              78.4809393,
              30.3459103
            ],
            [
              78.4809197,
              30.3459677
            ],
            [
              78.4809178,
              30.3460032
            ],
            [
              78.4809589,
              30.3460505
            ],
            [
              78.4810176,
              30.3461552
            ],
            [
              78.4810606,
              30.3464169
            ],
            [
              78.4810176,
              30.3465942
            ],
            [
              78.4809823,
              30.3467276
            ],
            [
              78.4809589,
              30.3469201
            ],
            [
              78.4809823,
              30.3471379
            ],
            [
              78.4810039,
              30.3474249
            ],
            [
              78.4811056,
              30.3476259
            ],
            [
              78.4811584,
              30.3477171
            ],
            [
              78.48118,
              30.3477863
            ],
            [
              78.4811878,
              30.3478488
            ],
            [
              78.4811839,
              30.3479382
            ],
            [
              78.4811897,
              30.3480125
            ],
            [
              78.4812484,
              30.3481814
            ],
            [
              78.4813658,
              30.3483199
            ],
            [
              78.4819861,
              30.3488787
            ],
            [
              78.4821485,
              30.3491793
            ],
            [
              78.4823676,
              30.3495204
            ],
            [
              78.4825007,
              30.3498108
            ],
            [
              78.4826561,
              30.3501159
            ],
            [
              78.4827766,
              30.3503477
            ],
            [
              78.4829135,
              30.3506246
            ],
            [
              78.4830251,
              30.3507901
            ],
            [
              78.483209,
              30.3508931
            ],
            [
              78.4832872,
              30.3509674
            ],
            [
              78.4833166,
              30.3510113
            ],
            [
              78.4833205,
              30.3510873
            ],
            [
              78.4833557,
              30.3513321
            ],
            [
              78.4835416,
              30.3516124
            ],
            [
              78.4837881,
              30.3520716
            ],
            [
              78.4839858,
              30.3523013
            ],
            [
              78.4844221,
              30.3527099
            ],
            [
              78.4845982,
              30.3528618
            ],
            [
              78.4846433,
              30.3529335
            ]
          ]
        ]
      }
    },
    {
      "type": "Feature",
      "id": 255674692,
      "properties": {
        "highway": "secondary",
        "lanes": "2",
        "name": "Chamba-Barkot Road",
        "source": "GPS",
        "surface": "asphalt",
        "affected_length_km": 0.16
      },
      "geometry": {
        "type": "MultiLineString",
        "coordinates": [
          [
            [
              78.4771493,
              30.3777621
            ],
            [
              78.4769881,
              30.3777961
            ],
            [
              78.4768539,
              30.3778192
            ],
            [
              78.4767687,
              30.3779267
            ],
            [
              78.4766926,
              30.3780433
            ],
            [
              78.4766027,
              30.3783026
            ],
            [
              78.4764854,
              30.3787162
            ],
            [
              78.47647600239196,
              30.378787801697225
            ]
          ],
          [
            [
              78.47652139572577,
              30.379241735035393
            ],
            [
              78.4765789610079,
              30.379331147170614
            ]
          ]
        ]
      }
    },
    {
      "type": "Feature",
      "id": 314465029,
      "properties": {
        "highway": "tertiary",
        "affected_length_km": 0.19
      },
      "geometry": {
        "type": "LineString",
        "coordinates": [
          [
            78.48526496989619,
            30.34379224898117
          ],
          [
            78.4853193,
            30.3436206
          ],
          [
            78.4853837,
            30.3433428
          ],
          [
            78.4856519,
            30.3428335
          ],
          [
            78.485963,
            30.3426206
          ],
          [
            78.48625000000001,
            30.342606714081995
          ]
        ]
      }
    },
    {
      "type": "Feature",
      "id": 314465077,
      "properties": {
        "highway": "tertiary",
        "affected_length_km": 1.18
      },
      "geometry": {
        "type": "LineString",
        "coordinates": [
          [
            78.48485326996183,
            30.344158204478376
          ],
          [
            78.4846434,
            30.3442594
          ],
          [
            78.4841928,
            30.3443057
          ],
          [
            78.4837958,
            30.3443057
          ],
          [
            78.4833881,
            30.3445187
          ],
          [
            78.4832594,
            30.3447965
          ],
          [
            78.4832229,
            30.345296
          ],
          [
            78.4833667,
            30.3459723
          ],
          [
            78.4829697,
            30.346676
          ],
          [
            78.4829804,
            30.3472408
          ],
          [
            78.4829804,
            30.3476667
          ],
          [
            78.4828839,
            30.347963
          ],
          [
            78.4831306,
            30.3486759
          ],
          [
            78.4836778,
            30.3492499
          ],
          [
            78.4838924,
            30.3502591
          ],
          [
            78.4846284,
            30.3511475
          ],
          [
            78.4847507,
            30.3514997
          ],
          [
            78.4853472,
            30.352064
          ],
          [
            78.4854588,
            30.3524719
          ],
          [
            78.4853328,
            30.3525698
          ]
        ]
      }
    },
    {
      "type": "Feature",
      "id": 314468048,
      "properties": {
        "highway": "tertiary",
        "affected_length_km": 0.72
      },
      "geometry": {
        "type": "MultiLineString",
        "coordinates": [
          [
            [
              78.4816373,
              30.3593489
            ],
            [
              78.4815752,
              30.359323
            ],
            [
              78.4815269,
              30.3592489
            ],
            [
              78.4815063,
              30.3591186
            ],
            [
              78.4812381,
              30.3588501
            ],
            [
              78.4810825,
              30.3587159
            ],
            [
              78.48097222222223,
              30.358729501252093
            ]
          ],
          [
            [
              78.48097222222223,
              30.358878431281514
            ],
            [
              78.4812434,
              30.3590816
            ],
            [
              78.4813553,
              30.3592119
            ],
            [
              78.4813185,
              30.3592852
            ],
            [
              78.4811729,
              30.3592628
            ],
            [
              78.48097222222223,
              30.359108647344268
            ]
          ],
          [
            [
              78.48097222222223,
              30.359362470952128
            ],
            [
              78.4813024,
              30.3595583
            ],
            [
              78.481484,
              30.3600451
            ],
            [
              78.4813829,
              30.3603406
            ],
            [
              78.48140060684241,
              30.36046353848074
            ]
          ],
          [
            [
              78.48144746011387,
              30.360650951566544
            ],
            [
              78.4816833,
              30.3608405
            ],
            [
              78.4821492,
              30.3610264
            ],
            [
              78.4822404,
              30.3611004
            ],
            [
              78.4822037,
              30.3611969
            ],
            [
              78.4820803,
              30.3611553
            ],
            [
              78.4816511,
              30.3609701
            ],
            [
              78.48151326750052,
              30.360914181113152
            ]
          ],
          [
            [
              78.48094738737477,
              30.36135914915757
            ],
            [
              78.4809744,
              30.3613735
            ],
            [
              78.4811997,
              30.36148
            ],
            [
              78.4812534,
              30.3618271
            ],
            [
              78.4811308,
              30.361882
            ],
            [
              78.4809913,
              30.361794
            ],
            [
              78.4809538,
              30.3615302
            ],
            [
              78.4807891635154,
              30.36146463173048
            ]
          ]
        ]
      }
    },
    {
      "type": "Feature",
      "id": 1001773806,
      "properties": {
        "highway": "secondary",
        "lanes": "2",
        "name": "Chamba-Barkot Road",
        "source": "GPS",
        "surface": "asphalt",
        "affected_length_km": 0.08
      },
      "geometry": {
        "type": "LineString",
        "coordinates": [
          [
            78.47845957117691,
            30.377512378435636
          ],
          [
            78.478411,
            30.3775177
          ],
          [
            78.4781381,
            30.3775645
          ],
          [
            78.477787,
            30.3776456
          ]
        ]
      }
    },
    {
      "type": "Feature",
      "id": 1001773807,
      "properties": {
        "bridge": "yes",
        "highway": "secondary",
        "lanes": "2",
        "layer": "1",
        "name": "Chamba-Barkot Road",
        "source": "GPS",
        "surface": "asphalt",
        "affected_length_km": 0.07
      },
      "geometry": {
        "type": "LineString",
        "coordinates": [
          [
            78.477787,
            30.3776456
          ],
          [
            78.4771493,
            30.3777621
          ]
        ]
      }
    },
    {
      "type": "Feature",
      "id": 1152546705,
      "properties": {
        "highway": "tertiary",
        "affected_length_km": 0.57
      },
      "geometry": {
        "type": "MultiLineString",
        "coordinates": [
          [
            [
              78.4846393687987,
              30.338999760045102
            ],
            [
              78.484633,
              30.3390166
            ],
            [
              78.48458333333335,
              30.339096476804276
            ]
          ],
          [
            [
              78.48414877315615,
              30.33958333333333
            ],
            [
              78.4841502,
              30.3396231
            ],
            [
              78.4842092,
              30.3397134
            ],
            [
              78.4842548,
              30.3397967
            ],
            [
              78.484236,
              30.3398731
            ],
            [
              78.484126,
              30.3400282
            ],
            [
              78.484059,
              30.3401949
            ],
            [
              78.4839651,
              30.3403407
            ],
            [
              78.4838659,
              30.3404796
            ],
            [
              78.4838068,
              30.3406023
            ],
            [
              78.4837668839346,
              30.3406269087061
            ]
          ],
          [
            [
              78.482841487807,
              30.341502010838234
            ],
            [
              78.4828413,
              30.3415051
            ],
            [
              78.4828225,
              30.3416208
            ],
            [
              78.4827098,
              30.341725
            ],
            [
              78.4825945,
              30.3419402
            ],
            [
              78.4825945,
              30.342056
            ],
            [
              78.4825301,
              30.342218
            ],
            [
              78.4824792,
              30.3423477
            ],
            [
              78.4824631,
              30.3424541
            ],
            [
              78.4824657,
              30.3425328
            ],
            [
              78.4823933,
              30.3426764
            ],
            [
              78.4822163,
              30.3428523
            ],
            [
              78.4822753,
              30.3429842
            ],
            [
              78.4822029,
              30.343137
            ],
            [
              78.4821519,
              30.3432828
            ],
            [
              78.4821492,
              30.3434356
            ],
            [
              78.4820983,
              30.3435838
            ],
            [
              78.4819749,
              30.3437041
            ],
            [
              78.4817442,
              30.3438523
            ],
            [
              78.4815726,
              30.3439773
            ],
            [
              78.4815136,
              30.3440999
            ],
            [
              78.4814733,
              30.3442411
            ],
            [
              78.4814545,
              30.3443314
            ],
            [
              78.4813955,
              30.3445004
            ],
            [
              78.4813446,
              30.344586
            ],
            [
              78.4813634,
              30.3446509
            ],
            [
              78.481409,
              30.3446671
            ],
            [
              78.4815067,
              30.3446692
            ]
          ]
        ]
      }
    }
  ]
}