<?xml version="1.0" encoding="UTF-8"?>
<kml xmlns="http://www.opengis.net/kml/2.2">
  <Document>
    <name>tehri Dam Break Inundation Extent</name>
    <description>Simulated Area: 3.32 km2. Max Depth: 282.43 m.</description>
    
    <Placemark>
      <name>Inundation Zone 1</name>
      <Style>
        <LineStyle><color>ff0000ff</color><width>2</width></LineStyle>
        <PolyStyle><color>7f0000ff</color></PolyStyle>
      </Style>
      <Polygon><outerBoundaryIs><LinearRing>
        <coordinates>78.4776388888889,30.380694444444444,0 78.47708333333334,30.380138888888887,0 78.47708333333334,30.379583333333333,0 78.47652777777779,30.379305555555554,0 78.47597222222224,30.373749999999998,0 78.47569444444446,30.373749999999998,0 78.47569444444446,30.372916666666665,0 78.47513888888889,30.372361111111108,0 78.47513888888889,30.36875,0 78.47708333333334,30.366805555555555,0 78.4776388888889,30.366805555555555,0 78.47791666666667,30.366249999999997,0 78.47847222222224,30.366249999999997,0 78.47930555555557,30.365416666666665,0 78.47986111111112,30.365416666666665,0 78.47986111111112,30.36486111111111,0 78.48041666666667,30.36486111111111,0 78.48069444444445,30.361527777777777,0 78.48152777777779,30.36097222222222,0 78.48125000000002,30.35986111111111,0 78.48097222222223,30.35986111111111,0 78.48097222222223,30.35597222222222,0 78.48125000000002,30.355694444444442,0 78.48208333333335,30.355694444444442,0 78.48208333333335,30.355416666666663,0 78.48486111111112,30.355138888888888,0 78.48375000000001,30.354027777777777,0 78.48375000000001,30.35347222222222,0 78.48319444444445,30.35347222222222,0 78.48291666666668,30.352083333333333,0 78.48236111111112,30.351805555555554,0 78.48208333333335,30.350694444444443,0 78.48152777777779,30.350416666666664,0 78.48152777777779,30.34958333333333,0 78.48069444444445,30.349305555555553,0 78.48069444444445,30.34847222222222,0 78.48041666666667,30.34847222222222,0 78.48041666666667,30.345416666666665,0 78.48069444444445,30.345416666666665,0 78.48069444444445,30.344583333333333,0 78.48097222222223,30.344583333333333,0 78.48125000000002,30.342916666666664,0 78.48375000000001,30.34069444444444,0 78.48402777777778,30.33958333333333,0 78.48458333333335,30.33958333333333,0 78.48458333333335,30.339027777777776,0 78.4851388888889,30.338749999999997,0 78.4851388888889,30.338194444444444,0 78.48569444444445,30.337916666666665,0 78.48569444444445,30.337361111111107,0 78.48625000000001,30.336805555555554,0 78.48625000000001,30.335694444444442,0 78.48541666666668,30.33486111111111,0 78.48541666666668,30.331249999999997,0 78.48569444444445,30.331249999999997,0 78.48597222222223,30.32986111111111,0 78.4865277777778,30.329583333333332,0 78.4865277777778,30.329027777777775,0 78.48736111111113,30.32875,0 78.48708333333335,30.320416666666663,0 78.48680555555556,30.320416666666663,0 78.48680555555556,30.31958333333333,0 78.4865277777778,30.31958333333333,0 78.4865277777778,30.31597222222222,0 78.48680555555556,30.31597222222222,0 78.48708333333335,30.31375,0 78.4901388888889,30.311249999999998,0 78.49041666666668,30.309027777777775,0 78.49125000000001,30.308194444444442,0 78.49125000000001,30.30736111111111,0 78.49152777777779,30.30736111111111,0 78.49180555555557,30.30597222222222,0 78.49208333333334,30.30597222222222,0 78.49152777777779,30.302916666666665,0 78.49125000000001,30.302638888888886,0 78.49041666666668,30.302638888888886,0 78.48986111111113,30.302083333333332,0 78.48986111111113,30.29986111111111,0 78.49430555555557,30.29986111111111,0 78.49486111111112,30.300416666666663,0 78.49486111111112,30.302916666666665,0 78.49597222222224,30.304027777777776,0 78.49597222222224,30.305416666666666,0 78.49569444444445,30.305416666666666,0 78.49569444444445,30.306527777777777,0 78.49541666666667,30.306527777777777,0 78.49541666666667,30.30763888888889,0 78.4951388888889,30.30763888888889,0 78.4951388888889,30.309027777777775,0 78.49458333333334,30.309027777777775,0 78.49458333333334,30.310138888888886,0 78.49430555555557,30.310138888888886,0 78.49430555555557,30.31097222222222,0 78.49347222222224,30.311805555555555,0 78.49291666666667,30.31458333333333,0 78.49236111111112,30.31458333333333,0 78.49208333333334,30.315138888888885,0 78.49125000000001,30.315138888888885,0 78.49125000000001,30.315694444444443,0 78.49069444444446,30.31597222222222,0 78.49069444444446,30.316527777777775,0 78.4901388888889,30.316527777777775,0 78.4901388888889,30.317361111111108,0 78.48986111111113,30.317361111111108,0 78.4901388888889,30.318194444444444,0 78.49097222222223,30.319027777777777,0 78.49097222222223,30.322638888888886,0 78.49041666666668,30.322916666666664,0 78.49041666666668,30.32569444444444,0 78.49069444444446,30.32569444444444,0 78.49069444444446,30.327916666666663,0 78.49097222222223,30.327916666666663,0 78.49097222222223,30.33097222222222,0 78.48875000000001,30.33319444444444,0 78.48875000000001,30.334305555555552,0 78.48930555555556,30.33458333333333,0 78.48930555555556,30.337083333333332,0 78.48902777777779,30.337083333333332,0 78.48875000000001,30.339027777777776,0 78.48847222222223,30.339027777777776,0 78.48819444444446,30.340138888888887,0 78.4876388888889,30.340416666666666,0 78.4876388888889,30.34097222222222,0 78.48708333333335,30.34125,0 78.48708333333335,30.341805555555553,0 78.48625000000001,30.34236111111111,0 78.48625000000001,30.342916666666664,0 78.48375000000001,30.345138888888886,0 78.48347222222223,30.346805555555555,0 78.48319444444445,30.346805555555555,0 78.48347222222223,30.347638888888888,0 78.48402777777778,30.347638888888888,0 78.48402777777778,30.34819444444444,0 78.48458333333335,30.34847222222222,0 78.48486111111112,30.34958333333333,0 78.48541666666668,30.34986111111111,0 78.48541666666668,30.350694444444443,0 78.48625000000001,30.351249999999997,0 78.48625000000001,30.351805555555554,0 78.48680555555556,30.351805555555554,0 78.48680555555556,30.352361111111108,0 78.48736111111113,30.352361111111108,0 78.48736111111113,30.353194444444444,0 78.48791666666668,30.353749999999998,0 78.48791666666668,30.357083333333332,0 78.48736111111113,30.357638888888886,0 78.48430555555557,30.357916666666664,0 78.48402777777778,30.358194444444443,0 78.48430555555557,30.358472222222222,0 78.48430555555557,30.359305555555554,0 78.48458333333335,30.359305555555554,0 78.48458333333335,30.36236111111111,0 78.48430555555557,30.36236111111111,0 78.48430555555557,30.362916666666663,0 78.48375000000001,30.362916666666663,0 78.48375000000001,30.36347222222222,0 78.48319444444445,30.364027777777775,0 78.48291666666668,30.36708333333333,0 78.48208333333335,30.367916666666666,0 78.48152777777779,30.367916666666666,0 78.48125000000002,30.36847222222222,0 78.48069444444445,30.36847222222222,0 78.47986111111112,30.369305555555552,0 78.47930555555557,30.369305555555552,0 78.4776388888889,30.37097222222222,0 78.4776388888889,30.372916666666665,0 78.47791666666667,30.372916666666665,0 78.47791666666667,30.37486111111111,0 78.47819444444445,30.37486111111111,0 78.47847222222224,30.377638888888885,0 78.47902777777779,30.377916666666664,0 78.47902777777779,30.37847222222222,0 78.47958333333334,30.37847222222222,0 78.47958333333334,30.380694444444444,0 78.4776388888889,30.380694444444444,0</coordinates>
      </LinearRing></outerBoundaryIs></Polygon>
    </Placemark>
  </Document>
</kml>