{
"type": "FeatureCollection",
"name": "waterways",
"crs": { "type": "name", "properties": { "name": "urn:ogc:def:crs:OGC:1.3:CRS84" } },
"features": [
{ "type": "Feature", "properties": { "waterway": "river", "name": "Kaveri காவிரிஆறு" }, "geometry": { "type": "LineString", "coordinates": [ [ 77.8121668, 11.8284785 ], [ 77.8118732, 11.8210056 ], [ 77.8114414, 11.8100175 ], [ 77.8112483, 11.807161 ], [ 77.8103041, 11.8047246 ], [ 77.8102095, 11.8045814 ], [ 77.8085339, 11.8020466 ], [ 77.808340800000011, 11.801763 ], [ 77.808313, 11.8017083 ], [ 77.8079706, 11.8004975 ], [ 77.807943800000018, 11.7996941 ], [ 77.8080159, 11.7988651 ], [ 77.8083354, 11.7974992 ], [ 77.8082603, 11.7966958 ], [ 77.8077829, 11.7950259 ], [ 77.8066778, 11.7925631 ], [ 77.8036952, 11.7860305 ], [ 77.801764, 11.7799704 ], [ 77.7993607, 11.7703181 ], [ 77.7982878, 11.7661588 ], [ 77.7963996, 11.7593315 ], [ 77.794404, 11.7539116 ], [ 77.7927089, 11.7513066 ], [ 77.7899194, 11.7481764 ], [ 77.7878148, 11.7446589 ], [ 77.7857351, 11.7400041 ], [ 77.7840185, 11.7346678 ], [ 77.7820267, 11.7295639 ], [ 77.7808226, 11.7275287 ], [ 77.780793, 11.7274162 ], [ 77.779918400000014, 11.722305 ], [ 77.7801025, 11.7198139 ], [ 77.7808428, 11.7178179 ], [ 77.7819049, 11.7162001 ], [ 77.7823555, 11.7150655 ], [ 77.7824199, 11.7134477 ], [ 77.782098, 11.7110525 ], [ 77.7813685, 11.7089934 ], [ 77.7792656, 11.7054635 ], [ 77.7779782, 11.7017129 ], [ 77.776401, 11.6963549 ], [ 77.7761328, 11.6945898 ], [ 77.7756607, 11.6926987 ], [ 77.7746522, 11.6893683 ], [ 77.7740085, 11.6876557 ], [ 77.7726459, 11.6851132 ], [ 77.7705645, 11.6826651 ], [ 77.7686333, 11.6797863 ], [ 77.7678609, 11.6769495 ], [ 77.7663749, 11.6667104 ], [ 77.766155, 11.6653287 ], [ 77.7659082, 11.6643043 ], [ 77.7653718, 11.6630697 ], [ 77.7643525, 11.6612624 ], [ 77.7622282, 11.6577477 ], [ 77.7617508, 11.6564027 ], [ 77.761547, 11.654401 ], [ 77.7610803, 11.648254 ], [ 77.7603078, 11.646373 ], [ 77.7580735, 11.6431839 ], [ 77.757985, 11.6430551 ], [ 77.7579582, 11.6426847 ], [ 77.757867, 11.6423905 ], [ 77.7576739, 11.6421541 ], [ 77.757282300000014, 11.6418231 ], [ 77.7567244, 11.6413607 ], [ 77.756145, 11.6405673 ], [ 77.7557641, 11.639774 ], [ 77.755512, 11.6393221 ], [ 77.7551901, 11.638907 ], [ 77.7544659, 11.6384079 ], [ 77.7539939, 11.6379613 ], [ 77.753436, 11.6371522 ], [ 77.7531516, 11.6365952 ], [ 77.7526742, 11.6355339 ], [ 77.7508879, 11.6324497 ], [ 77.7503085, 11.630968 ], [ 77.7501798, 11.6288452 ], [ 77.75009390000001, 11.6263652 ], [ 77.7493215, 11.6233702 ], [ 77.7481627, 11.6215837 ], [ 77.7461994, 11.619566 ], [ 77.7443111, 11.6171174 ], [ 77.7418005, 11.6133341 ], [ 77.7389789, 11.608195 ], [ 77.7369296, 11.604811 ], [ 77.7361572, 11.6029403 ], [ 77.7355349, 11.6002708 ] ] } },
{ "type": "Feature", "properties": { "waterway": "stream", "name": null }, "geometry": { "type": "LineString", "coordinates": [ [ 77.737741700000015, 11.8171817 ], [ 77.7384627, 11.8177453 ], [ 77.7390964, 11.8179837 ], [ 77.7394736, 11.8182159 ], [ 77.7397034, 11.818506 ], [ 77.7397358, 11.8189232 ], [ 77.7394289, 11.819223 ], [ 77.7392342, 11.8196387 ], [ 77.7395034, 11.8202326 ], [ 77.7400928, 11.8210779 ], [ 77.740642300000019, 11.821875 ], [ 77.7410887, 11.8225976 ], [ 77.74147210000001, 11.8230737 ], [ 77.7423833, 11.8235023 ], [ 77.7443596, 11.8238434 ], [ 77.7448751, 11.8238813 ], [ 77.7453371, 11.8239611 ], [ 77.7457482, 11.8240988 ], [ 77.7461504, 11.8243902 ], [ 77.746308, 11.8247052 ], [ 77.7463651, 11.8251417 ], [ 77.7465091, 11.8255759 ], [ 77.7467386, 11.8259495 ], [ 77.7469967, 11.8264081 ], [ 77.7470035, 11.8268272 ], [ 77.7467669, 11.8274254 ], [ 77.7466477, 11.8282173 ], [ 77.7466992, 11.8289005 ], [ 77.7466908, 11.8294375 ], [ 77.746558400000012, 11.8299631 ], [ 77.7464664, 11.8304211 ], [ 77.7465231, 11.8307383 ], [ 77.7467946, 11.8310895 ], [ 77.7471752, 11.8313394 ], [ 77.7473495, 11.8316081 ], [ 77.7474169, 11.8318866 ], [ 77.7472103, 11.8321209 ], [ 77.7470258, 11.8325195 ], [ 77.7470425, 11.8329894 ], [ 77.7472618, 11.8334591 ], [ 77.7473075, 11.8338848 ], [ 77.7472953, 11.8344716 ], [ 77.7473142, 11.8350843 ], [ 77.7472736, 11.8357831 ], [ 77.7473542, 11.8361411 ], [ 77.7476602, 11.8364966 ], [ 77.7480139, 11.8368334 ], [ 77.7481786, 11.8371087 ], [ 77.7484298, 11.8373234 ], [ 77.7488541, 11.8374659 ], [ 77.7493295, 11.83773 ], [ 77.7496813, 11.8379586 ], [ 77.7498406, 11.8381975 ], [ 77.749881, 11.8386642 ], [ 77.7499609, 11.8392821 ], [ 77.7501823, 11.8398505 ], [ 77.7504064, 11.840141 ], [ 77.7508081, 11.8404401 ], [ 77.75128380000001, 11.8406457 ], [ 77.7518535, 11.8408191 ], [ 77.7523923, 11.8410748 ], [ 77.7529848, 11.8412816 ], [ 77.7534829, 11.8413432 ], [ 77.7539611, 11.8412912 ], [ 77.7544375, 11.8414201 ], [ 77.7548017, 11.8414441 ], [ 77.7553516, 11.8414798 ], [ 77.7558989, 11.8414233 ], [ 77.7563453, 11.8416118 ], [ 77.7569279, 11.842026 ], [ 77.7570874, 11.8423155 ], [ 77.757043200000012, 11.8425874 ], [ 77.7570621, 11.8429344 ], [ 77.7571614, 11.8434553 ], [ 77.7575276, 11.8436868 ], [ 77.7579997, 11.8439094 ], [ 77.7587099, 11.8441937 ], [ 77.7594391, 11.8446268 ], [ 77.7604091, 11.8448999 ], [ 77.7610838, 11.8454475 ], [ 77.761181100000016, 11.845438 ], [ 77.7618993, 11.8453675 ], [ 77.7627293, 11.8451175 ], [ 77.7634978, 11.8446775 ], [ 77.7642637, 11.8446343 ], [ 77.7648962, 11.8454551 ], [ 77.765627, 11.8455015 ], [ 77.7662037, 11.8452582 ], [ 77.7666454, 11.8450452 ], [ 77.7678265, 11.8440698 ], [ 77.7678718, 11.8436396 ], [ 77.76787, 11.8432469 ], [ 77.7678361, 11.8424303 ], [ 77.7679534, 11.8416202 ], [ 77.7682743, 11.8410357 ], [ 77.7691124, 11.84076 ], [ 77.7698645, 11.8403619 ], [ 77.7710418, 11.8398428 ], [ 77.7717324, 11.83992 ], [ 77.7727506, 11.8398526 ], [ 77.7738651, 11.839599 ], [ 77.7742453, 11.8398351 ], [ 77.774611, 11.8402363 ], [ 77.7751711, 11.8405126 ], [ 77.7756275, 11.840473 ], [ 77.7769844, 11.8403181 ], [ 77.778199, 11.8400429 ], [ 77.7785974, 11.8397207 ], [ 77.7787589, 11.8392231 ], [ 77.7794971, 11.8387131 ], [ 77.7799623, 11.8383293 ], [ 77.789490200000017, 11.8330941 ], [ 77.7904665, 11.8325533 ], [ 77.7912605, 11.832065 ], [ 77.7919793, 11.8317447 ], [ 77.7926391, 11.8315715 ], [ 77.7932936, 11.8315189 ], [ 77.7962172, 11.8318655 ], [ 77.7999282, 11.8326459 ], [ 77.8121668, 11.8284785 ] ] } },
{ "type": "Feature", "properties": { "waterway": "dam", "name": "Chekkanur Barrage" }, "geometry": { "type": "LineString", "coordinates": [ [ 77.7825224, 11.7271198 ], [ 77.7824926, 11.7270073 ], [ 77.7816489, 11.7272058 ], [ 77.780793, 11.7274162 ], [ 77.7796377, 11.7276842 ], [ 77.77951010000001, 11.7271823 ], [ 77.7791986, 11.7272472 ], [ 77.7789711, 11.7272883 ], [ 77.779139, 11.7279437 ], [ 77.7793185, 11.727913 ], [ 77.7808226, 11.7275287 ], [ 77.7825224, 11.7271198 ] ] } },
{ "type": "Feature", "properties": { "waterway": "river", "name": "Kaveri River காவிரி ஆறு" }, "geometry": { "type": "LineString", "coordinates": [ [ 77.8118732, 11.8210056 ], [ 77.8071475, 11.8140118 ], [ 77.8038645, 11.8102102 ], [ 77.8015339, 11.8072337 ], [ 77.8012866, 11.8068893 ], [ 77.8011471, 11.8067278 ], [ 77.80101, 11.8065053 ], [ 77.8007632, 11.8060643 ], [ 77.8007203, 11.8056652 ], [ 77.8007632, 11.8050456 ], [ 77.8011709, 11.804363 ], [ 77.8016859, 11.8039639 ], [ 77.8035205, 11.8031447 ], [ 77.8043252, 11.8022941 ], [ 77.8051084, 11.8007293 ], [ 77.8064173, 11.7991329 ], [ 77.8083354, 11.7974992 ] ] } },
{ "type": "Feature", "properties": { "waterway": "canal", "name": "கால்வாய் Canal" }, "geometry": { "type": "LineString", "coordinates": [ [ 77.7947351, 11.78911 ], [ 77.7946585, 11.7890612 ], [ 77.7941972, 11.7885256 ], [ 77.7926254, 11.7855113 ], [ 77.7907371, 11.780638 ], [ 77.789278, 11.7754916 ], [ 77.7893638, 11.7718575 ], [ 77.7880549, 11.7679923 ], [ 77.7868104, 11.7653665 ], [ 77.7866816, 11.7648413 ], [ 77.7865529, 11.764064 ], [ 77.7857589, 11.7614172 ], [ 77.7849436, 11.7603878 ], [ 77.7843857, 11.7594425 ], [ 77.783935, 11.7584131 ], [ 77.782733400000012, 11.7532032 ], [ 77.7826905, 11.75251 ], [ 77.7828276, 11.7507394 ], [ 77.783246, 11.7486858 ], [ 77.7834928, 11.7476512 ], [ 77.7828598, 11.7443529 ], [ 77.7820551, 11.7419684 ], [ 77.7817976, 11.7416008 ], [ 77.780875, 11.7406134 ], [ 77.7805853, 11.7400251 ], [ 77.7803278, 11.7393948 ], [ 77.7801561, 11.7392688 ], [ 77.7798879, 11.7393213 ], [ 77.7788901, 11.7395419 ], [ 77.7769589, 11.7397415 ], [ 77.7764439, 11.7396785 ], [ 77.7762616, 11.7394684 ], [ 77.7744162, 11.7363065 ], [ 77.7743411, 11.7357708 ], [ 77.7736545, 11.7325039 ], [ 77.7733755, 11.7315689 ], [ 77.7733004, 11.7298987 ], [ 77.7734721, 11.7292684 ], [ 77.7744377, 11.7267262 ], [ 77.7755749, 11.7226083 ], [ 77.7757358, 11.721001 ], [ 77.7758217, 11.7207279 ], [ 77.7765834, 11.7196878 ], [ 77.7767551, 11.7192992 ], [ 77.7774203, 11.7171981 ], [ 77.7774203, 11.7167674 ], [ 77.7773774, 11.7153282 ], [ 77.7771413, 11.7137313 ], [ 77.7765727, 11.7122501 ], [ 77.7754784, 11.7104011 ], [ 77.7753281, 11.7094346 ], [ 77.7745986, 11.7072389 ], [ 77.772603, 11.7019966 ], [ 77.7722382, 11.6994962 ], [ 77.7714872, 11.6977732 ], [ 77.7705431, 11.6961973 ], [ 77.7683115, 11.6910072 ], [ 77.7659941, 11.6870358 ] ] } },
{ "type": "Feature", "properties": { "waterway": "dam", "name": "Mettur Dam" }, "geometry": { "type": "LineString", "coordinates": [ [ 77.8121844, 11.7995838 ], [ 77.8117284, 11.7998359 ], [ 77.8085339, 11.8020466 ], [ 77.8021932, 11.8062684 ], [ 77.8012866, 11.8068893 ], [ 77.8007099, 11.8072765 ], [ 77.8005439, 11.8073789 ], [ 77.8004202, 11.8074551 ], [ 77.800345100000015, 11.8073395 ], [ 77.8006402, 11.8070665 ], [ 77.80084, 11.8069326 ], [ 77.8011471, 11.8067278 ], [ 77.8014489, 11.806523 ], [ 77.8014502, 11.8065257 ], [ 77.802486200000018, 11.8057884 ], [ 77.8032013, 11.8052794 ], [ 77.8033146, 11.8051988 ], [ 77.8034811, 11.8050803 ], [ 77.8035871, 11.8050048 ], [ 77.8040251, 11.8046931 ], [ 77.8075613, 11.8022922 ], [ 77.808340800000011, 11.801763 ], [ 77.8113179, 11.7997559 ], [ 77.8114173, 11.7996889 ], [ 77.81212, 11.7994683 ], [ 77.8121844, 11.7995838 ] ] } },
{ "type": "Feature", "properties": { "waterway": "river", "name": "Kaveri        காவிரி" }, "geometry": { "type": "LineString", "coordinates": [ [ 77.8156555, 11.7995939 ], [ 77.8163351, 11.7987195 ], [ 77.8169693, 11.7979135 ], [ 77.8173382, 11.7967382 ], [ 77.8178885, 11.7957296 ], [ 77.8184957, 11.7947791 ], [ 77.8190536, 11.7935608 ], [ 77.8193969, 11.7924686 ], [ 77.8192896, 11.790116 ], [ 77.8189677, 11.7873643 ], [ 77.8177875, 11.7844656 ], [ 77.8156632, 11.7812098 ], [ 77.814247, 11.7799284 ], [ 77.8130025, 11.7792352 ], [ 77.8107923, 11.7761053 ], [ 77.8074664, 11.7726603 ], [ 77.8060073, 11.7706857 ], [ 77.8049344, 11.7685431 ], [ 77.8042263, 11.7662533 ], [ 77.8034109, 11.7659172 ], [ 77.8000688, 11.7663111 ], [ 77.7982878, 11.7661588 ] ] } },
{ "type": "Feature", "properties": { "waterway": "river", "name": "Kaveri" }, "geometry": { "type": "LineString", "coordinates": [ [ 77.7391075, 11.9340518 ], [ 77.7397466, 11.9329672 ], [ 77.7404863, 11.9318523 ], [ 77.7408496, 11.9313081 ], [ 77.7418274, 11.9301046 ], [ 77.7440482, 11.928404 ], [ 77.7468914, 11.9251866 ], [ 77.7480278, 11.9243333 ], [ 77.7488226, 11.9242471 ], [ 77.7502978, 11.9243678 ], [ 77.7514189, 11.9241107 ], [ 77.7524236, 11.9236084 ], [ 77.7542016, 11.9220298 ], [ 77.7546132, 11.9215304 ], [ 77.7564078, 11.9180671 ], [ 77.7571374, 11.9172768 ], [ 77.7625487, 11.9126223 ], [ 77.7636766, 11.9120175 ], [ 77.7679323, 11.9094487 ], [ 77.7691835, 11.9089333 ], [ 77.7704573, 11.9087369 ], [ 77.7715214, 11.9090138 ], [ 77.773283, 11.9100287 ], [ 77.7749293, 11.9105764 ], [ 77.7765922, 11.9117524 ], [ 77.7784032, 11.9126384 ], [ 77.7791476, 11.91281 ], [ 77.7800495, 11.9128639 ], [ 77.7812022, 11.9125476 ], [ 77.7821785, 11.9120332 ], [ 77.7828115, 11.9114191 ], [ 77.7835894, 11.9103641 ], [ 77.7839595, 11.909351 ], [ 77.784158, 11.908359 ], [ 77.784394, 11.9069995 ], [ 77.7846032, 11.9065796 ], [ 77.7849841, 11.9062909 ], [ 77.7853972, 11.9061491 ], [ 77.787779, 11.9060756 ], [ 77.7895707, 11.9062961 ], [ 77.79199, 11.9067108 ], [ 77.8005946, 11.9073617 ], [ 77.8028208, 11.9071937 ], [ 77.8060019, 11.9065691 ], [ 77.808314, 11.9059602 ], [ 77.818127200000021, 11.9039093 ], [ 77.8246829, 11.9026074 ], [ 77.8317601, 11.9014211 ], [ 77.8419226, 11.8973958 ], [ 77.8442287, 11.8964541 ], [ 77.8455806, 11.8951522 ], [ 77.8459883, 11.8931365 ], [ 77.8411484, 11.8814883 ], [ 77.8358173, 11.8734826 ], [ 77.8279209, 11.8639491 ], [ 77.8176835, 11.8430889 ], [ 77.8121668, 11.8284785 ] ] } },
{ "type": "Feature", "properties": { "waterway": "stream", "name": null }, "geometry": { "type": "LineString", "coordinates": [ [ 77.6991198, 11.8191808 ], [ 77.6993773, 11.8192123 ], [ 77.7001283, 11.8192753 ], [ 77.7006433, 11.8190863 ], [ 77.7009759, 11.8189078 ], [ 77.7013085, 11.8186453 ], [ 77.7016733, 11.8184037 ], [ 77.7018878, 11.8184142 ], [ 77.7020058, 11.8185402 ], [ 77.7020702, 11.8187503 ], [ 77.7021239, 11.8188763 ], [ 77.7022633, 11.8190443 ], [ 77.7023814, 11.8191388 ], [ 77.7026388, 11.8192228 ], [ 77.7031002, 11.8193278 ], [ 77.7033899, 11.8193698 ], [ 77.7036152, 11.8194329 ], [ 77.703819, 11.8194329 ], [ 77.7040336, 11.8195379 ], [ 77.704269600000018, 11.8196324 ], [ 77.704613, 11.8195694 ], [ 77.7048168, 11.8194539 ], [ 77.7050743, 11.8193068 ], [ 77.7053532, 11.8193173 ], [ 77.7056107, 11.8194434 ], [ 77.705718, 11.8196009 ], [ 77.7058146, 11.8197374 ], [ 77.705879, 11.8199264 ], [ 77.7059433, 11.8201259 ], [ 77.7062545, 11.820336 ], [ 77.7064798, 11.8203885 ], [ 77.7066514, 11.82042 ], [ 77.7068553, 11.820504 ], [ 77.7070055, 11.820567 ], [ 77.7072737, 11.8205985 ], [ 77.707499, 11.820651 ], [ 77.7078316, 11.8207665 ], [ 77.7081642, 11.820861 ], [ 77.7084217, 11.820903 ], [ 77.7087328, 11.8210711 ], [ 77.7089796, 11.8213021 ], [ 77.7091512, 11.8214701 ], [ 77.7092371, 11.8216066 ], [ 77.7093551, 11.8216591 ], [ 77.709634, 11.8216591 ], [ 77.7097843, 11.8216171 ], [ 77.710149, 11.8214281 ], [ 77.7104494, 11.8214386 ], [ 77.7105889, 11.8214806 ], [ 77.7106855, 11.8215856 ], [ 77.7106962, 11.8217747 ], [ 77.7106533, 11.8220057 ], [ 77.710664, 11.8222262 ], [ 77.7107177, 11.8224257 ], [ 77.7107391, 11.8226043 ], [ 77.7108571, 11.8228563 ], [ 77.7109966, 11.8230663 ], [ 77.7112648, 11.8232973 ], [ 77.711576, 11.8235599 ], [ 77.7117798, 11.8237489 ], [ 77.7119729, 11.8239064 ], [ 77.712209, 11.8240429 ], [ 77.7124772, 11.8241479 ], [ 77.7126274, 11.8241689 ], [ 77.7128849, 11.8241584 ], [ 77.713088700000014, 11.8241269 ], [ 77.7133677, 11.8240534 ], [ 77.7135608, 11.8239904 ], [ 77.7140007, 11.8238119 ], [ 77.7142474, 11.8236649 ], [ 77.7144191, 11.8236544 ], [ 77.7146659, 11.8237909 ], [ 77.7148375, 11.8239589 ], [ 77.7150521, 11.8241584 ], [ 77.7151701, 11.8243159 ], [ 77.7154383, 11.824547 ], [ 77.7156529, 11.824631 ], [ 77.715974800000012, 11.824778 ], [ 77.716243, 11.82482 ], [ 77.7165756, 11.824778 ], [ 77.7168331, 11.8247045 ], [ 77.7170906, 11.8245575 ], [ 77.7174339, 11.8242949 ], [ 77.717745, 11.8241374 ], [ 77.7183029, 11.8239379 ], [ 77.7185497, 11.8239484 ], [ 77.7188287, 11.8239274 ], [ 77.7191613, 11.8238014 ], [ 77.7194938, 11.8235914 ], [ 77.7197728, 11.8234759 ], [ 77.7200303, 11.8234864 ], [ 77.7202663, 11.8235389 ], [ 77.7204809, 11.8236019 ], [ 77.7206633, 11.8236544 ], [ 77.7208028, 11.8237279 ], [ 77.7208993, 11.8238434 ], [ 77.7209852, 11.8240009 ], [ 77.7211246, 11.8241374 ], [ 77.7212534, 11.8242004 ], [ 77.7215752, 11.8243369 ], [ 77.7217898, 11.8243895 ], [ 77.7219722, 11.8243685 ], [ 77.7222082, 11.8243159 ], [ 77.7225087, 11.8242214 ], [ 77.7226696, 11.8242109 ], [ 77.7228198, 11.8242109 ], [ 77.7229807, 11.8243054 ], [ 77.7231095, 11.8244 ], [ 77.7233455, 11.8244735 ], [ 77.7235386, 11.8245155 ], [ 77.7236888, 11.824505 ], [ 77.723957, 11.8243475 ], [ 77.7242896, 11.8239379 ], [ 77.7245257, 11.8237489 ], [ 77.7246973, 11.8237489 ], [ 77.7249334, 11.8237804 ], [ 77.7252647, 11.824106 ], [ 77.7253827, 11.824169 ], [ 77.7255115, 11.8242215 ], [ 77.7256617, 11.8242845 ], [ 77.7258119, 11.824337 ], [ 77.7259191, 11.8244106 ], [ 77.7260801, 11.8245051 ], [ 77.7262088, 11.8245786 ], [ 77.7263376, 11.8246521 ], [ 77.7264556, 11.8247256 ], [ 77.7265736, 11.8247886 ], [ 77.7267238, 11.8248411 ], [ 77.7268633, 11.8248831 ], [ 77.7270242, 11.8249146 ], [ 77.7272066, 11.8249671 ], [ 77.7273675, 11.8249881 ], [ 77.727507, 11.8249986 ], [ 77.7276572, 11.8250196 ], [ 77.7278182, 11.8250301 ], [ 77.7279576, 11.8250301 ], [ 77.7281078, 11.8250196 ], [ 77.7282366, 11.8249881 ], [ 77.7283814, 11.8249487 ], [ 77.7285048, 11.8249041 ], [ 77.7285879, 11.8248385 ], [ 77.7286657, 11.8247125 ], [ 77.7287381, 11.8245864 ], [ 77.7288293, 11.8244079 ], [ 77.72914320000001, 11.8238251 ], [ 77.7292987, 11.823707 ], [ 77.7295804, 11.8236518 ], [ 77.7297815, 11.8235967 ], [ 77.72998, 11.8235652 ], [ 77.730157, 11.8234943 ], [ 77.7303663, 11.8233762 ], [ 77.7305325, 11.8233289 ], [ 77.7306291, 11.8232449 ], [ 77.7307793, 11.8231504 ], [ 77.730951, 11.8230244 ], [ 77.7310583, 11.8229404 ], [ 77.7311655, 11.8228354 ], [ 77.7312621, 11.8226884 ], [ 77.7313479, 11.8225518 ], [ 77.731423, 11.8224048 ], [ 77.731433800000019, 11.8222683 ], [ 77.731433800000019, 11.8221108 ], [ 77.731433800000019, 11.8219638 ], [ 77.7314552, 11.8218378 ], [ 77.7314874, 11.8217117 ], [ 77.7315411, 11.8215962 ], [ 77.7316483, 11.8214912 ], [ 77.7317771, 11.8214387 ], [ 77.7319273, 11.8213967 ], [ 77.7320882, 11.8213442 ], [ 77.7322492, 11.8212917 ], [ 77.7323886, 11.8212497 ], [ 77.7325388, 11.8212287 ], [ 77.7327105, 11.8211762 ], [ 77.7328714, 11.8211447 ], [ 77.7330109, 11.8211342 ], [ 77.7331718, 11.8211027 ], [ 77.7333006, 11.8210607 ], [ 77.7334722, 11.8209977 ], [ 77.7336225, 11.8209346 ], [ 77.7337405, 11.8208716 ], [ 77.7338692, 11.8207876 ], [ 77.7339765, 11.8207036 ], [ 77.7340623, 11.8206091 ], [ 77.7341267, 11.8204936 ], [ 77.7342018, 11.8203781 ], [ 77.734276900000012, 11.8202521 ], [ 77.7343842, 11.8201365 ], [ 77.734491500000019, 11.8200315 ], [ 77.7346739, 11.819811 ], [ 77.7348777, 11.8194645 ], [ 77.7349314, 11.8193699 ], [ 77.7349743, 11.8192439 ], [ 77.7350387, 11.8189814 ], [ 77.735221, 11.8187714 ], [ 77.7358559, 11.8182931 ], [ 77.7361053, 11.8177633 ], [ 77.7362204, 11.8174911 ], [ 77.7369503, 11.8172228 ], [ 77.737741700000015, 11.8171817 ] ] } },
{ "type": "Feature", "properties": { "waterway": "stream", "name": null }, "geometry": { "type": "LineString", "coordinates": [ [ 77.7160772, 11.7865871 ], [ 77.7161201, 11.7866291 ], [ 77.716163, 11.7866816 ], [ 77.716222, 11.7867289 ], [ 77.7162649, 11.7867761 ], [ 77.7163561, 11.7869284 ], [ 77.7165493, 11.787128 ], [ 77.7165761, 11.7871962 ], [ 77.7165922, 11.787275 ], [ 77.7165922, 11.7873695 ], [ 77.7165922, 11.7874378 ], [ 77.7165707, 11.7875323 ], [ 77.7165439, 11.7876216 ], [ 77.7165171, 11.7877213 ], [ 77.7165117, 11.7877896 ], [ 77.7165117, 11.7878631 ], [ 77.7165224, 11.7879419 ], [ 77.7165278, 11.7880259 ], [ 77.71656, 11.7881257 ], [ 77.716602900000012, 11.7882202 ], [ 77.7166297, 11.7883095 ], [ 77.7166136, 11.788383 ], [ 77.7165975, 11.7884513 ], [ 77.71656, 11.7885038 ], [ 77.7165224, 11.7885616 ], [ 77.7165117, 11.7886351 ], [ 77.7165171, 11.7887086 ], [ 77.7165922, 11.7887821 ], [ 77.7166619, 11.7889081 ], [ 77.7166941, 11.7889659 ], [ 77.7167424, 11.7890342 ], [ 77.7168228, 11.7891182 ], [ 77.7168658, 11.7891812 ], [ 77.7169033, 11.7892442 ], [ 77.716924800000015, 11.7893072 ], [ 77.7169462, 11.7893755 ], [ 77.7169677, 11.789449 ], [ 77.7169891, 11.7895225 ], [ 77.717016, 11.7895908 ], [ 77.7170428, 11.7896538 ], [ 77.7170803, 11.7897378 ], [ 77.7171072, 11.7897956 ], [ 77.717123300000011, 11.7898691 ], [ 77.7171447, 11.7899321 ], [ 77.7171662, 11.7900004 ], [ 77.7171876, 11.7900897 ], [ 77.7172305, 11.7901789 ], [ 77.7172681, 11.7902577 ], [ 77.7173003, 11.7903365 ], [ 77.7173271, 11.7903942 ], [ 77.7173432, 11.7904573 ], [ 77.7173486, 11.79062 ], [ 77.7172198, 11.7906988 ], [ 77.717134, 11.7907408 ], [ 77.7170911, 11.7908143 ], [ 77.717075, 11.7908931 ], [ 77.717075, 11.7909666 ], [ 77.7170857, 11.7910401 ], [ 77.7171179, 11.7911137 ], [ 77.7171984, 11.7911872 ], [ 77.7172627, 11.7912712 ], [ 77.7173271, 11.7913605 ], [ 77.7173807, 11.7914235 ], [ 77.7174076, 11.7914917 ], [ 77.7174344, 11.7915863 ], [ 77.7174719, 11.791665 ], [ 77.7174988, 11.7917281 ], [ 77.7179011, 11.7921692 ], [ 77.7179601, 11.7923057 ], [ 77.718003, 11.7923582 ], [ 77.7180674, 11.7924422 ], [ 77.718110300000021, 11.7924947 ], [ 77.7181747, 11.7925577 ], [ 77.7182337, 11.7926208 ], [ 77.7182873, 11.7926838 ], [ 77.7183463, 11.7927468 ], [ 77.7183946, 11.7928256 ], [ 77.7184429, 11.7928938 ], [ 77.7185126, 11.7929621 ], [ 77.7185985, 11.7930304 ], [ 77.7186736, 11.7931039 ], [ 77.7187111, 11.7931616 ], [ 77.7187594, 11.7932351 ], [ 77.7187809, 11.7933087 ], [ 77.7188023, 11.7933717 ], [ 77.718797, 11.7934504 ], [ 77.7187809, 11.7935187 ], [ 77.7185931, 11.7939388 ], [ 77.7185877, 11.7940123 ], [ 77.7185877, 11.7940911 ], [ 77.7185877, 11.7941699 ], [ 77.7185985, 11.7942434 ], [ 77.7186146, 11.7943116 ], [ 77.7186146, 11.7943799 ], [ 77.7185931, 11.7944482 ], [ 77.7185502, 11.7948157 ], [ 77.7185556, 11.7950941 ], [ 77.7185556, 11.7951991 ], [ 77.7185502, 11.7952936 ], [ 77.7185502, 11.7953671 ], [ 77.7185448, 11.7954406 ], [ 77.7185287, 11.7955352 ], [ 77.718518, 11.7956139 ], [ 77.7185126, 11.7956769 ], [ 77.7185019, 11.795761 ], [ 77.7184858, 11.7958345 ], [ 77.718459, 11.795908 ], [ 77.7184322, 11.7959815 ], [ 77.7184053, 11.7960445 ], [ 77.7183839, 11.7961075 ], [ 77.7183517, 11.7961705 ], [ 77.7183142, 11.7962546 ], [ 77.718282, 11.7963281 ], [ 77.7182283, 11.7963911 ], [ 77.71818540000001, 11.7964489 ], [ 77.7181479, 11.7965014 ], [ 77.7181049, 11.7965644 ], [ 77.7180728, 11.7966221 ], [ 77.7180513, 11.7967009 ], [ 77.7180352, 11.7967639 ], [ 77.7180137, 11.7968269 ], [ 77.7180084, 11.7968952 ], [ 77.7180191, 11.7969635 ], [ 77.7180459, 11.7970265 ], [ 77.7180888, 11.7970737 ], [ 77.7181586, 11.7970737 ], [ 77.7182391, 11.7970737 ], [ 77.7183034, 11.7970475 ], [ 77.7183624, 11.797016 ], [ 77.7184161, 11.796974 ], [ 77.7184805, 11.7969477 ], [ 77.7185448, 11.7969162 ], [ 77.7186199, 11.7968952 ], [ 77.7187218, 11.7968899 ], [ 77.7188023, 11.7968952 ], [ 77.718877400000011, 11.7968952 ], [ 77.7189472, 11.7969215 ], [ 77.7190062, 11.796953 ], [ 77.7190491, 11.7970002 ], [ 77.7190974, 11.7971052 ], [ 77.7191242, 11.797268 ], [ 77.7191135, 11.7973363 ], [ 77.7190974, 11.7974098 ], [ 77.719092, 11.7974886 ], [ 77.719092, 11.7975568 ], [ 77.719092, 11.7976304 ], [ 77.7190974, 11.7976934 ], [ 77.7191027, 11.7977564 ], [ 77.7191135, 11.7978246 ], [ 77.7191295, 11.7978877 ], [ 77.7191295, 11.7979664 ], [ 77.7190974, 11.7980452 ], [ 77.7190437, 11.7981187 ], [ 77.7189847, 11.798187 ], [ 77.7189364, 11.7982395 ], [ 77.7188881, 11.7983025 ], [ 77.7188506, 11.7983655 ], [ 77.7188184, 11.7984338 ], [ 77.7188077, 11.7984968 ], [ 77.7188077, 11.7985755 ], [ 77.7188077, 11.7986491 ], [ 77.7188077, 11.7987278 ], [ 77.7188023, 11.7987908 ], [ 77.7188023, 11.7988591 ], [ 77.7188023, 11.7989326 ], [ 77.718813, 11.7990009 ], [ 77.7188238, 11.7990691 ], [ 77.7188881, 11.7993265 ], [ 77.7188935, 11.7994105 ], [ 77.7188721, 11.799652 ], [ 77.7188828, 11.799715 ], [ 77.718877400000011, 11.7997833 ], [ 77.7188667, 11.7998516 ], [ 77.7188613, 11.7999251 ], [ 77.718856, 11.7999986 ], [ 77.718856, 11.8000669 ], [ 77.718856, 11.8001509 ], [ 77.718856, 11.8002191 ], [ 77.718856, 11.8002979 ], [ 77.7188721, 11.8003767 ], [ 77.7189042, 11.8004344 ], [ 77.7189632, 11.8004817 ], [ 77.7190223, 11.8005184 ], [ 77.7190866, 11.8005552 ], [ 77.719151, 11.8005815 ], [ 77.7192207, 11.8006025 ], [ 77.7192905, 11.8006182 ], [ 77.7193602, 11.8006287 ], [ 77.71943, 11.8006392 ], [ 77.7195211, 11.8006392 ], [ 77.7195909, 11.8006445 ], [ 77.719666, 11.8006497 ], [ 77.7197304, 11.8006602 ], [ 77.7197947, 11.8006812 ], [ 77.719843, 11.8007285 ], [ 77.7198698, 11.8007915 ], [ 77.7198806, 11.8008545 ], [ 77.7198806, 11.8009385 ], [ 77.7198806, 11.801012 ], [ 77.7198752, 11.8010908 ], [ 77.7198752, 11.8011591 ], [ 77.7198698, 11.8012221 ], [ 77.7198591, 11.8012903 ], [ 77.719843, 11.8013639 ], [ 77.719843, 11.8014426 ], [ 77.719843, 11.8015214 ], [ 77.7198484, 11.8015844 ], [ 77.7198484, 11.8016527 ], [ 77.719902, 11.8018785 ], [ 77.7199181, 11.8019415 ], [ 77.7199288, 11.8020045 ], [ 77.7199342, 11.802078 ], [ 77.7199396, 11.8021568 ], [ 77.7199449, 11.8022303 ], [ 77.7199503, 11.8022933 ], [ 77.719961, 11.8023721 ], [ 77.7199771, 11.8024456 ], [ 77.7199986, 11.8025138 ], [ 77.72002, 11.8025768 ], [ 77.7200415, 11.8026556 ], [ 77.720063, 11.8027449 ], [ 77.7200737, 11.8028079 ], [ 77.720089800000011, 11.8028972 ], [ 77.7201005, 11.8029654 ], [ 77.7201273, 11.8030337 ], [ 77.7201488, 11.8030967 ], [ 77.720181, 11.8031545 ], [ 77.7202024, 11.8032227 ], [ 77.7203312, 11.8034958 ], [ 77.7204385, 11.8037478 ], [ 77.7204706, 11.8038056 ], [ 77.7204975, 11.8038791 ], [ 77.7205672, 11.8041049 ], [ 77.7206287, 11.8044224 ], [ 77.7206556, 11.8044801 ], [ 77.7206824, 11.8045431 ], [ 77.7207038, 11.8046061 ], [ 77.7207253, 11.8046849 ], [ 77.720736, 11.8047479 ], [ 77.7207521, 11.8048162 ], [ 77.7207628, 11.8048897 ], [ 77.7207789, 11.8049685 ], [ 77.7208004, 11.8050367 ], [ 77.7208165, 11.8050997 ], [ 77.7208487, 11.8051837 ], [ 77.7208755, 11.805252 ], [ 77.7209077, 11.8053308 ], [ 77.7209399, 11.8054043 ], [ 77.7209721, 11.8054726 ], [ 77.7210042, 11.8055356 ], [ 77.7210418, 11.8055933 ], [ 77.721192, 11.8057561 ], [ 77.7213851, 11.8060659 ], [ 77.7214334, 11.8061132 ], [ 77.7215139, 11.8061814 ], [ 77.7215729, 11.8062339 ], [ 77.7216372, 11.8062759 ], [ 77.7217016, 11.806297 ], [ 77.7217767, 11.8063232 ], [ 77.7218411, 11.80636 ], [ 77.7218947, 11.8064125 ], [ 77.7219162, 11.8064807 ], [ 77.7219162, 11.8065542 ], [ 77.7219055, 11.8066278 ], [ 77.7218947, 11.8067013 ], [ 77.721884, 11.8067643 ], [ 77.7218679, 11.8068273 ], [ 77.7218357, 11.8069008 ], [ 77.7218089, 11.8069743 ], [ 77.7217982, 11.8070373 ], [ 77.7218035, 11.8071056 ], [ 77.7218465, 11.8071634 ], [ 77.7218894, 11.8072159 ], [ 77.7219323, 11.8072631 ], [ 77.7219806, 11.8073209 ], [ 77.7220128, 11.8073944 ], [ 77.722061, 11.8074364 ], [ 77.7221361, 11.8074417 ], [ 77.722222, 11.8074417 ], [ 77.7222917, 11.8074311 ], [ 77.7223561, 11.8074101 ], [ 77.7224205, 11.8073839 ], [ 77.7224795, 11.8073524 ], [ 77.7225546, 11.8073051 ], [ 77.7226136, 11.8072474 ], [ 77.722838900000013, 11.8071108 ], [ 77.7228925, 11.8070741 ], [ 77.7229515, 11.8070478 ], [ 77.7230266, 11.8070163 ], [ 77.7231232, 11.8070006 ], [ 77.7232144, 11.8069953 ], [ 77.7232788, 11.8069901 ], [ 77.7233592, 11.8069848 ], [ 77.7234236, 11.8069743 ], [ 77.7234933, 11.8069481 ], [ 77.7235577, 11.8069218 ], [ 77.7236328, 11.8069271 ], [ 77.7236972, 11.8069533 ], [ 77.723783, 11.8069796 ], [ 77.723842, 11.8070163 ], [ 77.7239064, 11.8070531 ], [ 77.7239654, 11.8070898 ], [ 77.7240298, 11.8071318 ], [ 77.7240888, 11.8071739 ], [ 77.7241532, 11.8072001 ], [ 77.7243141, 11.8072946 ], [ 77.7244804, 11.8074364 ], [ 77.7245394, 11.8074994 ], [ 77.7245877, 11.8075572 ], [ 77.7246252, 11.8076202 ], [ 77.7246467, 11.8076832 ], [ 77.7246574, 11.8077515 ], [ 77.7246628, 11.8078197 ], [ 77.7246467, 11.8078932 ], [ 77.7246091, 11.8079457 ], [ 77.7245501, 11.8079982 ], [ 77.7244911, 11.8080403 ], [ 77.724421400000011, 11.8080928 ], [ 77.7243999, 11.8081663 ], [ 77.7244053, 11.808245 ], [ 77.724416, 11.8083186 ], [ 77.724421400000011, 11.8083816 ], [ 77.7244321, 11.8084603 ], [ 77.7244321, 11.8085443 ], [ 77.7244321, 11.8086231 ], [ 77.7244321, 11.8086966 ], [ 77.7244267, 11.8087596 ], [ 77.724421400000011, 11.8088279 ], [ 77.724421400000011, 11.8089224 ], [ 77.7244267, 11.8090169 ], [ 77.7244267, 11.8090904 ], [ 77.7244482, 11.8091587 ], [ 77.724475, 11.809227 ], [ 77.7245501, 11.8092532 ], [ 77.7246199, 11.8092532 ], [ 77.7247164, 11.809248 ], [ 77.7247969, 11.8092427 ], [ 77.7248613, 11.8092375 ], [ 77.7249256, 11.809227 ], [ 77.7250007, 11.8092217 ], [ 77.7250705, 11.8092217 ], [ 77.7251617, 11.809227 ], [ 77.7252421, 11.8092427 ], [ 77.7253119, 11.8092637 ], [ 77.7253762, 11.8093005 ], [ 77.725446, 11.8093582 ], [ 77.7254889, 11.8094212 ], [ 77.7255211, 11.809479 ], [ 77.7255479, 11.809542 ], [ 77.725564, 11.809605 ], [ 77.7255801, 11.809689 ], [ 77.7255694, 11.8097573 ], [ 77.7255479, 11.8098203 ], [ 77.7255265, 11.8098833 ], [ 77.7254943, 11.8099568 ], [ 77.7254943, 11.8100356 ], [ 77.7255104, 11.8101039 ], [ 77.7255372, 11.8101721 ], [ 77.7256069, 11.8103244 ], [ 77.7257786, 11.8105344 ], [ 77.7258215, 11.8105817 ], [ 77.7258751, 11.8106342 ], [ 77.7259341, 11.8106709 ], [ 77.7259985, 11.8107024 ], [ 77.7260683, 11.810734 ], [ 77.7261273, 11.8107707 ], [ 77.726191600000021, 11.8107917 ], [ 77.7262506, 11.810818 ], [ 77.7263204, 11.8108337 ], [ 77.7263955, 11.8108547 ], [ 77.7264867, 11.81086 ], [ 77.7265725, 11.81086 ], [ 77.7266476, 11.81086 ], [ 77.7267227, 11.8108495 ], [ 77.7267925, 11.8108232 ], [ 77.7268622, 11.8108022 ], [ 77.726948, 11.8107865 ], [ 77.7270231, 11.810776 ], [ 77.7271036, 11.810776 ], [ 77.727168, 11.8107707 ], [ 77.7272377, 11.8107655 ], [ 77.7273021, 11.8107707 ], [ 77.7273825, 11.8108127 ], [ 77.7274094, 11.8108757 ], [ 77.7274362, 11.8109335 ], [ 77.727463, 11.8109965 ], [ 77.7274952, 11.8110595 ], [ 77.727522, 11.8111225 ], [ 77.7275381, 11.8111855 ], [ 77.7275596, 11.8112485 ], [ 77.727581, 11.8113115 ], [ 77.727602500000017, 11.8113746 ], [ 77.727602500000017, 11.8114533 ], [ 77.7275971, 11.8115163 ], [ 77.727581, 11.8115898 ], [ 77.7275757, 11.8116581 ], [ 77.7275703, 11.8117264 ], [ 77.7275649, 11.8118156 ], [ 77.7275596, 11.8118786 ], [ 77.7275596, 11.8119469 ], [ 77.7275488, 11.8120152 ], [ 77.7275274, 11.8120939 ], [ 77.7275113, 11.8121674 ], [ 77.7275113, 11.8122409 ], [ 77.7275542, 11.8123932 ], [ 77.727581, 11.8125245 ], [ 77.7276731, 11.8127313 ], [ 77.7280137, 11.8131506 ], [ 77.7283075, 11.8133265 ], [ 77.7286718, 11.8135966 ], [ 77.7289665, 11.8138445 ], [ 77.729279, 11.8140962 ], [ 77.7296301, 11.8143098 ], [ 77.7299124, 11.8144422 ], [ 77.7302844, 11.8144172 ], [ 77.7304765, 11.8143339 ], [ 77.7307773, 11.8143272 ], [ 77.7309649, 11.8143492 ], [ 77.7311915, 11.8144724 ], [ 77.7315608, 11.8147237 ], [ 77.7318382, 11.8149723 ], [ 77.7320661, 11.8153234 ], [ 77.7322777, 11.8155528 ], [ 77.7324989, 11.8156678 ], [ 77.7326882, 11.8157508 ], [ 77.7328209, 11.8158195 ], [ 77.7335812, 11.8161632 ], [ 77.7341313, 11.8163509 ], [ 77.7350359, 11.8165827 ], [ 77.7353825, 11.8166667 ], [ 77.735620700000013, 11.8167431 ], [ 77.7358655, 11.8167215 ], [ 77.7360894, 11.8166737 ], [ 77.7363847, 11.8165295 ], [ 77.736567, 11.8163232 ], [ 77.7366836, 11.8161929 ], [ 77.7368007, 11.816163 ], [ 77.7369225, 11.8163347 ], [ 77.7370223, 11.816508 ], [ 77.7373207, 11.8167776 ], [ 77.737741700000015, 11.8171817 ] ] } },
{ "type": "Feature", "properties": { "waterway": "canal", "name": null }, "geometry": { "type": "LineString", "coordinates": [ [ 77.7924782, 11.7452037 ], [ 77.7926874, 11.7446628 ], [ 77.7927142, 11.7437857 ], [ 77.7925748, 11.7432657 ], [ 77.7916789, 11.7410755 ], [ 77.7902949, 11.7391532 ], [ 77.7897477, 11.7385965 ], [ 77.7894688, 11.7380398 ], [ 77.7894258, 11.7373885 ], [ 77.789458, 11.7346468 ], [ 77.7894795, 11.7331867 ], [ 77.7893829, 11.7328085 ], [ 77.7890181, 11.7322202 ], [ 77.7873659, 11.7301088 ], [ 77.7870226, 11.7294995 ], [ 77.786926, 11.7289427 ], [ 77.7869475, 11.7280813 ], [ 77.7871513, 11.727241 ], [ 77.7875376, 11.7260644 ], [ 77.7875376, 11.7256442 ], [ 77.7871084, 11.7242786 ], [ 77.7869153, 11.7235222 ], [ 77.7869153, 11.7231545 ], [ 77.7870762, 11.7228499 ], [ 77.7875805, 11.7216628 ], [ 77.7875698, 11.721127 ], [ 77.7874625, 11.7196563 ], [ 77.7875376, 11.7189735 ], [ 77.7879667, 11.7175763 ], [ 77.7879667, 11.7171351 ], [ 77.7879774, 11.7167884 ], [ 77.7881598, 11.7159585 ], [ 77.7881169, 11.7155383 ], [ 77.78772, 11.7133321 ], [ 77.7877736, 11.7128804 ], [ 77.7880418, 11.7124812 ], [ 77.7882564, 11.7112416 ], [ 77.7883959, 11.7093295 ], [ 77.7887392, 11.7075856 ], [ 77.7886963, 11.7064195 ], [ 77.7884817, 11.7060203 ], [ 77.7882028, 11.7056316 ], [ 77.7867973, 11.7039191 ], [ 77.7848446, 11.7010826 ], [ 77.7826559, 11.6983405 ], [ 77.7816367, 11.6968592 ], [ 77.7814865, 11.6964389 ], [ 77.7805638, 11.6933081 ], [ 77.7801347, 11.6924151 ], [ 77.7784181, 11.6901037 ], [ 77.7779567, 11.6886538 ], [ 77.7773666, 11.686563 ], [ 77.7773344, 11.6830854 ], [ 77.7772272, 11.6823079 ], [ 77.7766693, 11.6806794 ], [ 77.7766156, 11.6802486 ], [ 77.7767229, 11.6798073 ], [ 77.7768087, 11.6797128 ], [ 77.7773452, 11.6795867 ], [ 77.7784502, 11.6796497 ], [ 77.7792978, 11.6797443 ], [ 77.7798664, 11.6796707 ], [ 77.7805745, 11.6794606 ], [ 77.7809822, 11.6789038 ], [ 77.7810252, 11.6783889 ], [ 77.7808964, 11.6780422 ], [ 77.7806604, 11.6778951 ], [ 77.7797055, 11.6772962 ], [ 77.779072500000012, 11.6764872 ], [ 77.7782035, 11.6746065 ], [ 77.7781391, 11.6741967 ], [ 77.7782571, 11.6729674 ], [ 77.7784717, 11.6725471 ], [ 77.7791369, 11.6720743 ], [ 77.779287100000019, 11.6718326 ], [ 77.7792656, 11.6710341 ], [ 77.7791262, 11.6706033 ], [ 77.7783108, 11.6698783 ], [ 77.7778709, 11.6694791 ], [ 77.7777743, 11.6692794 ], [ 77.777431, 11.6673356 ], [ 77.7770877, 11.6648244 ], [ 77.7770984, 11.6640574 ], [ 77.7772593, 11.6637526 ], [ 77.7779996, 11.6630907 ], [ 77.7783644, 11.6626074 ], [ 77.7786326, 11.6619664 ], [ 77.7786326, 11.6617563 ], [ 77.7784824, 11.6613465 ], [ 77.778182, 11.6611573 ], [ 77.7764439, 11.6603062 ], [ 77.7762079, 11.660012 ], [ 77.7761006, 11.6595497 ], [ 77.7761972, 11.6591819 ], [ 77.776519, 11.658499 ], [ 77.7787721, 11.6555358 ], [ 77.7797055, 11.6547583 ], [ 77.7800381, 11.6540227 ], [ 77.780199, 11.6520368 ], [ 77.7799523, 11.6487793 ], [ 77.7800274, 11.6484431 ], [ 77.781561600000018, 11.6461629 ], [ 77.7815831, 11.6458371 ], [ 77.780177600000016, 11.6407512 ], [ 77.7800059, 11.6404675 ] ] } },
{ "type": "Feature", "properties": { "waterway": "canal", "name": null }, "geometry": { "type": "LineString", "coordinates": [ [ 77.783246, 11.7486858 ], [ 77.7838468, 11.7487331 ], [ 77.7842331, 11.7486491 ] ] } },
{ "type": "Feature", "properties": { "waterway": "river", "name": "Kaveri River காவிரி ஆறு" }, "geometry": { "type": "LineString", "coordinates": [ [ 77.8102095, 11.8045814 ], [ 77.8150097, 11.800108 ], [ 77.815182, 11.7999403 ] ] } },
{ "type": "Feature", "properties": { "waterway": "river", "name": "Kaveri" }, "geometry": { "type": "LineString", "coordinates": [ [ 77.815182, 11.7999403 ], [ 77.8156555, 11.7995939 ] ] } },
{ "type": "Feature", "properties": { "waterway": "canal", "name": "கால்வாய் Canal" }, "geometry": { "type": "LineString", "coordinates": [ [ 77.8007632, 11.8060643 ], [ 77.8003019, 11.8058017 ], [ 77.7999049, 11.8051401 ], [ 77.7998621, 11.8048236 ], [ 77.7998694, 11.8046457 ], [ 77.7999037, 11.8045812 ], [ 77.7999451, 11.8045176 ], [ 77.8001467, 11.8043551 ], [ 77.8007418, 11.8039219 ], [ 77.8013855, 11.8034283 ], [ 77.8016752, 11.8031027 ], [ 77.8016644, 11.8025461 ], [ 77.801246, 11.8010653 ], [ 77.8009349, 11.8006978 ], [ 77.8004414, 11.8005402 ], [ 77.79998, 11.8006137 ], [ 77.799626, 11.8008238 ], [ 77.7992934, 11.8011073 ], [ 77.7985424, 11.8011283 ], [ 77.7974802, 11.8006978 ], [ 77.7970296, 11.8003197 ], [ 77.7958709, 11.7974106 ], [ 77.7957529, 11.796959 ], [ 77.7959245, 11.7960768 ], [ 77.7960855, 11.7958142 ], [ 77.7972442, 11.7952471 ], [ 77.7974373, 11.7949846 ], [ 77.7974909, 11.7933987 ], [ 77.7971476, 11.7921069 ], [ 77.7965361, 11.790353 ], [ 77.7959567, 11.7901009 ], [ 77.7954632, 11.7895338 ], [ 77.7950877, 11.7893343 ], [ 77.7948202, 11.7891641 ] ] } },
{ "type": "Feature", "properties": { "waterway": "canal", "name": "கால்வாய் Canal" }, "geometry": { "type": "LineString", "coordinates": [ [ 77.7948202, 11.7891641 ], [ 77.7947351, 11.78911 ] ] } },
{ "type": "Feature", "properties": { "waterway": "dam", "name": "METTUR DAM 16 GATE ELLIS SURPLUS SLUICE BRIDGE" }, "geometry": { "type": "LineString", "coordinates": [ [ 77.8155713, 11.8017193 ], [ 77.8155639, 11.8017632 ], [ 77.8157132, 11.8017978 ], [ 77.8157206, 11.8017632 ], [ 77.8157, 11.8017553 ], [ 77.815725, 11.8016459 ], [ 77.815739, 11.8016135 ], [ 77.8157868, 11.8016192 ], [ 77.8158265, 11.801589 ], [ 77.8158294, 11.8015235 ], [ 77.815775, 11.8014688 ], [ 77.8157677, 11.8014572 ], [ 77.8157529, 11.8014544 ], [ 77.8157721, 11.8013017 ], [ 77.8157897, 11.8013017 ], [ 77.8158044, 11.8012909 ], [ 77.8158059, 11.8012816 ], [ 77.8158022, 11.801265 ], [ 77.815786, 11.8012629 ], [ 77.8157772, 11.8012614 ], [ 77.8157838, 11.8011945 ], [ 77.815789, 11.801152 ], [ 77.815786, 11.8011074 ], [ 77.8157875, 11.8010966 ], [ 77.8158088, 11.801098 ], [ 77.815814, 11.8010858 ], [ 77.8158133, 11.8010685 ], [ 77.8158103, 11.8010591 ], [ 77.8157978, 11.8010562 ], [ 77.8157897, 11.8010562 ], [ 77.815786, 11.8009684 ], [ 77.8157772, 11.8008978 ], [ 77.8157978, 11.8008935 ], [ 77.8158066, 11.8008863 ], [ 77.8158052, 11.8008727 ], [ 77.8157993, 11.8008626 ], [ 77.8157905, 11.8008575 ], [ 77.8157772, 11.8008583 ], [ 77.8157743, 11.8007963 ], [ 77.8157574, 11.8007006 ], [ 77.8157728, 11.8006927 ], [ 77.8157802, 11.8006804 ], [ 77.8157838, 11.8006682 ], [ 77.8157846, 11.800643 ], [ 77.8157765, 11.8006293 ], [ 77.8157654, 11.8006243 ], [ 77.8157441, 11.8006272 ], [ 77.8157272, 11.8005465 ], [ 77.8156809, 11.8004061 ], [ 77.8156706, 11.8003644 ], [ 77.8156345, 11.8002765 ], [ 77.8156551, 11.8002585 ], [ 77.8156375, 11.8002341 ], [ 77.8156191, 11.8002405 ], [ 77.815586, 11.8001578 ], [ 77.8155573, 11.8000966 ], [ 77.8155647, 11.8000757 ], [ 77.8155639, 11.8000591 ], [ 77.8155566, 11.8000548 ], [ 77.815547, 11.8000548 ], [ 77.8155382, 11.8000613 ], [ 77.8154963, 11.7999799 ], [ 77.815458, 11.7999159 ], [ 77.8154639, 11.7999007 ], [ 77.8154691, 11.7998842 ], [ 77.8154632, 11.7998727 ], [ 77.815461, 11.7998647 ], [ 77.8154514, 11.799859 ], [ 77.8154374, 11.7998554 ], [ 77.8154242, 11.7998583 ], [ 77.8153955, 11.7998215 ], [ 77.8153455, 11.7997524 ], [ 77.8152867, 11.7996797 ], [ 77.8152308, 11.7996113 ], [ 77.8151932, 11.7995674 ], [ 77.8151977, 11.7995516 ], [ 77.815191, 11.7995429 ], [ 77.8151807, 11.7995415 ], [ 77.8151682, 11.7995458 ], [ 77.8151329, 11.7995012 ], [ 77.815094, 11.7994637 ], [ 77.8150484, 11.7994292 ], [ 77.8150557, 11.7994162 ], [ 77.8150491, 11.7994025 ], [ 77.8150351, 11.7994004 ], [ 77.8150278, 11.7994054 ], [ 77.8149652, 11.7993536 ], [ 77.8148932, 11.7992989 ], [ 77.8148961, 11.7992787 ], [ 77.8148932, 11.7992636 ], [ 77.8148888, 11.7992571 ], [ 77.814874, 11.7992492 ], [ 77.8148593, 11.7992492 ], [ 77.8148446, 11.7992571 ], [ 77.8147961, 11.799224 ], [ 77.8146975, 11.7991642 ], [ 77.8146968, 11.7991455 ], [ 77.8146806, 11.7991405 ], [ 77.8146681, 11.7991455 ], [ 77.8145284, 11.7990757 ], [ 77.8145137, 11.7990663 ], [ 77.8145159, 11.7990548 ], [ 77.814512900000011, 11.7990491 ], [ 77.8145012, 11.7990462 ], [ 77.814491600000011, 11.7990476 ], [ 77.8144865, 11.7990548 ], [ 77.8143467, 11.7989907 ], [ 77.8143269, 11.7989857 ], [ 77.8143342, 11.7989627 ], [ 77.814321, 11.7989562 ], [ 77.8143085, 11.7989562 ], [ 77.8142989, 11.7989713 ], [ 77.8142099, 11.7989439 ], [ 77.8141349, 11.7989267 ], [ 77.8141327, 11.7989094 ], [ 77.8141099, 11.7989 ], [ 77.8140834, 11.7988907 ], [ 77.8140121, 11.7988712 ], [ 77.8139525, 11.7990663 ], [ 77.814036300000012, 11.7990887 ], [ 77.8141069, 11.7990347 ], [ 77.8141077, 11.7990095 ], [ 77.8142768, 11.7990534 ], [ 77.814257, 11.7990987 ], [ 77.8142732, 11.7991095 ], [ 77.8142871, 11.7990944 ], [ 77.8142996, 11.7990606 ], [ 77.8143791, 11.7990944 ], [ 77.8144511, 11.7991254 ], [ 77.814432, 11.7991714 ], [ 77.8144335, 11.7991851 ], [ 77.8144541, 11.7991851 ], [ 77.8144681, 11.7991614 ], [ 77.8144828, 11.7991354 ], [ 77.814574, 11.7991808 ], [ 77.8146343, 11.7992146 ], [ 77.8146041, 11.7992622 ], [ 77.8146071, 11.7992722 ], [ 77.8146181, 11.7992722 ], [ 77.8146255, 11.7992686 ], [ 77.8146534, 11.7992298 ], [ 77.8147968, 11.7993183 ], [ 77.8147593, 11.7993752 ], [ 77.814763, 11.7993917 ], [ 77.8147799, 11.7994011 ], [ 77.8147968, 11.7994033 ], [ 77.8148218, 11.7993838 ], [ 77.8148373, 11.7993529 ], [ 77.8149697, 11.7994537 ], [ 77.8149402, 11.7995019 ], [ 77.8149432, 11.7995134 ], [ 77.8149608, 11.7995192 ], [ 77.814966, 11.799512 ], [ 77.814988, 11.7994817 ], [ 77.814991, 11.799476 ], [ 77.8150631, 11.7995415 ], [ 77.8151131, 11.7995926 ], [ 77.8150785, 11.7996308 ], [ 77.815071900000021, 11.7996516 ], [ 77.8150903, 11.7996596 ], [ 77.8151337, 11.7996135 ], [ 77.8152388, 11.7997409 ], [ 77.8151999, 11.7997899 ], [ 77.8152006, 11.7998014 ], [ 77.8152131, 11.7998071 ], [ 77.8152565, 11.7997618 ], [ 77.815333, 11.7998741 ], [ 77.8153448, 11.7998921 ], [ 77.8153462, 11.799913 ], [ 77.8153043, 11.7999526 ], [ 77.8153146, 11.7999735 ], [ 77.8153411, 11.7999922 ], [ 77.8153867, 11.7999483 ], [ 77.8154315, 11.8000238 ], [ 77.8154551, 11.8000706 ], [ 77.8154683, 11.800098 ], [ 77.8154337, 11.800129 ], [ 77.8154242, 11.8001412 ], [ 77.8154315, 11.8001534 ], [ 77.8154485, 11.8001491 ], [ 77.8154852, 11.8001282 ], [ 77.8155249, 11.8002197 ], [ 77.8155492, 11.8002852 ], [ 77.8155117, 11.8003161 ], [ 77.8155176, 11.8003327 ], [ 77.8155294, 11.8003277 ], [ 77.8155632, 11.8003133 ], [ 77.8156059, 11.8004234 ], [ 77.8156, 11.8004393 ], [ 77.8156103, 11.8004573 ], [ 77.8155661, 11.8004868 ], [ 77.8155728, 11.8005055 ], [ 77.8156022, 11.8004976 ], [ 77.8156198, 11.800486 ], [ 77.8156537, 11.8006048 ], [ 77.8156522, 11.8006207 ], [ 77.8156456, 11.800638 ], [ 77.8156522, 11.8006574 ], [ 77.8156132, 11.8006704 ], [ 77.8156139, 11.8006955 ], [ 77.8156235, 11.8007085 ], [ 77.8156662, 11.8006905 ], [ 77.8156728, 11.800733 ], [ 77.8156845, 11.8008338 ], [ 77.815675, 11.8008431 ], [ 77.8156698, 11.8008575 ], [ 77.815678700000021, 11.8008755 ], [ 77.8156919, 11.8008727 ], [ 77.815697, 11.8009677 ], [ 77.8157, 11.8010253 ], [ 77.8156882, 11.8010382 ], [ 77.8156882, 11.801057 ], [ 77.8156978, 11.801062 ], [ 77.8156948, 11.8011462 ], [ 77.8156941, 11.8012233 ], [ 77.8156765, 11.8012269 ], [ 77.8156757, 11.8012528 ], [ 77.815689, 11.8012578 ], [ 77.815689, 11.8012823 ], [ 77.8156742, 11.8014112 ], [ 77.8156632, 11.8014205 ], [ 77.815661, 11.8014407 ], [ 77.8156654, 11.8014515 ], [ 77.8156632, 11.8014788 ], [ 77.8156573, 11.801481 ], [ 77.8155705, 11.8014853 ], [ 77.8155617, 11.8015328 ], [ 77.8155566, 11.8016012 ], [ 77.8156367, 11.8015983 ], [ 77.8156139, 11.8016696 ], [ 77.8155845, 11.8017107 ], [ 77.8155713, 11.8017193 ] ] } },
{ "type": "Feature", "properties": { "waterway": "ditch", "name": null }, "geometry": { "type": "LineString", "coordinates": [ [ 77.8017732, 11.792698 ], [ 77.8026637, 11.7925667 ], [ 77.8029802, 11.7925536 ], [ 77.8030446, 11.7925431 ], [ 77.8032109, 11.7924643 ], [ 77.8035032, 11.7923671 ], [ 77.8038278, 11.792312 ], [ 77.8040209, 11.792312 ], [ 77.8041416, 11.7921781 ], [ 77.8043454, 11.7920783 ], [ 77.8044152, 11.7919786 ], [ 77.8045922, 11.7918236 ], [ 77.8046995, 11.791779 ], [ 77.8047478, 11.7918053 ], [ 77.8047853, 11.7918473 ], [ 77.8048309, 11.7918525 ], [ 77.8048738, 11.7918446 ], [ 77.8049302, 11.7918026 ], [ 77.8050106, 11.7917475 ], [ 77.8050589, 11.7916819 ], [ 77.8051152, 11.7916293 ], [ 77.8051716, 11.7916136 ], [ 77.8052145, 11.791632 ], [ 77.805244, 11.7916609 ], [ 77.8053325, 11.7916609 ] ] } },
{ "type": "Feature", "properties": { "waterway": "canal", "name": null }, "geometry": { "type": "LineString", "coordinates": [ [ 77.8037208, 11.8054866 ], [ 77.8035051, 11.8052333 ], [ 77.8031662, 11.8047749 ], [ 77.8030922, 11.8044582 ], [ 77.8031015, 11.8042592 ], [ 77.8031508, 11.8039425 ], [ 77.8032771, 11.8036379 ], [ 77.8035205, 11.8031447 ] ] } },
{ "type": "Feature", "properties": { "waterway": "stream", "name": null }, "geometry": { "type": "LineString", "coordinates": [ [ 77.763623, 11.781882 ], [ 77.7634406, 11.7825121 ], [ 77.7641809, 11.7839405 ], [ 77.7652645, 11.7849488 ], [ 77.7658331, 11.7853058 ], [ 77.7663267, 11.7854214 ], [ 77.7666807, 11.785936 ], [ 77.7672493, 11.7865452 ], [ 77.7676409, 11.7872436 ], [ 77.7677375, 11.7876217 ], [ 77.7674961, 11.7894544 ], [ 77.7675283, 11.7909037 ], [ 77.7678501, 11.7915759 ], [ 77.7696311, 11.7935503 ], [ 77.7696955, 11.7947371 ], [ 77.769759900000011, 11.7950416 ], [ 77.7700603, 11.7951782 ], [ 77.7706289, 11.7951887 ], [ 77.7707791, 11.7954197 ], [ 77.7703607, 11.7956823 ], [ 77.7704251, 11.7961654 ], [ 77.7707899, 11.7968585 ], [ 77.7712941, 11.7973732 ], [ 77.7714765, 11.7975307 ], [ 77.7715087, 11.7979403 ], [ 77.771337, 11.7983814 ], [ 77.7710044, 11.798959 ], [ 77.7711654, 11.7991585 ], [ 77.7720559, 11.7994211 ], [ 77.7728283, 11.7994526 ], [ 77.773397, 11.7995261 ], [ 77.7739602, 11.7998989 ], [ 77.7741748, 11.8004188 ], [ 77.7741909, 11.8009071 ], [ 77.7738851, 11.8012957 ], [ 77.773928, 11.8015687 ], [ 77.7743411, 11.8017158 ], [ 77.7747917, 11.8018208 ], [ 77.7749419, 11.8020361 ], [ 77.7749741, 11.8024247 ], [ 77.7748239, 11.802703 ], [ 77.7746201, 11.802976 ], [ 77.7745986, 11.8032596 ], [ 77.7748132, 11.8040892 ], [ 77.7748239, 11.8044358 ], [ 77.774899, 11.8047613 ], [ 77.775135, 11.8048296 ], [ 77.7755105, 11.8048559 ], [ 77.7756554, 11.8051657 ], [ 77.7757573, 11.8055332 ], [ 77.7760577, 11.8058588 ], [ 77.7763045, 11.8060531 ], [ 77.7765834, 11.8061686 ], [ 77.7769697, 11.8061266 ], [ 77.7775544, 11.8059953 ], [ 77.7778333, 11.8060531 ], [ 77.7782571, 11.8069457 ], [ 77.7784073, 11.8075706 ], [ 77.7787936, 11.8080327 ], [ 77.7801425, 11.8082078 ] ] } }
]
}
