{
  "type": "FeatureCollection",
  "features": [
    {
      "type": "Feature",
      "id": 846435831,
      "properties": {
        "building": "yes",
        "max_flood_depth_m": 18.91,
        "flood_arrival_min": 88.0,
        "risk_category": "VERY_HIGH",
        "is_affected": true
      },
      "geometry": {
        "type": "Polygon",
        "coordinates": [
          [
            [
              76.9638245,
              9.841749
            ],
            [
              76.9640928,
              9.8418409
            ],
            [
              76.9641893,
              9.8415674
            ],
            [
              76.963921,
              9.8414755
            ],
            [
              76.963888,
              9.841569
            ],
            [
              76.9639473,
              9.8415893
            ],
            [
              76.9639197,
              9.8416675
            ],
            [
              76.9638604,
              9.8416472
            ],
            [
              76.9638245,
              9.841749
            ]
          ]
        ]
      }
    }
  ]
}