{
  "type": "FeatureCollection",
  "features": [
    {
      "type": "Feature",
      "id": "flood_perimeter",
      "properties": {
        "total_area_sqkm": 9.23,
        "polygon_area_sqkm": 14.08,
        "peak_flood_depth_m": 86.26,
        "peak_flow_velocity_ms": 79.9
      },
      "geometry": {
        "type": "MultiPolygon",
        "coordinates": [
          [
            [
              [
                76.92097222222223,
                9.749583333333334
              ],
              [
                76.92097222222223,
                9.753472222222223
              ],
              [
                76.92486111111111,
                9.753472222222223
              ],
              [
                76.92486111111111,
                9.751527777777778
              ],
              [
                76.92680555555556,
                9.751527777777778
              ],
              [
                76.92680555555556,
                9.749583333333334
              ],
              [
                76.92097222222223,
                9.749583333333334
              ]
            ]
          ],
          [
            [
              [
                76.93069444444446,
                9.755416666666667
              ],
              [
                76.92486111111111,
                9.755416666666667
              ],
              [
                76.92486111111111,
                9.76125
              ],
              [
                76.92680555555556,
                9.76125
              ],
              [
                76.92680555555556,
                9.76513888888889
              ],
              [
                76.92875000000001,
                9.76513888888889
              ],
              [
                76.92875000000001,
                9.769027777777778
              ],
              [
                76.93069444444446,
                9.769027777777778
              ],
              [
                76.93069444444446,
                9.774861111111111
              ],
              [
                76.93263888888889,
                9.774861111111111
              ],
              [
                76.93263888888889,
                9.77875
              ],
              [
                76.93458333333334,
                9.77875
              ],
              [
                76.93458333333334,
                9.78263888888889
              ],
              [
                76.93652777777778,
                9.78263888888889
              ],
              [
                76.93652777777778,
                9.786527777777778
              ],
              [
                76.93847222222223,
                9.786527777777778
              ],
              [
                76.93847222222223,
                9.790416666666667
              ],
              [
                76.94236111111111,
                9.790416666666667
              ],
              [
                76.94236111111111,
                9.792361111111111
              ],
              [
                76.94041666666668,
                9.792361111111111
              ],
              [
                76.94041666666668,
                9.79625
              ],
              [
                76.94236111111111,
                9.79625
              ],
              [
                76.94236111111111,
                9.80013888888889
              ],
              [
                76.94430555555556,
                9.80013888888889
              ],
              [
                76.94430555555556,
                9.804027777777778
              ],
              [
                76.94625,
                9.804027777777778
              ],
              [
                76.94625,
                9.809861111111111
              ],
              [
                76.94819444444445,
                9.809861111111111
              ],
              [
                76.94819444444445,
                9.81375
              ],
              [
                76.95013888888889,
                9.81375
              ],
              [
                76.95013888888889,
                9.81763888888889
              ],
              [
                76.95208333333333,
                9.81763888888889
              ],
              [
                76.95208333333333,
                9.821527777777778
              ],
              [
                76.95402777777778,
                9.821527777777778
              ],
              [
                76.95402777777778,
                9.827361111111111
              ],
              [
                76.95597222222223,
                9.827361111111111
              ],
              [
                76.95597222222223,
                9.83125
              ],
              [
                76.95791666666668,
                9.83125
              ],
              [
                76.95791666666668,
                9.83513888888889
              ],
              [
                76.95986111111111,
                9.83513888888889
              ],
              [
                76.95986111111111,
                9.837083333333334
              ],
              [
                76.96180555555556,
                9.837083333333334
              ],
              [
                76.96180555555556,
                9.844861111111111
              ],
              [
                76.96375,
                9.844861111111111
              ],
              [
                76.96375,
                9.846805555555557
              ],
              [
                76.96569444444445,
                9.846805555555557
              ],
              [
                76.96569444444445,
                9.850694444444445
              ],
              [
                76.9676388888889,
                9.850694444444445
              ],
              [
                76.9676388888889,
                9.846805555555557
              ],
              [
                76.97152777777778,
                9.846805555555557
              ],
              [
                76.97152777777778,
                9.839027777777778
              ],
              [
                76.96958333333333,
                9.839027777777778
              ],
              [
                76.96958333333333,
                9.83513888888889
              ],
              [
                76.9676388888889,
                9.83513888888889
              ],
              [
                76.9676388888889,
                9.829305555555557
              ],
              [
                76.96569444444445,
                9.829305555555557
              ],
              [
                76.96569444444445,
                9.823472222222223
              ],
              [
                76.96375,
                9.823472222222223
              ],
              [
                76.96375,
                9.819583333333334
              ],
              [
                76.95597222222223,
                9.819583333333334
              ],
              [
                76.95597222222223,
                9.81763888888889
              ],
              [
                76.95791666666668,
                9.81763888888889
              ],
              [
                76.95791666666668,
                9.815694444444444
              ],
              [
                76.95986111111111,
                9.815694444444444
              ],
              [
                76.95986111111111,
                9.811805555555557
              ],
              [
                76.95791666666668,
                9.811805555555557
              ],
              [
                76.95791666666668,
                9.802083333333334
              ],
              [
                76.95402777777778,
                9.802083333333334
              ],
              [
                76.95402777777778,
                9.80013888888889
              ],
              [
                76.95597222222223,
                9.80013888888889
              ],
              [
                76.95597222222223,
                9.79625
              ],
              [
                76.95402777777778,
                9.79625
              ],
              [
                76.95402777777778,
                9.790416666666667
              ],
              [
                76.95208333333333,
                9.790416666666667
              ],
              [
                76.95208333333333,
                9.784583333333334
              ],
              [
                76.94819444444445,
                9.784583333333334
              ],
              [
                76.94819444444445,
                9.776805555555557
              ],
              [
                76.94236111111111,
                9.776805555555557
              ],
              [
                76.94236111111111,
                9.774861111111111
              ],
              [
                76.94430555555556,
                9.774861111111111
              ],
              [
                76.94430555555556,
                9.772916666666667
              ],
              [
                76.94236111111111,
                9.772916666666667
              ],
              [
                76.94236111111111,
                9.770972222222223
              ],
              [
                76.93652777777778,
                9.770972222222223
              ],
              [
                76.93652777777778,
                9.769027777777778
              ],
              [
                76.94041666666668,
                9.769027777777778
              ],
              [
                76.94041666666668,
                9.767083333333334
              ],
              [
                76.94430555555556,
                9.767083333333334
              ],
              [
                76.94430555555556,
                9.763194444444444
              ],
              [
                76.94236111111111,
                9.763194444444444
              ],
              [
                76.94236111111111,
                9.757361111111111
              ],
              [
                76.94041666666668,
                9.757361111111111
              ],
              [
                76.94041666666668,
                9.751527777777778
              ],
              [
                76.93847222222223,
                9.751527777777778
              ],
              [
                76.93847222222223,
                9.749583333333334
              ],
              [
                76.93069444444446,
                9.749583333333334
              ],
              [
                76.93069444444446,
                9.755416666666667
              ]
            ],
            [
              [
                76.95791666666668,
                9.81375
              ],
              [
                76.95597222222223,
                9.81375
              ],
              [
                76.95597222222223,
                9.811805555555557
              ],
              [
                76.95791666666668,
                9.811805555555557
              ],
              [
                76.95791666666668,
                9.81375
              ]
            ],
            [
              [
                76.94236111111111,
                9.78263888888889
              ],
              [
                76.94041666666668,
                9.78263888888889
              ],
              [
                76.94041666666668,
                9.780694444444444
              ],
              [
                76.94236111111111,
                9.780694444444444
              ],
              [
                76.94236111111111,
                9.78263888888889
              ]
            ]
          ]
        ]
      }
    }
  ]
}