{
  "type": "FeatureCollection",
  "name": "Idukki Study Area Boundary (Preliminary)",
  "crs": {
    "type": "name",
    "properties": {
      "name": "urn:ogc:def:crs:OGC:1.3:CRS84"
    }
  },
  "features": [
    {
      "type": "Feature",
      "properties": {
        "study_area": "Idukki Dam & Downstream Periyar Floodplain",
        "boundary_status": "preliminary",
        "dam_name": "Idukki Dam",
        "river": "Periyar",
        "state": "Kerala",
        "min_lat": 9.75,
        "max_lat": 10.08,
        "min_lon": 76.75,
        "max_lon": 77.08,
        "area_km2": 1334.0,
        "description": "Encompasses Idukki double-curvature arch dam, Cheruthoni concrete gravity spillway dam, Kulamavu masonry dam, the reservoir basin, and ~40 km of the downstream Periyar river corridor towards Neriamangalam."
      },
      "geometry": {
        "type": "Polygon",
        "coordinates": [
          [
            [
              76.75,
              9.75
            ],
            [
              77.08,
              9.75
            ],
            [
              77.08,
              10.08
            ],
            [
              76.75,
              10.08
            ],
            [
              76.75,
              9.75
            ]
          ]
        ]
      }
    }
  ]
}