{
  "type": "FeatureCollection",
  "features": [
    {
      "type": "Feature",
      "id": 70236779,
      "properties": {
        "natural": "water",
        "source": "Yahoo",
        "water": "river",
        "osm_id": 70236779
      },
      "geometry": {
        "type": "Polygon",
        "coordinates": [
          [
            [
              77.8068546,
              11.7960561
            ],
            [
              77.8068388,
              11.7963035
            ],
            [
              77.8068283,
              11.7964159
            ],
            [
              77.8068334,
              11.7967194
            ],
            [
              77.8069246,
              11.7974152
            ],
            [
              77.8069541,
              11.797725
            ],
            [
              77.8068951,
              11.7979928
            ],
            [
              77.8067959,
              11.7981713
            ],
            [
              77.8064043,
              11.7988067
            ],
            [
              77.8052294,
              11.8002455
            ],
            [
              77.8048861,
              11.8007076
            ],
            [
              77.8045535,
              11.8014847
            ],
            [
              77.8042531,
              11.8020991
            ],
            [
              77.8038776,
              11.8025454
            ],
            [
              77.8035397,
              11.8028657
            ],
            [
              77.8018284,
              11.8036586
            ],
            [
              77.8013188,
              11.8039317
            ],
            [
              77.8010076,
              11.8041995
            ],
            [
              77.8006804,
              11.8047141
            ],
            [
              77.8006187,
              11.8048401
            ],
            [
              77.8005732,
              11.8050055
            ],
            [
              77.8004551,
              11.8055096
            ],
            [
              77.8004229,
              11.8060268
            ],
            [
              77.8004766,
              11.8063734
            ],
            [
              77.8007756,
              11.8068368
            ],
            [
              77.80084,
              11.8069326
            ],
            [
              77.8011471,
              11.8067278
            ],
            [
              77.8014489,
              11.806523
            ],
            [
              77.8011471,
              11.806082
            ],
            [
              77.8010157,
              11.8058496
            ],
            [
              77.8009701,
              11.8056619
            ],
            [
              77.8009714,
              11.805142
            ],
            [
              77.8010828,
              11.8047718
            ],
            [
              77.8015602,
              11.804252
            ],
            [
              77.8021449,
              11.8039264
            ],
            [
              77.8028325,
              11.8037451
            ],
            [
              77.8029786,
              11.8036483
            ],
            [
              77.8030519,
              11.8035915
            ],
            [
              77.8029501,
              11.8038481
            ],
            [
              77.8028999,
              11.8040165
            ],
            [
              77.802874,
              11.8041815
            ],
            [
              77.8028787,
              11.8042589
            ],
            [
              77.8028962,
              11.8044475
            ],
            [
              77.80294,
              11.8047272
            ],
            [
              77.8030092,
              11.8049314
            ],
            [
              77.8030669,
              11.8050524
            ],
            [
              77.8031056,
              11.8051088
            ],
            [
              77.80315,
              11.805193
            ],
            [
              77.803259,
              11.8051163
            ],
            [
              77.8033146,
              11.8051988
            ],
            [
              77.8034811,
              11.8050803
            ],
            [
              77.8035871,
              11.8050048
            ],
            [
              77.803541,
              11.8049373
            ],
            [
              77.8033789,
              11.8046871
            ],
            [
              77.8033175,
              11.804482
            ],
            [
              77.8033827,
              11.8039921
            ],
            [
              77.8034747,
              11.8037743
            ],
            [
              77.8036016,
              11.8036511
            ],
            [
              77.8037649,
              11.8033698
            ],
            [
              77.804009,
              11.8030758
            ],
            [
              77.8040882,
              11.8028973
            ],
            [
              77.804172,
              11.8028106
            ],
            [
              77.8042129,
              11.8028474
            ],
            [
              77.8043518,
              11.8027045
            ],
            [
              77.8044906,
              11.8025059
            ],
            [
              77.8047358,
              11.8021555
            ],
            [
              77.8049655,
              11.8017001
            ],
            [
              77.8053151,
              11.800898
            ],
            [
              77.8055738,
              11.8005586
            ],
            [
              77.8064011,
              11.7995945
            ],
            [
              77.8066994,
              11.7992647
            ],
            [
              77.8067967,
              11.7991472
            ],
            [
              77.8068417,
              11.7991317
            ],
            [
              77.8068894,
              11.799165
            ],
            [
              77.8069362,
              11.799289
            ],
            [
              77.8069407,
              11.8001772
            ],
            [
              77.8069702,
              11.800684
            ],
            [
              77.8070318,
              11.8013403
            ],
            [
              77.8071633,
              11.8016659
            ],
            [
              77.8072759,
              11.8019258
            ],
            [
              77.8075445,
              11.8022291
            ],
            [
              77.807817,
              11.8020882
            ],
            [
              77.808313,
              11.8017083
            ],
            [
              77.809059,
              11.8012607
            ],
            [
              77.8088772,
              11.8010174
            ],
            [
              77.8087291,
              11.8008281
            ],
            [
              77.8086952,
              11.8007163
            ],
            [
              77.80879,
              11.8005549
            ],
            [
              77.8087875,
              11.8005483
            ],
            [
              77.8086787,
              11.8005282
            ],
            [
              77.8086116,
              11.8004084
            ],
            [
              77.8085047,
              11.8002017
            ],
            [
              77.8084682,
              11.8000661
            ],
            [
              77.8084482,
              11.7998429
            ],
            [
              77.8084705,
              11.7997274
            ],
            [
              77.808525,
              11.7997446
            ],
            [
              77.8085711,
              11.7997777
            ],
            [
              77.8086278,
              11.7998385
            ],
            [
              77.8088829,
              11.8003778
            ],
            [
              77.808855,
              11.8004804
            ],
            [
              77.8087888,
              11.8005475
            ],
            [
              77.8087914,
              11.8005548
            ],
            [
              77.808918,
              11.8005373
            ],
            [
              77.8090693,
              11.8006583
            ],
            [
              77.8091544,
              11.8007715
            ],
            [
              77.8092263,
              11.8008515
            ],
            [
              77.8093815,
              11.8007417
            ],
            [
              77.80958,
              11.8005921
            ],
            [
              77.8097691,
              11.8004608
            ],
            [
              77.8097959,
              11.8004083
            ],
            [
              77.8097919,
              11.8003334
            ],
            [
              77.8095894,
              11.7999934
            ],
            [
              77.8093493,
              11.7995103
            ],
            [
              77.8092554,
              11.7988776
            ],
            [
              77.8092366,
              11.7987253
            ],
            [
              77.8092742,
              11.7986623
            ],
            [
              77.8093466,
              11.7986255
            ],
            [
              77.8095478,
              11.7986177
            ],
            [
              77.8098596,
              11.7986376
            ],
            [
              77.8103525,
              11.7985204
            ],
            [
              77.8107379,
              11.7984383
            ],
            [
              77.8106897,
              11.7982755
            ],
            [
              77.8106649,
              11.7982383
            ],
            [
              77.8105831,
              11.7979442
            ],
            [
              77.8105382,
              11.7977642
            ],
            [
              77.8105181,
              11.7976963
            ],
            [
              77.8103659,
              11.7977342
            ],
            [
              77.8095652,
              11.7979416
            ],
            [
              77.8094552,
              11.7978851
            ],
            [
              77.8094003,
              11.7977998
            ],
            [
              77.8093842,
              11.797662
            ],
            [
              77.8094821,
              11.7969452
            ],
            [
              77.8095049,
              11.7966459
            ],
            [
              77.8094754,
              11.7963387
            ],
            [
              77.809352,
              11.7960236
            ],
            [
              77.8092769,
              11.7958398
            ],
            [
              77.8091703,
              11.7957251
            ],
            [
              77.8090918,
              11.7953147
            ],
            [
              77.8089684,
              11.7948841
            ],
            [
              77.8086895,
              11.7944115
            ],
            [
              77.8084866,
              11.7940446
            ],
            [
              77.8081638,
              11.793461
            ],
            [
              77.8080652,
              11.7931982
            ],
            [
              77.8077158,
              11.7922675
            ],
            [
              77.8076434,
              11.7920747
            ],
            [
              77.8072625,
              11.7907829
            ],
            [
              77.8068012,
              11.7897432
            ],
            [
              77.8067566,
              11.7896565
            ],
            [
              77.8056264,
              11.7874589
            ],
            [
              77.8051704,
              11.7863929
            ],
            [
              77.8048472,
              11.7855938
            ],
            [
              77.804752,
              11.7853584
            ],
            [
              77.8039948,
              11.7836083
            ],
            [
              77.8039795,
              11.7835729
            ],
            [
              77.8034592,
              11.7818977
            ],
            [
              77.8032982,
              11.7811205
            ],
            [
              77.8030352,
              11.7795935
            ],
            [
              77.8028315,
              11.7784108
            ],
            [
              77.8026518,
              11.7774053
            ],
            [
              77.8024185,
              11.7761001
            ],
            [
              77.802279,
              11.7752599
            ],
            [
              77.8022605,
              11.7751125
            ],
            [
              77.8021449,
              11.7741905
            ],
            [
              77.8020966,
              11.7738052
            ],
            [
              77.8019142,
              11.7728284
            ],
            [
              77.8012544,
              11.7704914
            ],
            [
              77.8011149,
              11.7701186
            ],
            [
              77.8009433,
              11.7698665
            ],
            [
              77.8007984,
              11.7695987
            ],
            [
              77.800675,
              11.7688949
            ],
            [
              77.8000688,
              11.7663111
            ],
            [
              77.79957,
              11.7648774
            ],
            [
              77.7988833,
              11.7624563
            ],
            [
              77.79832,
              11.7605289
            ],
            [
              77.7977782,
              11.7587065
            ],
            [
              77.7974456,
              11.7577875
            ],
            [
              77.7967268,
              11.755797
            ],
            [
              77.7957076,
              11.7528927
            ],
            [
              77.7951229,
              11.751627
            ],
            [
              77.7945703,
              11.7509127
            ],
            [
              77.793535,
              11.7496575
            ],
            [
              77.7926338,
              11.7489432
            ],
            [
              77.7910459,
              11.7473256
            ],
            [
              77.7904183,
              11.7466638
            ],
            [
              77.7902305,
              11.7461911
            ],
            [
              77.7889109,
              11.7435125
            ],
            [
              77.7879023,
              11.7415798
            ],
            [
              77.7871513,
              11.739752
            ],
            [
              77.7865612,
              11.7376196
            ],
            [
              77.7857137,
              11.7348674
            ],
            [
              77.7846086,
              11.7317895
            ],
            [
              77.7834043,
              11.7293183
            ],
            [
              77.782951,
              11.728147
            ],
            [
              77.7829322,
              11.7279133
            ],
            [
              77.7830127,
              11.7277767
            ],
            [
              77.7834231,
              11.7276401
            ],
            [
              77.7835116,
              11.727522
            ],
            [
              77.7835035,
              11.7274169
            ],
            [
              77.7834472,
              11.7273801
            ],
            [
              77.7832836,
              11.7273749
            ],
            [
              77.7827632,
              11.7273906
            ],
            [
              77.7826586,
              11.7273723
            ],
            [
              77.782605,
              11.7273276
            ],
            [
              77.7825224,
              11.7271198
            ],
            [
              77.7808226,
              11.7275287
            ],
            [
              77.7793185,
              11.727913
            ],
            [
              77.7792375,
              11.7279986
            ],
            [
              77.7792494,
              11.7281514
            ],
            [
              77.7794453,
              11.7288246
            ],
            [
              77.7795365,
              11.7289427
            ],
            [
              77.7796975,
              11.7290268
            ],
            [
              77.779837,
              11.7291843
            ],
            [
              77.7800738,
              11.7299196
            ],
            [
              77.7809983,
              11.7319524
            ],
            [
              77.781508,
              11.7334335
            ],
            [
              77.7819425,
              11.7346731
            ],
            [
              77.7825808,
              11.7362172
            ],
            [
              77.7832246,
              11.7373465
            ],
            [
              77.7838683,
              11.7387593
            ],
            [
              77.7845979,
              11.7411701
            ],
            [
              77.7852362,
              11.7427142
            ],
            [
              77.7860033,
              11.7442951
            ],
            [
              77.7865505,
              11.7456081
            ],
            [
              77.7868134,
              11.7469422
            ],
            [
              77.7870279,
              11.7481974
            ],
            [
              77.7872103,
              11.7488959
            ],
            [
              77.7877629,
              11.7494894
            ],
            [
              77.7885675,
              11.7501249
            ],
            [
              77.7893937,
              11.7506238
            ],
            [
              77.7911586,
              11.7517688
            ],
            [
              77.7919632,
              11.7525303
            ],
            [
              77.792666,
              11.7535859
            ],
            [
              77.7929932,
              11.7543632
            ],
            [
              77.7932668,
              11.7553716
            ],
            [
              77.7937603,
              11.7571047
            ],
            [
              77.7941465,
              11.7581183
            ],
            [
              77.7947098,
              11.7595153
            ],
            [
              77.7952677,
              11.7619889
            ],
            [
              77.795611,
              11.7645675
            ],
            [
              77.7959275,
              11.7657859
            ],
            [
              77.7963364,
              11.7672292
            ],
            [
              77.7964854,
              11.7677553
            ],
            [
              77.796995,
              11.7692258
            ],
            [
              77.7976495,
              11.7708433
            ],
            [
              77.7985346,
              11.7728862
            ],
            [
              77.7990174,
              11.7747767
            ],
            [
              77.7999186,
              11.7776125
            ],
            [
              77.8005677,
              11.7804378
            ],
            [
              77.8011417,
              11.78299
            ],
            [
              77.8017265,
              11.7845864
            ],
            [
              77.8022897,
              11.7860515
            ],
            [
              77.8027725,
              11.7870703
            ],
            [
              77.8034216,
              11.7883568
            ],
            [
              77.8039849,
              11.7893336
            ],
            [
              77.8043631,
              11.7900688
            ],
            [
              77.8049371,
              11.7912818
            ],
            [
              77.8055325,
              11.7927338
            ],
            [
              77.8058973,
              11.7935661
            ],
            [
              77.8061843,
              11.794233
            ],
            [
              77.8063908,
              11.7947502
            ],
            [
              77.8066376,
              11.7951992
            ],
            [
              77.8066943,
              11.795456
            ],
            [
              77.8068546,
              11.7960561
            ]
          ]
        ]
      }
    },
    {
      "type": "Feature",
      "id": 252848155,
      "properties": {
        "natural": "water",
        "water": "lake",
        "osm_id": 252848155
      },
      "geometry": {
        "type": "Polygon",
        "coordinates": [
          [
            [
              77.8742135,
              11.7013046
            ],
            [
              77.8742929,
              11.7012452
            ],
            [
              77.8744704,
              11.7010577
            ],
            [
              77.8746805,
              11.7008748
            ],
            [
              77.874844,
              11.7006507
            ],
            [
              77.8749374,
              11.7004312
            ],
            [
              77.874928,
              11.7001065
            ],
            [
              77.8749374,
              11.6998779
            ],
            [
              77.8747459,
              11.699695
            ],
            [
              77.8746431,
              11.6996538
            ],
            [
              77.874405,
              11.6997727
            ],
            [
              77.8741761,
              11.6997864
            ],
            [
              77.8740034,
              11.6998824
            ],
            [
              77.8739286,
              11.6999739
            ],
            [
              77.8742135,
              11.7013046
            ]
          ]
        ]
      }
    },
    {
      "type": "Feature",
      "id": 480607747,
      "properties": {
        "natural": "water",
        "water": "reservoir",
        "osm_id": 480607747
      },
      "geometry": {
        "type": "Polygon",
        "coordinates": [
          [
            [
              78.0989101,
              11.6603956
            ],
            [
              78.0987706,
              11.6602853
            ],
            [
              78.0987438,
              11.6601855
            ],
            [
              78.098776,
              11.6601119
            ],
            [
              78.0987277,
              11.6600279
            ],
            [
              78.0986741,
              11.6599596
            ],
            [
              78.098658,
              11.6597599
            ],
            [
              78.0986634,
              11.6596338
            ],
            [
              78.0986634,
              11.6595025
            ],
            [
              78.0986043,
              11.6594079
            ],
            [
              78.0985561,
              11.6593239
            ],
            [
              78.0985561,
              11.6591663
            ],
            [
              78.0986258,
              11.6588668
            ],
            [
              78.0988189,
              11.6586672
            ],
            [
              78.0988672,
              11.6584412
            ],
            [
              78.0989799,
              11.6583204
            ],
            [
              78.0991354,
              11.6582574
            ],
            [
              78.099423,
              11.6582264
            ],
            [
              78.0995646,
              11.6581733
            ],
            [
              78.0996021,
              11.658084
            ],
            [
              78.0996343,
              11.6579894
            ],
            [
              78.0997019,
              11.6579532
            ],
            [
              78.0996987,
              11.6580945
            ],
            [
              78.0998435,
              11.6581786
            ],
            [
              78.0998789,
              11.6582631
            ],
            [
              78.1000581,
              11.6581418
            ],
            [
              78.1001901,
              11.6581581
            ],
            [
              78.1002544,
              11.6582737
            ],
            [
              78.1002405,
              11.6584307
            ],
            [
              78.1003049,
              11.6585831
            ],
            [
              78.1003102,
              11.6587565
            ],
            [
              78.1003424,
              11.6590507
            ],
            [
              78.1003585,
              11.6593501
            ],
            [
              78.1004282,
              11.6594552
            ],
            [
              78.100587,
              11.6595818
            ],
            [
              78.1006482,
              11.6596759
            ],
            [
              78.1005838,
              11.659844
            ],
            [
              78.1005141,
              11.6600279
            ],
            [
              78.1003746,
              11.6600699
            ],
            [
              78.1002244,
              11.6600489
            ],
            [
              78.1000581,
              11.6600909
            ],
            [
              78.0998864,
              11.660217
            ],
            [
              78.0998543,
              11.6604377
            ],
            [
              78.0997201,
              11.6605322
            ],
            [
              78.0995646,
              11.6605532
            ],
            [
              78.0994787,
              11.6604744
            ],
            [
              78.0994036,
              11.6604114
            ],
            [
              78.0992749,
              11.6604009
            ],
            [
              78.0991569,
              11.6604219
            ],
            [
              78.099012,
              11.6604009
            ],
            [
              78.0989101,
              11.6603956
            ]
          ]
        ]
      }
    },
    {
      "type": "Feature",
      "id": 547751593,
      "properties": {
        "natural": "water",
        "water": "reservoir",
        "osm_id": 547751593
      },
      "geometry": {
        "type": "Polygon",
        "coordinates": [
          [
            [
              77.6544088,
              11.8123594
            ],
            [
              77.6541996,
              11.8123909
            ],
            [
              77.6541245,
              11.8124434
            ],
            [
              77.6538724,
              11.812853
            ],
            [
              77.6538831,
              11.813336
            ],
            [
              77.6540708,
              11.8139556
            ],
            [
              77.6543176,
              11.8143179
            ],
            [
              77.6544088,
              11.8143337
            ],
            [
              77.6559806,
              11.8136406
            ],
            [
              77.6559699,
              11.8133675
            ],
            [
              77.6559001,
              11.8131995
            ],
            [
              77.6557767,
              11.8129527
            ],
            [
              77.6555139,
              11.8126639
            ],
            [
              77.6552617,
              11.8124802
            ],
            [
              77.6548165,
              11.8123069
            ],
            [
              77.6546287,
              11.8122806
            ],
            [
              77.6544088,
              11.8123594
            ]
          ]
        ]
      }
    },
    {
      "type": "Feature",
      "id": 548030825,
      "properties": {
        "natural": "water",
        "osm_id": 548030825
      },
      "geometry": {
        "type": "Polygon",
        "coordinates": [
          [
            [
              77.7539241,
              11.952242
            ],
            [
              77.7535593,
              11.9522893
            ],
            [
              77.7535057,
              11.9524625
            ],
            [
              77.7533555,
              11.9525727
            ],
            [
              77.7532697,
              11.9526147
            ],
            [
              77.7528942,
              11.9526829
            ],
            [
              77.752803,
              11.9527196
            ],
            [
              77.7527386,
              11.9527879
            ],
            [
              77.7527279,
              11.9529715
            ],
            [
              77.7527761,
              11.9530503
            ],
            [
              77.7528566,
              11.9531027
            ],
            [
              77.7531195,
              11.9531867
            ],
            [
              77.7532884,
              11.953289
            ],
            [
              77.7533126,
              11.9533258
            ],
            [
              77.7533233,
              11.9533678
            ],
            [
              77.753275,
              11.9534491
            ],
            [
              77.7532831,
              11.953541
            ],
            [
              77.7533931,
              11.9536066
            ],
            [
              77.7534065,
              11.9536958
            ],
            [
              77.7534011,
              11.953743
            ],
            [
              77.7532938,
              11.9538348
            ],
            [
              77.7533501,
              11.9539083
            ],
            [
              77.7532509,
              11.9540028
            ],
            [
              77.7532509,
              11.9540474
            ],
            [
              77.7533448,
              11.9541524
            ],
            [
              77.7535272,
              11.9542232
            ],
            [
              77.7535459,
              11.9542626
            ],
            [
              77.753562,
              11.9543544
            ],
            [
              77.7534896,
              11.9546221
            ],
            [
              77.7535513,
              11.9547401
            ],
            [
              77.7535513,
              11.9547874
            ],
            [
              77.7535084,
              11.9548713
            ],
            [
              77.7534977,
              11.9549658
            ],
            [
              77.7535701,
              11.955013
            ],
            [
              77.7538678,
              11.9550734
            ],
            [
              77.753613,
              11.9549632
            ],
            [
              77.7535996,
              11.9549212
            ],
            [
              77.7536908,
              11.9548923
            ],
            [
              77.7537149,
              11.9548556
            ],
            [
              77.753672,
              11.9546824
            ],
            [
              77.7537042,
              11.9546457
            ],
            [
              77.7538303,
              11.9546614
            ],
            [
              77.7538437,
              11.9542075
            ],
            [
              77.7537337,
              11.9540133
            ],
            [
              77.7537096,
              11.9539267
            ],
            [
              77.753849,
              11.953638
            ],
            [
              77.7539107,
              11.9535777
            ],
            [
              77.7539563,
              11.9535751
            ],
            [
              77.7540421,
              11.9536197
            ],
            [
              77.7541468,
              11.9537115
            ],
            [
              77.7544579,
              11.9541524
            ],
            [
              77.7546349,
              11.9544515
            ],
            [
              77.7546376,
              11.9546693
            ],
            [
              77.7547315,
              11.954769
            ],
            [
              77.7547905,
              11.9548897
            ],
            [
              77.7548388,
              11.9551101
            ],
            [
              77.7548763,
              11.9551862
            ],
            [
              77.7549514,
              11.9552335
            ],
            [
              77.7549621,
              11.9552781
            ],
            [
              77.7549246,
              11.9553988
            ],
            [
              77.7550292,
              11.9553489
            ],
            [
              77.7551177,
              11.9553332
            ],
            [
              77.755335,
              11.9554906
            ],
            [
              77.7554181,
              11.95553
            ],
            [
              77.7554584,
              11.955509
            ],
            [
              77.7554449,
              11.9554355
            ],
            [
              77.7553806,
              11.9553122
            ],
            [
              77.7553859,
              11.9552151
            ],
            [
              77.755343,
              11.9550813
            ],
            [
              77.7553725,
              11.9549448
            ],
            [
              77.7553108,
              11.9548241
            ],
            [
              77.7553135,
              11.9547821
            ],
            [
              77.7553645,
              11.9547087
            ],
            [
              77.7553484,
              11.9545276
            ],
            [
              77.7552277,
              11.9543859
            ],
            [
              77.7551258,
              11.9542206
            ],
            [
              77.7550667,
              11.9539897
            ],
            [
              77.7549782,
              11.9537797
            ],
            [
              77.7549487,
              11.9536354
            ],
            [
              77.7549541,
              11.953499
            ],
            [
              77.754887,
              11.953436
            ],
            [
              77.7548495,
              11.9533074
            ],
            [
              77.7549487,
              11.9532077
            ],
            [
              77.7549514,
              11.9531631
            ],
            [
              77.7549273,
              11.953129
            ],
            [
              77.7548817,
              11.9531185
            ],
            [
              77.7548602,
              11.9530739
            ],
            [
              77.7549353,
              11.953024
            ],
            [
              77.754938,
              11.9529794
            ],
            [
              77.7548522,
              11.9529295
            ],
            [
              77.754769,
              11.9527721
            ],
            [
              77.754643,
              11.9522762
            ],
            [
              77.7546054,
              11.9522001
            ],
            [
              77.7544659,
              11.9521659
            ],
            [
              77.7539241,
              11.952242
            ]
          ]
        ]
      }
    },
    {
      "type": "Feature",
      "id": 963450808,
      "properties": {
        "intermittent": "yes",
        "natural": "water",
        "water": "lake",
        "osm_id": 963450808
      },
      "geometry": {
        "type": "Polygon",
        "coordinates": [
          [
            [
              77.9748368,
              11.6914863
            ],
            [
              77.9746749,
              11.6908492
            ],
            [
              77.9749624,
              11.6907011
            ],
            [
              77.9751141,
              11.6905285
            ],
            [
              77.975189,
              11.6901853
            ],
            [
              77.9752215,
              11.6898685
            ],
            [
              77.9752672,
              11.6896079
            ],
            [
              77.9752205,
              11.6888887
            ],
            [
              77.9752026,
              11.6887356
            ],
            [
              77.9751251,
              11.6882638
            ],
            [
              77.9749994,
              11.6881518
            ],
            [
              77.9748521,
              11.6877895
            ],
            [
              77.9745206,
              11.687629
            ],
            [
              77.9743928,
              11.6874558
            ],
            [
              77.9742341,
              11.6872825
            ],
            [
              77.9738491,
              11.687193
            ],
            [
              77.9735164,
              11.6870703
            ],
            [
              77.9733978,
              11.6869815
            ],
            [
              77.9734487,
              11.6866724
            ],
            [
              77.9738426,
              11.686591
            ],
            [
              77.9744552,
              11.6864553
            ],
            [
              77.9747894,
              11.6862613
            ],
            [
              77.9749592,
              11.6860111
            ],
            [
              77.9752092,
              11.6857972
            ],
            [
              77.9753396,
              11.6855772
            ],
            [
              77.9755748,
              11.6853814
            ],
            [
              77.9758145,
              11.6851745
            ],
            [
              77.975954,
              11.6853702
            ],
            [
              77.9760854,
              11.6856174
            ],
            [
              77.9762431,
              11.6859999
            ],
            [
              77.9766447,
              11.6872162
            ],
            [
              77.9770645,
              11.6883836
            ],
            [
              77.9772253,
              11.6888194
            ],
            [
              77.9772609,
              11.6890189
            ],
            [
              77.9772271,
              11.689125
            ],
            [
              77.9771749,
              11.6891889
            ],
            [
              77.9769338,
              11.689468
            ],
            [
              77.9762014,
              11.6901732
            ],
            [
              77.9748368,
              11.6914863
            ]
          ]
        ]
      }
    },
    {
      "type": "Feature",
      "id": 963450809,
      "properties": {
        "natural": "water",
        "salt": "no",
        "water": "pond",
        "osm_id": 963450809
      },
      "geometry": {
        "type": "Polygon",
        "coordinates": [
          [
            [
              77.9713609,
              11.6953768
            ],
            [
              77.971776,
              11.6954624
            ],
            [
              77.9718634,
              11.6950217
            ],
            [
              77.9714395,
              11.6949318
            ],
            [
              77.9713915,
              11.6951543
            ],
            [
              77.9713609,
              11.6953041
            ],
            [
              77.9713609,
              11.6953768
            ]
          ]
        ]
      }
    },
    {
      "type": "Feature",
      "id": 963450810,
      "properties": {
        "natural": "water",
        "salt": "no",
        "water": "pond",
        "osm_id": 963450810
      },
      "geometry": {
        "type": "Polygon",
        "coordinates": [
          [
            [
              77.9715728,
              11.6959465
            ],
            [
              77.9717813,
              11.6959866
            ],
            [
              77.9718263,
              11.6957464
            ],
            [
              77.9716055,
              11.6957224
            ],
            [
              77.9715851,
              11.6958064
            ],
            [
              77.9715728,
              11.6959465
            ]
          ]
        ]
      }
    },
    {
      "type": "Feature",
      "id": 963450812,
      "properties": {
        "natural": "water",
        "salt": "no",
        "tidal": "no",
        "water": "lake",
        "osm_id": 963450812
      },
      "geometry": {
        "type": "Polygon",
        "coordinates": [
          [
            [
              77.9757361,
              11.7118102
            ],
            [
              77.9749005,
              11.7086546
            ],
            [
              77.9740637,
              11.7084024
            ],
            [
              77.9739349,
              11.7087386
            ],
            [
              77.9736774,
              11.7086546
            ],
            [
              77.9737418,
              11.7083394
            ],
            [
              77.97239,
              11.7066585
            ],
            [
              77.9719823,
              11.7060912
            ],
            [
              77.9720896,
              11.7053768
            ],
            [
              77.9713815,
              11.7055449
            ],
            [
              77.9705446,
              11.705692
            ],
            [
              77.9687422,
              11.7054398
            ],
            [
              77.9681199,
              11.7052717
            ],
            [
              77.9658239,
              11.7043682
            ],
            [
              77.9658025,
              11.7055239
            ],
            [
              77.9657596,
              11.7061332
            ],
            [
              77.9657381,
              11.7069106
            ],
            [
              77.9651373,
              11.707541
            ],
            [
              77.9647511,
              11.7081293
            ],
            [
              77.9641181,
              11.708157
            ],
            [
              77.9641912,
              11.7090463
            ],
            [
              77.9651158,
              11.7096001
            ],
            [
              77.9645086,
              11.7110187
            ],
            [
              77.9662102,
              11.7107347
            ],
            [
              77.9666179,
              11.7098522
            ],
            [
              77.9670256,
              11.7098102
            ],
            [
              77.9673045,
              11.7090958
            ],
            [
              77.9679053,
              11.7089277
            ],
            [
              77.9696005,
              11.7083604
            ],
            [
              77.9702442,
              11.7097892
            ],
            [
              77.9712742,
              11.7099573
            ],
            [
              77.9720037,
              11.7104405
            ],
            [
              77.9739993,
              11.7107557
            ],
            [
              77.9742783,
              11.7121424
            ],
            [
              77.9743212,
              11.7123315
            ],
            [
              77.9757361,
              11.7118102
            ]
          ]
        ]
      }
    },
    {
      "type": "Feature",
      "id": 1109088107,
      "properties": {
        "natural": "water",
        "water": "river",
        "osm_id": 1109088107
      },
      "geometry": {
        "type": "Polygon",
        "coordinates": [
          [
            [
              77.8162714,
              11.8016793
            ],
            [
              77.8167337,
              11.8017594
            ],
            [
              77.817183,
              11.8018343
            ],
            [
              77.8179773,
              11.8016039
            ],
            [
              77.8183392,
              11.8014023
            ],
            [
              77.8184775,
              11.8011776
            ],
            [
              77.8191482,
              11.8002907
            ],
            [
              77.8193188,
              11.7999682
            ],
            [
              77.8193365,
              11.7996917
            ],
            [
              77.8192541,
              11.7991331
            ],
            [
              77.8190305,
              11.7981424
            ],
            [
              77.8189953,
              11.7975722
            ],
            [
              77.8189776,
              11.7965528
            ],
            [
              77.8189011,
              11.7961381
            ],
            [
              77.8193424,
              11.7951878
            ],
            [
              77.8197366,
              11.7941699
            ],
            [
              77.8200249,
              11.7928525
            ],
            [
              77.8202443,
              11.7914282
            ],
            [
              77.8202291,
              11.7906263
            ],
            [
              77.8200374,
              11.7898244
            ],
            [
              77.8199063,
              11.7881937
            ],
            [
              77.8195751,
              11.7870123
            ],
            [
              77.8189766,
              11.7855213
            ],
            [
              77.8183493,
              11.7843053
            ],
            [
              77.8178716,
              11.7836922
            ],
            [
              77.8173939,
              11.7831999
            ],
            [
              77.8168856,
              11.782492
            ],
            [
              77.8168458,
              11.7818479
            ],
            [
              77.8162345,
              11.7811324
            ],
            [
              77.8156291,
              11.7810736
            ],
            [
              77.8152067,
              11.7804836
            ],
            [
              77.8151386,
              11.7800524
            ],
            [
              77.8143579,
              11.7796731
            ],
            [
              77.8137302,
              11.7792189
            ],
            [
              77.8133017,
              11.7789463
            ],
            [
              77.8128144,
              11.77857
            ],
            [
              77.8122708,
              11.777543
            ],
            [
              77.8118099,
              11.7767222
            ],
            [
              77.8112453,
              11.7759358
            ],
            [
              77.8105722,
              11.7751721
            ],
            [
              77.8098543,
              11.774429
            ],
            [
              77.808904,
              11.7735459
            ],
            [
              77.8080379,
              11.7725091
            ],
            [
              77.8064818,
              11.7701753
            ],
            [
              77.8060778,
              11.7689868
            ],
            [
              77.805768,
              11.7686335
            ],
            [
              77.805275,
              11.7674123
            ],
            [
              77.8048162,
              11.7662049
            ],
            [
              77.8046113,
              11.7657793
            ],
            [
              77.8042535,
              11.765515
            ],
            [
              77.8034672,
              11.7649386
            ],
            [
              77.8026047,
              11.7644828
            ],
            [
              77.8019043,
              11.7643543
            ],
            [
              77.8012569,
              11.7647386
            ],
            [
              77.8004602,
              11.7655632
            ],
            [
              77.7957567,
              11.7652357
            ],
            [
              77.7963364,
              11.7672292
            ],
            [
              77.8010705,
              11.7667968
            ],
            [
              77.8030845,
              11.7670521
            ],
            [
              77.8036213,
              11.7673738
            ],
            [
              77.8039874,
              11.7677703
            ],
            [
              77.8050942,
              11.7700498
            ],
            [
              77.8056004,
              11.7710315
            ],
            [
              77.8065514,
              11.7727992
            ],
            [
              77.8069914,
              11.7734639
            ],
            [
              77.8074701,
              11.7740339
            ],
            [
              77.8086108,
              11.774971
            ],
            [
              77.8095225,
              11.7754381
            ],
            [
              77.8105543,
              11.7762867
            ],
            [
              77.8110223,
              11.7770119
            ],
            [
              77.8116055,
              11.7778632
            ],
            [
              77.8126622,
              11.7792381
            ],
            [
              77.814247,
              11.7809251
            ],
            [
              77.815664,
              11.7827222
            ],
            [
              77.8168073,
              11.7845802
            ],
            [
              77.817412,
              11.7859678
            ],
            [
              77.8179961,
              11.7877944
            ],
            [
              77.8182447,
              11.7899547
            ],
            [
              77.818166,
              11.7911928
            ],
            [
              77.8183585,
              11.7926149
            ],
            [
              77.818454,
              11.7931311
            ],
            [
              77.818306,
              11.7936995
            ],
            [
              77.817884,
              11.7944098
            ],
            [
              77.8176022,
              11.7949722
            ],
            [
              77.8174398,
              11.7953262
            ],
            [
              77.8168219,
              11.7961456
            ],
            [
              77.8161175,
              11.7967889
            ],
            [
              77.8154566,
              11.7973153
            ],
            [
              77.8150296,
              11.7975683
            ],
            [
              77.8146703,
              11.7980061
            ],
            [
              77.8144423,
              11.7982291
            ],
            [
              77.8143176,
              11.7984016
            ],
            [
              77.8142072,
              11.7985846
            ],
            [
              77.8141196,
              11.798644
            ],
            [
              77.8140321,
              11.7989086
            ],
            [
              77.813895,
              11.7993485
            ],
            [
              77.8138566,
              11.7995232
            ],
            [
              77.8147229,
              11.80074
            ],
            [
              77.815552,
              11.8016254
            ],
            [
              77.8162714,
              11.8016793
            ]
          ]
        ]
      }
    },
    {
      "type": "Feature",
      "id": 1125824763,
      "properties": {
        "natural": "water",
        "salt": "no",
        "water": "pond",
        "osm_id": 1125824763
      },
      "geometry": {
        "type": "Polygon",
        "coordinates": [
          [
            [
              77.9678831,
              11.6926669
            ],
            [
              77.9683066,
              11.6926001
            ],
            [
              77.9682334,
              11.6921556
            ],
            [
              77.96781,
              11.6922224
            ],
            [
              77.9678831,
              11.6926669
            ]
          ]
        ]
      }
    },
    {
      "type": "Feature",
      "id": 1180693637,
      "properties": {
        "natural": "water",
        "osm_id": 1180693637
      },
      "geometry": {
        "type": "Polygon",
        "coordinates": [
          [
            [
              78.1030968,
              11.6562214
            ],
            [
              78.1024718,
              11.6555148
            ],
            [
              78.1021339,
              11.655436
            ],
            [
              78.1019086,
              11.6548292
            ],
            [
              78.1016538,
              11.6548397
            ],
            [
              78.1014767,
              11.6549737
            ],
            [
              78.1010234,
              11.6549526
            ],
            [
              78.1008249,
              11.654443
            ],
            [
              78.1004387,
              11.6545008
            ],
            [
              78.1003582,
              11.6548003
            ],
            [
              78.1000927,
              11.6550577
            ],
            [
              78.1001624,
              11.6552206
            ],
            [
              78.1004816,
              11.6550052
            ],
            [
              78.1008893,
              11.6551208
            ],
            [
              78.1010583,
              11.6556435
            ],
            [
              78.1015331,
              11.6563502
            ],
            [
              78.1030968,
              11.6562214
            ]
          ]
        ]
      }
    },
    {
      "type": "Feature",
      "id": 1227610290,
      "properties": {
        "intermittent": "yes",
        "natural": "water",
        "water": "lake",
        "osm_id": 1227610290
      },
      "geometry": {
        "type": "Polygon",
        "coordinates": [
          [
            [
              77.9772516,
              11.6882257
            ],
            [
              77.9773374,
              11.6884674
            ],
            [
              77.9774045,
              11.6884359
            ],
            [
              77.9774635,
              11.6885672
            ],
            [
              77.9775386,
              11.6888456
            ],
            [
              77.9783513,
              11.6881207
            ],
            [
              77.9782977,
              11.6880629
            ],
            [
              77.9779704,
              11.6881837
            ],
            [
              77.9779034,
              11.6880156
            ],
            [
              77.9772516,
              11.6882257
            ]
          ]
        ]
      }
    },
    {
      "type": "Feature",
      "id": 1227610291,
      "properties": {
        "intermittent": "yes",
        "natural": "water",
        "water": "lake",
        "osm_id": 1227610291
      },
      "geometry": {
        "type": "Polygon",
        "coordinates": [
          [
            [
              77.9781394,
              11.6885646
            ],
            [
              77.9783406,
              11.6889533
            ],
            [
              77.9788663,
              11.688751
            ],
            [
              77.9789763,
              11.6888325
            ],
            [
              77.9790862,
              11.6891319
            ],
            [
              77.9790648,
              11.689258
            ],
            [
              77.977949,
              11.6899488
            ],
            [
              77.9778041,
              11.6895364
            ],
            [
              77.9777505,
              11.6893604
            ],
            [
              77.9777451,
              11.6890689
            ],
            [
              77.9779061,
              11.6888561
            ],
            [
              77.9781394,
              11.6885646
            ]
          ]
        ]
      }
    },
    {
      "type": "Feature",
      "id": 1227610292,
      "properties": {
        "intermittent": "yes",
        "natural": "water",
        "water": "lake",
        "osm_id": 1227610292
      },
      "geometry": {
        "type": "Polygon",
        "coordinates": [
          [
            [
              77.9775171,
              11.6895469
            ],
            [
              77.9775413,
              11.6896099
            ],
            [
              77.9775037,
              11.6896546
            ],
            [
              77.9778034,
              11.6903877
            ],
            [
              77.9774474,
              11.6909153
            ],
            [
              77.9772945,
              11.6911544
            ],
            [
              77.9772757,
              11.6912568
            ],
            [
              77.9772543,
              11.6914643
            ],
            [
              77.9772436,
              11.6916324
            ],
            [
              77.9772194,
              11.691727
            ],
            [
              77.9771845,
              11.6918557
            ],
            [
              77.9770451,
              11.692071
            ],
            [
              77.9768949,
              11.6922339
            ],
            [
              77.9768305,
              11.6923363
            ],
            [
              77.976801,
              11.6924545
            ],
            [
              77.9768225,
              11.6925727
            ],
            [
              77.9769458,
              11.6928354
            ],
            [
              77.9770907,
              11.6930691
            ],
            [
              77.9772972,
              11.6934684
            ],
            [
              77.9772892,
              11.6935235
            ],
            [
              77.9772462,
              11.6935734
            ],
            [
              77.9767232,
              11.6937152
            ],
            [
              77.97675,
              11.693471
            ],
            [
              77.9766642,
              11.693014
            ],
            [
              77.9764282,
              11.692226
            ],
            [
              77.9763289,
              11.6918872
            ],
            [
              77.9758113,
              11.6909311
            ],
            [
              77.9765542,
              11.6902246
            ],
            [
              77.9770451,
              11.6897728
            ],
            [
              77.9772865,
              11.6895784
            ],
            [
              77.9774045,
              11.6895338
            ],
            [
              77.9775171,
              11.6895469
            ]
          ]
        ]
      }
    },
    {
      "type": "Feature",
      "id": 1227610293,
      "properties": {
        "intermittent": "yes",
        "natural": "water",
        "water": "lake",
        "osm_id": 1227610293
      },
      "geometry": {
        "type": "Polygon",
        "coordinates": [
          [
            [
              77.9769922,
              11.6927745
            ],
            [
              77.9772364,
              11.6927329
            ],
            [
              77.9776929,
              11.6924019
            ],
            [
              77.9777018,
              11.6921957
            ],
            [
              77.9777796,
              11.6920362
            ],
            [
              77.9778186,
              11.6919427
            ],
            [
              77.9779531,
              11.691908
            ],
            [
              77.9779637,
              11.6914887
            ],
            [
              77.9781778,
              11.6913899
            ],
            [
              77.9780663,
              11.6911577
            ],
            [
              77.9778557,
              11.6904195
            ],
            [
              77.9776611,
              11.6907297
            ],
            [
              77.9775124,
              11.6909393
            ],
            [
              77.9773921,
              11.6911317
            ],
            [
              77.9773372,
              11.6912634
            ],
            [
              77.9773195,
              11.6914055
            ],
            [
              77.9773018,
              11.6915874
            ],
            [
              77.9772558,
              11.691785
            ],
            [
              77.9771709,
              11.6919808
            ],
            [
              77.9770364,
              11.692161
            ],
            [
              77.9769108,
              11.6922962
            ],
            [
              77.9768541,
              11.6924296
            ],
            [
              77.9768824,
              11.6926029
            ],
            [
              77.9769692,
              11.6927866
            ],
            [
              77.9769922,
              11.6927745
            ]
          ]
        ]
      }
    },
    {
      "type": "Feature",
      "id": 1299515543,
      "properties": {
        "natural": "water",
        "osm_id": 1299515543
      },
      "geometry": {
        "type": "Polygon",
        "coordinates": [
          [
            [
              78.0248788,
              11.6646623
            ],
            [
              78.0251597,
              11.6646581
            ],
            [
              78.0253088,
              11.6648041
            ],
            [
              78.0254622,
              11.6648887
            ],
            [
              78.0256307,
              11.6663826
            ],
            [
              78.0255227,
              11.6665286
            ],
            [
              78.0253131,
              11.6666915
            ],
            [
              78.0251597,
              11.6667719
            ],
            [
              78.0250301,
              11.6667698
            ],
            [
              78.0249264,
              11.6666936
            ],
            [
              78.0248896,
              11.6666047
            ],
            [
              78.0247103,
              11.6649035
            ],
            [
              78.0247211,
              11.6648168
            ],
            [
              78.0247621,
              11.664711
            ],
            [
              78.0248788,
              11.6646623
            ]
          ]
        ]
      }
    },
    {
      "type": "Feature",
      "id": 1299515544,
      "properties": {
        "natural": "water",
        "osm_id": 1299515544
      },
      "geometry": {
        "type": "Polygon",
        "coordinates": [
          [
            [
              78.0255724,
              11.6649585
            ],
            [
              78.0257063,
              11.6663339
            ],
            [
              78.0257301,
              11.6663847
            ],
            [
              78.02581,
              11.6664524
            ],
            [
              78.0258943,
              11.6664863
            ],
            [
              78.026523,
              11.6663043
            ],
            [
              78.0268298,
              11.6661816
            ],
            [
              78.027007,
              11.6660292
            ],
            [
              78.0271388,
              11.6658261
            ],
            [
              78.0271885,
              11.6656166
            ],
            [
              78.0271561,
              11.6653902
            ],
            [
              78.027115,
              11.6652653
            ],
            [
              78.0270135,
              11.6650918
            ],
            [
              78.0269011,
              11.6649818
            ],
            [
              78.0266872,
              11.664876
            ],
            [
              78.0263826,
              11.6648231
            ],
            [
              78.0258403,
              11.6647617
            ],
            [
              78.0257582,
              11.6647617
            ],
            [
              78.025661,
              11.6647998
            ],
            [
              78.0256069,
              11.6648527
            ],
            [
              78.0255724,
              11.6649585
            ]
          ]
        ]
      }
    },
    {
      "type": "Feature",
      "id": 1383979691,
      "properties": {
        "natural": "water",
        "osm_id": 1383979691
      },
      "geometry": {
        "type": "Polygon",
        "coordinates": [
          [
            [
              78.0543307,
              11.8226523
            ],
            [
              78.0543779,
              11.8228848
            ],
            [
              78.0544347,
              11.8229708
            ],
            [
              78.0545199,
              11.8230316
            ],
            [
              78.0545929,
              11.8230753
            ],
            [
              78.0547078,
              11.8230872
            ],
            [
              78.0548186,
              11.8230779
            ],
            [
              78.0548727,
              11.8230422
            ],
            [
              78.0549916,
              11.8229496
            ],
            [
              78.05507,
              11.8228993
            ],
            [
              78.0551187,
              11.8228146
            ],
            [
              78.0551552,
              11.8227154
            ],
            [
              78.0551592,
              11.8226334
            ],
            [
              78.0551822,
              11.8225791
            ],
            [
              78.0552228,
              11.8225262
            ],
            [
              78.0552566,
              11.8224124
            ],
            [
              78.0552363,
              11.822337
            ],
            [
              78.0552376,
              11.8222312
            ],
            [
              78.0552552,
              11.8221425
            ],
            [
              78.0553498,
              11.8220076
            ],
            [
              78.0554607,
              11.8219123
            ],
            [
              78.0555485,
              11.8216808
            ],
            [
              78.0556749,
              11.8215785
            ],
            [
              78.0558534,
              11.8216024
            ],
            [
              78.056021,
              11.8217003
            ],
            [
              78.0560129,
              11.8217717
            ],
            [
              78.0559804,
              11.8219146
            ],
            [
              78.0561102,
              11.8219808
            ],
            [
              78.0563805,
              11.821986
            ],
            [
              78.056586,
              11.8219411
            ],
            [
              78.0567185,
              11.8218352
            ],
            [
              78.0568347,
              11.8218617
            ],
            [
              78.0568861,
              11.8219305
            ],
            [
              78.0569834,
              11.8221872
            ],
            [
              78.0571646,
              11.8224147
            ],
            [
              78.0573024,
              11.8224729
            ],
            [
              78.0574803,
              11.8227234
            ],
            [
              78.0575725,
              11.8227885
            ],
            [
              78.0576476,
              11.8227822
            ],
            [
              78.0577656,
              11.8226058
            ],
            [
              78.0578729,
              11.8224861
            ],
            [
              78.0580124,
              11.8223706
            ],
            [
              78.0581626,
              11.8221857
            ],
            [
              78.0582527,
              11.8220975
            ],
            [
              78.0583192,
              11.8219421
            ],
            [
              78.0583922,
              11.8218182
            ],
            [
              78.0584523,
              11.8217132
            ],
            [
              78.0584137,
              11.8216271
            ],
            [
              78.0583514,
              11.821499
            ],
            [
              78.0583901,
              11.8214234
            ],
            [
              78.0584737,
              11.8214024
            ],
            [
              78.0586712,
              11.8214024
            ],
            [
              78.0587312,
              11.8213961
            ],
            [
              78.0587827,
              11.821354
            ],
            [
              78.0587484,
              11.82127
            ],
            [
              78.0587269,
              11.8211902
            ],
            [
              78.058787,
              11.8211377
            ],
            [
              78.0589866,
              11.8210873
            ],
            [
              78.0590402,
              11.8210306
            ],
            [
              78.0590381,
              11.8209739
            ],
            [
              78.0590274,
              11.8206631
            ],
            [
              78.059066,
              11.8203501
            ],
            [
              78.0590767,
              11.8195961
            ],
            [
              78.0590338,
              11.8193273
            ],
            [
              78.0589823,
              11.8188883
            ],
            [
              78.0589737,
              11.8186048
            ],
            [
              78.059008,
              11.8182414
            ],
            [
              78.0590531,
              11.8180167
            ],
            [
              78.0590467,
              11.8178298
            ],
            [
              78.0589716,
              11.8175421
            ],
            [
              78.0588814,
              11.8172984
            ],
            [
              78.0588686,
              11.8169855
            ],
            [
              78.0588471,
              11.816788
            ],
            [
              78.0587656,
              11.8164688
            ],
            [
              78.0587892,
              11.8162819
            ],
            [
              78.058845,
              11.8161328
            ],
            [
              78.0588471,
              11.8159983
            ],
            [
              78.0588214,
              11.8156539
            ],
            [
              78.0587763,
              11.8154502
            ],
            [
              78.0587227,
              11.8152926
            ],
            [
              78.0585789,
              11.8149986
            ],
            [
              78.0584501,
              11.8147802
            ],
            [
              78.0583128,
              11.814526
            ],
            [
              78.0581497,
              11.8143286
            ],
            [
              78.0579523,
              11.8139841
            ],
            [
              78.0578064,
              11.8137447
            ],
            [
              78.0575425,
              11.8133919
            ],
            [
              78.0573858,
              11.8132784
            ],
            [
              78.0572292,
              11.8132406
            ],
            [
              78.0570747,
              11.8132238
            ],
            [
              78.0569138,
              11.8132385
            ],
            [
              78.0567915,
              11.8132931
            ],
            [
              78.0566649,
              11.8133729
            ],
            [
              78.0562958,
              11.8136418
            ],
            [
              78.0560877,
              11.8138686
            ],
            [
              78.0557293,
              11.8144189
            ],
            [
              78.0554954,
              11.8147129
            ],
            [
              78.055092,
              11.8149923
            ],
            [
              78.0548839,
              11.8152086
            ],
            [
              78.0547573,
              11.8154018
            ],
            [
              78.0543818,
              11.8157232
            ],
            [
              78.0539912,
              11.8159521
            ],
            [
              78.0535986,
              11.8163092
            ],
            [
              78.0532617,
              11.8165528
            ],
            [
              78.0529956,
              11.8166305
            ],
            [
              78.0527188,
              11.8166998
            ],
            [
              78.0525257,
              11.8167271
            ],
            [
              78.0524377,
              11.8167061
            ],
            [
              78.0524077,
              11.81662
            ],
            [
              78.0523798,
              11.8164625
            ],
            [
              78.0521609,
              11.8160802
            ],
            [
              78.0520965,
              11.8161349
            ],
            [
              78.0520064,
              11.8162987
            ],
            [
              78.0519463,
              11.8165654
            ],
            [
              78.0520193,
              11.8169582
            ],
            [
              78.0521051,
              11.8174475
            ],
            [
              78.0520429,
              11.8175442
            ],
            [
              78.0519785,
              11.8176429
            ],
            [
              78.0519871,
              11.8177752
            ],
            [
              78.0520321,
              11.8179474
            ],
            [
              78.0521266,
              11.8181637
            ],
            [
              78.0521056,
              11.8183531
            ],
            [
              78.0517615,
              11.8185398
            ],
            [
              78.0516559,
              11.8188465
            ],
            [
              78.0516049,
              11.8192766
            ],
            [
              78.0515844,
              11.8194466
            ],
            [
              78.0515231,
              11.81958
            ],
            [
              78.05138,
              11.8196733
            ],
            [
              78.0512949,
              11.8201968
            ],
            [
              78.0512131,
              11.8204235
            ],
            [
              78.0512336,
              11.8205435
            ],
            [
              78.0513017,
              11.8206369
            ],
            [
              78.0514311,
              11.8206402
            ],
            [
              78.0518399,
              11.8206069
            ],
            [
              78.0521226,
              11.8205202
            ],
            [
              78.0522657,
              11.8205235
            ],
            [
              78.0527562,
              11.8205768
            ],
            [
              78.0532092,
              11.8206402
            ],
            [
              78.0534033,
              11.8205702
            ],
            [
              78.0534408,
              11.8206469
            ],
            [
              78.0535294,
              11.8208236
            ],
            [
              78.0535157,
              11.8209836
            ],
            [
              78.0534442,
              11.8210903
            ],
            [
              78.0532977,
              11.8213903
            ],
            [
              78.053325,
              11.8215637
            ],
            [
              78.0535498,
              11.8218104
            ],
            [
              78.0538461,
              11.8223438
            ],
            [
              78.0541697,
              11.8225405
            ],
            [
              78.0543307,
              11.8226523
            ]
          ]
        ]
      }
    }
  ]
}