{
  "type": "FeatureCollection",
  "name": "mettur_flood_inundation_extent",
  "crs": {
    "type": "name",
    "properties": {
      "name": "urn:ogc:def:crs:OGC:1.3:CRS84"
    }
  },
  "features": [
    {
      "type": "Feature",
      "properties": {
        "dam_id": "mettur",
        "scenario_id": "mettur_baseline_breach",
        "solver": "2D Manning kinematic/diffusion-wave approximation",
        "sph_status": "NOT YET COUPLED",
        "delft3d_status": "EXPORTER ONLY",
        "inundated_area_sqkm": 2.14,
        "peak_depth_m": 77.36,
        "peak_velocity_ms": 59.89,
        "inundation_threshold_m": 0.15
      },
      "geometry": {
        "type": "Polygon",
        "coordinates": [
          [
            [
              77.80125000000001,
              11.804861111111112
            ],
            [
              77.80125000000001,
              11.802916666666667
            ],
            [
              77.80180555555556,
              11.80236111111111
            ],
            [
              77.8026388888889,
              11.80236111111111
            ],
            [
              77.80347222222223,
              11.801527777777778
            ],
            [
              77.80430555555557,
              11.799305555555556
            ],
            [
              77.80486111111112,
              11.799305555555556
            ],
            [
              77.80486111111112,
              11.79875
            ],
            [
              77.80652777777779,
              11.797083333333333
            ],
            [
              77.80708333333334,
              11.797083333333333
            ],
            [
              77.80736111111112,
              11.796527777777778
            ],
            [
              77.80986111111112,
              11.796527777777778
            ],
            [
              77.80986111111112,
              11.796805555555556
            ],
            [
              77.81375000000001,
              11.797083333333333
            ],
            [
              77.81375000000001,
              11.797361111111112
            ],
            [
              77.81597222222223,
              11.797361111111112
            ],
            [
              77.81625000000001,
              11.795694444444445
            ],
            [
              77.81708333333334,
              11.794861111111112
            ],
            [
              77.81736111111113,
              11.793750000000001
            ],
            [
              77.81791666666668,
              11.793472222222222
            ],
            [
              77.81791666666668,
              11.79263888888889
            ],
            [
              77.81819444444446,
              11.79263888888889
            ],
            [
              77.81819444444446,
              11.791805555555555
            ],
            [
              77.81847222222223,
              11.791805555555555
            ],
            [
              77.81847222222223,
              11.79125
            ],
            [
              77.81819444444446,
              11.79125
            ],
            [
              77.81819444444446,
              11.789305555555556
            ],
            [
              77.8176388888889,
              11.789027777777779
            ],
            [
              77.8176388888889,
              11.787916666666668
            ],
            [
              77.81708333333334,
              11.787361111111112
            ],
            [
              77.81708333333334,
              11.786527777777778
            ],
            [
              77.81680555555556,
              11.786527777777778
            ],
            [
              77.81625000000001,
              11.78486111111111
            ],
            [
              77.81541666666668,
              11.784305555555555
            ],
            [
              77.8151388888889,
              11.783194444444446
            ],
            [
              77.81458333333335,
              11.782916666666667
            ],
            [
              77.81458333333335,
              11.782361111111111
            ],
            [
              77.8140277777778,
              11.781805555555556
            ],
            [
              77.81347222222223,
              11.781805555555556
            ],
            [
              77.81347222222223,
              11.78125
            ],
            [
              77.81236111111112,
              11.780972222222223
            ],
            [
              77.81125000000002,
              11.779861111111112
            ],
            [
              77.81125000000002,
              11.779305555555556
            ],
            [
              77.81041666666668,
              11.77875
            ],
            [
              77.81041666666668,
              11.778194444444445
            ],
            [
              77.80986111111112,
              11.777916666666668
            ],
            [
              77.80986111111112,
              11.777361111111112
            ],
            [
              77.80597222222224,
              11.77375
            ],
            [
              77.80597222222224,
              11.773194444444444
            ],
            [
              77.8051388888889,
              11.772638888888888
            ],
            [
              77.8051388888889,
              11.772083333333335
            ],
            [
              77.80458333333334,
              11.771805555555556
            ],
            [
              77.80430555555557,
              11.770694444444445
            ],
            [
              77.80402777777779,
              11.770694444444445
            ],
            [
              77.80375000000001,
              11.769583333333333
            ],
            [
              77.80347222222223,
              11.769583333333333
            ],
            [
              77.80319444444446,
              11.76763888888889
            ],
            [
              77.80291666666668,
              11.76736111111111
            ],
            [
              77.80180555555556,
              11.76736111111111
            ],
            [
              77.80180555555556,
              11.76763888888889
            ],
            [
              77.79819444444445,
              11.76763888888889
            ],
            [
              77.79819444444445,
              11.76736111111111
            ],
            [
              77.79736111111112,
              11.76736111111111
            ],
            [
              77.79736111111112,
              11.764861111111111
            ],
            [
              77.80458333333334,
              11.764583333333334
            ],
            [
              77.80458333333334,
              11.764861111111111
            ],
            [
              77.80541666666667,
              11.764861111111111
            ],
            [
              77.80569444444446,
              11.766250000000001
            ],
            [
              77.80597222222224,
              11.766250000000001
            ],
            [
              77.80597222222224,
              11.76736111111111
            ],
            [
              77.80652777777779,
              11.76763888888889
            ],
            [
              77.80652777777779,
              11.768472222222222
            ],
            [
              77.80680555555557,
              11.768472222222222
            ],
            [
              77.80708333333334,
              11.769583333333333
            ],
            [
              77.8076388888889,
              11.769861111111112
            ],
            [
              77.8076388888889,
              11.770416666666668
            ],
            [
              77.80819444444445,
              11.770416666666668
            ],
            [
              77.80819444444445,
              11.77125
            ],
            [
              77.80902777777779,
              11.771527777777779
            ],
            [
              77.80902777777779,
              11.772083333333335
            ],
            [
              77.80958333333335,
              11.772083333333335
            ],
            [
              77.80958333333335,
              11.772638888888888
            ],
            [
              77.8101388888889,
              11.772638888888888
            ],
            [
              77.8101388888889,
              11.773194444444444
            ],
            [
              77.81236111111112,
              11.77513888888889
            ],
            [
              77.81236111111112,
              11.775694444444445
            ],
            [
              77.81291666666668,
              11.775972222222222
            ],
            [
              77.81291666666668,
              11.776527777777778
            ],
            [
              77.81375000000001,
              11.777083333333334
            ],
            [
              77.81375000000001,
              11.77763888888889
            ],
            [
              77.81430555555556,
              11.778194444444445
            ],
            [
              77.81486111111113,
              11.778194444444445
            ],
            [
              77.8151388888889,
              11.779305555555556
            ],
            [
              77.81625000000001,
              11.779305555555556
            ],
            [
              77.81736111111113,
              11.780416666666667
            ],
            [
              77.8176388888889,
              11.781527777777779
            ],
            [
              77.81819444444446,
              11.781805555555556
            ],
            [
              77.81819444444446,
              11.782361111111111
            ],
            [
              77.81902777777779,
              11.782916666666667
            ],
            [
              77.81902777777779,
              11.783750000000001
            ],
            [
              77.81958333333334,
              11.784305555555555
            ],
            [
              77.81958333333334,
              11.78513888888889
            ],
            [
              77.8201388888889,
              11.785694444444445
            ],
            [
              77.8201388888889,
              11.786805555555556
            ],
            [
              77.82041666666667,
              11.786805555555556
            ],
            [
              77.82041666666667,
              11.789305555555556
            ],
            [
              77.8201388888889,
              11.789305555555556
            ],
            [
              77.82041666666667,
              11.789583333333333
            ],
            [
              77.82041666666667,
              11.793472222222222
            ],
            [
              77.8201388888889,
              11.793472222222222
            ],
            [
              77.8201388888889,
              11.794305555555557
            ],
            [
              77.81986111111112,
              11.794305555555557
            ],
            [
              77.81986111111112,
              11.79513888888889
            ],
            [
              77.81902777777779,
              11.795972222222222
            ],
            [
              77.81875000000001,
              11.797083333333333
            ],
            [
              77.81819444444446,
              11.797361111111112
            ],
            [
              77.81819444444446,
              11.798472222222223
            ],
            [
              77.81791666666668,
              11.798472222222223
            ],
            [
              77.81791666666668,
              11.799027777777779
            ],
            [
              77.81736111111113,
              11.799583333333334
            ],
            [
              77.8140277777778,
              11.799583333333334
            ],
            [
              77.8140277777778,
              11.799305555555556
            ],
            [
              77.81291666666668,
              11.799305555555556
            ],
            [
              77.81291666666668,
              11.799027777777779
            ],
            [
              77.81208333333335,
              11.799305555555556
            ],
            [
              77.81208333333335,
              11.799027777777779
            ],
            [
              77.80875000000002,
              11.79875
            ],
            [
              77.80847222222224,
              11.799305555555556
            ],
            [
              77.80791666666667,
              11.799305555555556
            ],
            [
              77.80680555555557,
              11.800416666666667
            ],
            [
              77.80680555555557,
              11.800972222222223
            ],
            [
              77.80597222222224,
              11.801527777777778
            ],
            [
              77.80541666666667,
              11.803194444444445
            ],
            [
              77.80430555555557,
              11.804305555555556
            ],
            [
              77.80347222222223,
              11.804305555555556
            ],
            [
              77.80319444444446,
              11.804861111111112
            ],
            [
              77.80125000000001,
              11.804861111111112
            ]
          ]
        ]
      }
    }
  ]
}