{"type": "FeatureCollection", "name": "sentinel1_sar_water_mask", "features": [{"type": "Feature", "properties": {"sensor": "Sentinel-1 C-Band SAR (IW, VV+VH)", "orbit_pass": "DESCENDING", "acquisition_date": "2023-08-16", "threshold_db": -3.2, "source": "Copernicus Open Access Hub"}, "geometry": {"type": "MultiPolygon", "coordinates": [[[[77.74653074122949, 11.937212304960072], [77.7471462176779, 11.936284638754417], [77.74729502467468, 11.936061735457818], [77.74744096352244, 11.935882110377765], [77.74891202493788, 11.93475563026109], [77.74950299111592, 11.934255944453062], [77.75004291008615, 11.933701494783664], [77.7512746279582, 11.932307667729106], [77.75127991139561, 11.932307287213076], [77.75208600697479, 11.932165383972956], [77.7532071069748, 11.931908283972955], [77.75412085250115, 11.931640603895907], [77.75499632387773, 11.931266259964048], [77.75600102387773, 11.930763959964048], [77.75661254784427, 11.930424022932495], [77.757192031678, 11.930031955038466], [77.75773504306329, 11.929590755103593], [77.7595130430633, 11.928012155103593], [77.75996142490612, 11.927581774157977], [77.76037504314256, 11.92711788409577], [77.76078664314255, 11.92661848409577], [77.76128863391642, 11.925939320732722], [77.76171622931457, 11.92521102149049], [77.76295060351869, 11.922828870492445], [77.76710132512535, 11.91925865007993], [77.76745712907804, 11.91906786168505], [77.7678107516475, 11.918866499208308], [77.77022209003506, 11.917410981655388], [77.77075760477543, 11.917619640584647], [77.77127848055314, 11.917792928359326], [77.77197299947898, 11.918284090940832], [77.77251162316425, 11.918633453167034], [77.7730765263662, 11.918938500395946], [77.7748875263662, 11.919824500395947], [77.77572942163475, 11.920178354194391], [77.77660615958405, 11.920433952946613], [77.77735055958405, 11.920605552946613], [77.77800648500136, 11.9207281978101], [77.77867034972476, 11.920795751822764], [77.77957224972477, 11.920849651822763], [77.78044513627923, 11.920854111006886], [77.78131331259326, 11.920763442881023], [77.78216644260974, 11.920578726892881], [77.78331914260973, 11.920262426892881], [77.78414254945152, 11.919987650073951], [77.78493133822103, 11.919625278159428], [77.78590763822103, 11.919110878159428], [77.78656290289229, 11.91872476269328], [77.78717853962148, 11.91827816627562], [77.78774898404392, 11.917775125418924], [77.78838198404391, 11.917161025418924], [77.78883673293078, 11.91668185290412], [77.78925039699237, 11.916166794758668], [77.79002829699238, 11.915111794758669], [77.79039946609436, 11.914554840554326], [77.7906384070795, 11.91459579819767], [77.7913865593782, 11.914688008748426], [77.7999911593782, 11.915338908748424], [77.80059388143351, 11.915361699967727], [77.80119660757336, 11.91533901702276], [77.80342280757337, 11.915171017022761], [77.80436214719856, 11.915043811388605], [77.80754324719855, 11.914419211388605], [77.8080392627641, 11.914305323430556], [77.81015219498151, 11.913748874995289], [77.81972468255681, 11.911748282449718], [77.82612363554333, 11.910477510923696], [77.83038716296846, 11.90976284656711], [77.84040438121201, 11.915135884534502], [77.84117804789598, 11.915499057890017], [77.84198604313676, 11.91577762334898], [77.84281914499397, 11.915968401543596], [77.85420815688468, 11.917943034531802], [77.8642092885016, 11.921989651094473], [77.86486356710272, 11.922221884224712], [77.86553551698961, 11.922396515448067], [77.8662200774062, 11.922512229538448], [77.86840877740619, 11.922785129538449], [77.86921408698625, 11.922844471901184], [77.87002127642246, 11.92282233031596], [77.87082212190447, 11.922718930365749], [77.87160846425536, 11.92253532551031], [77.8723722920591, 11.922273386353304], [77.87310582328246, 11.921935781584217], [77.87435032328246, 11.921284981584217], [77.8750389341282, 11.920879858820602], [77.87546275106615, 11.920569745670676], [77.875909648958, 11.9206953849351], [77.87670952321143, 11.920834771009075], [77.87751940615024, 11.920892363754556], [77.87833095563472, 11.920867569941697], [77.87987595563473, 11.920741669941696], [77.8807745880547, 11.920616825656568], [77.8834352880547, 11.92009192565657], [77.88420234164793, 11.919900792962219], [77.88494678701849, 11.919634890702001], [77.8860625870185, 11.919172990702], [77.8862883594246, 11.9190662097746], [77.88662719085184, 11.919445213226378], [77.88727719085185, 11.92010271322638], [77.88789316527414, 11.920664051899049], [77.88856419424897, 11.921158264109813], [77.88928299579516, 11.921579986686345], [77.8900417695053, 11.921924643111092], [77.89083228119566, 11.922188493185491], [77.89118220108276, 11.922265979923418], [77.89120424293559, 11.922316956149139], [77.89156042503514, 11.923038690421663], [77.89198732269107, 11.923720983935873], [77.89248061512514, 11.924356930964061], [77.89303530955468, 11.92494009486727], [77.89364579172629, 11.925464573242731], [77.89413069172629, 11.925840473242731], [77.89480165931022, 11.92630774635989], [77.89551681792322, 11.926704091945131], [77.89626869704453, 11.927025369786936], [77.89704944257228, 11.927268223828689], [77.89785089886718, 11.927430117225933], [77.89871969886718, 11.927559817225934], [77.89968537378878, 11.927644596251282], [77.90065421329365, 11.927611953470366], [77.90171781329364, 11.927511353470367], [77.90229216068836, 11.927431750390463], [77.90233576227195, 11.928055411138311], [77.902481365696, 11.928880787995634], [77.90271252209152, 11.929686402068572], [77.90302669434615, 11.930463411147104], [77.90331739434615, 11.931086311147103], [77.90374345531376, 11.931879458137521], [77.90425593928286, 11.93261970828305], [77.90501903928286, 11.93359920828305], [77.90577881052594, 11.934443277534028], [77.90664461052594, 11.935277577534027], [77.9068815776926, 11.935491609403009], [77.90702234487426, 11.935797331845379], [77.90736012477505, 11.936391460540298], [77.90774738184511, 11.936954591190494], [77.9080919818451, 11.937412491190493], [77.90819444822652, 11.93754571121411], [77.90878874822653, 11.93830181121411], [77.9089678681686, 11.938504260991339], [77.90914613069256, 11.938827127893012], [77.90990563069256, 11.940047827893013], [77.91015018487872, 11.940417630675638], [77.91091919886269, 11.941513253301103], [77.9117305131693, 11.942669875765803], [77.91199015283016, 11.942990885414714], [77.91204142659039, 11.943108504505267], [77.9122924107139, 11.943792375909107], [77.91258817398403, 11.944493274751185], [77.91294917540343, 11.945162911274966], [77.91337215053159, 11.945795230134205], [77.9136429505316, 11.946161130134206], [77.91376644374904, 11.94631232995905], [77.91376827275833, 11.94671115328296], [77.91377687275833, 11.94685105328296], [77.9138599229913, 11.947609335596892], [77.91401481726398, 11.94835626074248], [77.9142401472742, 11.949085037659858], [77.91425262194568, 11.94911493787096], [77.91426037768488, 11.949437788710336], [77.91435853207561, 11.95022794692201], [77.91445853207561, 11.950798946922008], [77.91465925688442, 11.951661150947851], [77.91482755688442, 11.952237550947851], [77.91508533896739, 11.952982009198973], [77.91552463896738, 11.954073609198973], [77.91587488147256, 11.954828083540464], [77.91630157170891, 11.955542112101938], [77.916800096746, 11.95620797555024], [77.91736506705035, 11.956818475263265], [77.91798606705035, 11.957423175263266], [77.91801802014281, 11.957450693310415], [77.9180431960175, 11.957577030159577], [77.9183130642158, 11.9584252726566], [77.9185832642158, 11.959135172656598], [77.91885901723813, 11.959774489276208], [77.91918931381967, 11.960387408224895], [77.91957165214201, 11.960969286972317], [77.92000313619866, 11.961515718100909], [77.92030203619865, 11.96186211810091], [77.92078201057693, 11.962371504347585], [77.92130466992242, 11.962836990073122], [77.92186601385153, 11.96325501249522], [77.92246174589259, 11.963622372111066], [77.92286654589259, 11.963848172111065], [77.92300602539882, 11.963920911415533], [77.92316166724804, 11.964088241734883], [77.92328285657953, 11.964191411430807], [77.92321078261858, 11.964510567891404], [77.92311316262422, 11.965314850832955], [77.92308696262421, 11.965687850832955], [77.92306872771613, 11.96639953378094], [77.92311383464305, 11.967110019878952], [77.92322192619677, 11.967813682686224], [77.92339214638488, 11.968504949796596], [77.92362314720943, 11.969178346967208], [77.92378034720943, 11.969577746967209], [77.9240920130806, 11.970271007190386], [77.924468065845, 11.970931559739897], [77.9249051107724, 11.971553441628783], [77.92539920253972, 11.97213103896062], [77.92593140253972, 11.97269643896062], [77.92655713821995, 11.973293048459904], [77.92724360218492, 11.973818648365668], [77.92740328721254, 11.97391552803652], [77.92765352584776, 11.974143271725058], [77.92830009377424, 11.974622397605023], [77.92857629377424, 11.974806297605022], [77.92928711406059, 11.975228268880189], [77.93003768343937, 11.975574636956367], [77.93081998811373, 11.975841703676567], [77.93162567545042, 11.976026617580949], [77.93198027545043, 11.976088917580949], [77.93280495461961, 11.97619000080749], [77.93363567020738, 11.976205006240003], [77.93446346199144, 11.97613377202765], [77.93527940128608, 11.975977066513275], [77.9360746872483, 11.975736579945943], [77.9362196622632, 11.97567570353903], [77.93693220819132, 11.975685150577046], [77.93779242215994, 11.975603351032058], [77.93863879584107, 11.975429250976756], [77.93917779584106, 11.975287650976755], [77.93926720963726, 11.975263607203527], [77.93968520963728, 11.975148607203527], [77.94041702415224, 11.97490882809707], [77.94112239320249, 11.974599795724728], [77.94122542986918, 11.974542266038949], [77.9414327590275, 11.974762349219734], [77.94183175902751, 11.975149349219734], [77.94202177100001, 11.975319874013753], [77.94210332454263, 11.975607451170843], [77.9424018636929, 11.976360149033587], [77.9426493636929, 11.976902349033587], [77.94283687262896, 11.977285714128318], [77.94310377262896, 11.977796414128317], [77.94346165685423, 11.97841267817244], [77.94387296379469, 11.978994648181546], [77.94433442958524, 11.9795377060191], [77.94484239233265, 11.98003754233032], [77.94502513834648, 11.98018782459395], [77.94500963325514, 11.980557534483772], [77.94498793325513, 11.981793234483773], [77.9450400364513, 11.982855946411632], [77.94511059086685, 11.98346388827528], [77.9451176941524, 11.983914416811814], [77.94517066412544, 11.984715938873894], [77.94525036412544, 11.985398638873892], [77.9453730160619, 11.986142724785102], [77.9455651869964, 11.986871955662608], [77.94573838699641, 11.987422455662609], [77.94605278311879, 11.988256340139301], [77.94645797730796, 11.989050081855039], [77.94687787730795, 11.98977048185504], [77.94727958288595, 11.990391736466826], [77.94791628288596, 11.991283136466825], [77.94805583179514, 11.991472557064313], [77.94846513179515, 11.992011357064314], [77.9489997152369, 11.992644176041011], [77.94959687281815, 11.993218320741057], [77.95025020152318, 11.993727634904069], [77.95081850152317, 11.994125134904069], [77.95157508398508, 11.99459391019226], [77.95237905681572, 11.994975741280662], [77.95289985681572, 11.99518844128066], [77.95296284584188, 11.995211378476231], [77.95303713024619, 11.995346677326811], [77.9534737188717, 11.996052427150461], [77.95398107044251, 11.996709151464852], [77.95455372544, 11.997309783378242], [77.95518552162713, 11.997847859599084], [77.95586966035926, 11.998317589986343], [77.95611476035926, 11.998467789986343], [77.95629170931684, 11.998564994752176], [77.9565190749957, 11.999089546523], [77.95693043584632, 11.999818629684151], [77.95741573187989, 12.000500735075633], [77.95796964925647, 12.00112839385651], [77.95858612275383, 12.00169473335923], [77.95884722275382, 12.00191053335923], [77.95954427887489, 12.002425732575182], [77.95959043740447, 12.002452659465325], [77.95979838772216, 12.002960634856018], [77.9601502418285, 12.0036311573496], [77.96033394182851, 12.0039442573496], [77.96082498892746, 12.004683861682384], [77.96139496117745, 12.00536450362695], [77.96156516611389, 12.005546237996356], [77.9615442751208, 12.005606308118738], [77.961353792428, 12.00641849285425], [77.96124892306078, 12.007246097902971], [77.96121662306078, 12.007682497902973], [77.96119590894345, 12.008406198594212], [77.96124070721432, 12.009128808364478], [77.96135065096729, 12.009844408906915], [77.9614359509673, 12.010270208906913], [77.9616185293152, 12.011001045565038], [77.96186903910815, 12.011711469324224], [77.96214968894812, 12.012401858088941], [77.96249517436426, 12.013362459255982], [77.9628771867629, 12.014251654557729], [77.96336377533176, 12.015088214969179], [77.96387697533176, 12.01585911496918], [77.96431068493587, 12.016450013560927], [77.96479665713548, 12.016998735883801], [77.96502591675889, 12.017234857741519], [77.96513322665069, 12.017507234226406], [77.96524691247178, 12.017780827537916], [77.9656970124718, 12.018809827537915], [77.96611131626413, 12.01962626614643], [77.96661618947489, 12.020390021784628], [77.96697218947489, 12.02086682178463], [77.96743378018543, 12.021429687077973], [77.9679446228869, 12.021948264995798], [77.9685004880945, 12.022418262010133], [77.96909677356288, 12.02283578681505], [77.96958697356288, 12.02314678681505], [77.97028810807998, 12.023543571809713], [77.9707736596014, 12.023757058132336], [77.97096349488386, 12.023988411564908], [77.97164436824129, 12.024642770929713], [77.97198006824128, 12.024929270929714], [77.97255434587844, 12.025375894471821], [77.9731668221833, 12.025768501360316], [77.97381243209746, 12.02610384481357], [77.97448583655412, 12.026379151607282], [77.97518146663106, 12.026592145008498], [77.97589356960458, 12.026741063603751], [77.97625946960459, 12.02680036360375], [77.97705144731484, 12.026888511129945], [77.97769022467347, 12.026895662272636], [77.9777022179901, 12.026945293757308], [77.97792357095813, 12.027697655518912], [77.97821752646558, 12.028424728772725], [77.97858125957545, 12.029119526283925], [77.97901127478208, 12.029775370990272], [77.97956417478207, 12.030534670990273], [77.97979089538359, 12.03081773133943], [77.97983809505342, 12.031093829980458], [77.98008941720629, 12.031960668658849], [77.98036511720628, 12.032743468658849], [77.98060857333837, 12.033353542235963], [77.98090125796294, 12.033941586765135], [77.98116495796295, 12.034420986765134], [77.9815572773997, 12.035061116395058], [77.9820078780745, 12.035661649088114], [77.9825127913185, 12.036217295648072], [77.9830675701045, 12.036723162213654], [77.98366732821412, 12.037174793361263], [77.98430678327331, 12.037568211346157], [77.98452188327332, 12.037687011346158], [77.98455824359104, 12.037704742427897], [77.9845559, 12.0378617], [77.9845559, 12.0380449], [77.98459575595898, 12.038842463067228], [77.98471492671155, 12.039632079224234], [77.98491222484157, 12.040405880743723], [77.98497622484156, 12.040613080743723], [77.98523569606829, 12.041330010378], [77.98556223818295, 12.042018983284116], [77.98595288519626, 12.042673741505903], [77.98640408885275, 12.043288337859924], [77.9869117508596, 12.043857189953878], [77.98724895085961, 12.044200589953878], [77.98776219068051, 12.044679324221844], [77.98878505866668, 12.045552739731587], [77.98939751905132, 12.04612335859916], [77.98997388499517, 12.046611608073214], [77.99059373145192, 12.04704332050086], [77.99125153224588, 12.047414646995477], [77.99159433224588, 12.047587346995476], [77.99218585575574, 12.047855820504642], [77.99279721120877, 12.048075416947905], [77.99323641120877, 12.048213316947905], [77.99394497009892, 12.048400603621468], [77.99466769525725, 12.048522260287786], [77.99507552885395, 12.048552955898701], [77.9952675735621, 12.048884572463308], [77.99534960160004, 12.049042586953158], [77.99581883794815, 12.049832078873848], [77.9963754675749, 12.050562588081085], [77.9965690675749, 12.050788488081086], [77.99707803504074, 12.051329390390057], [77.99763497187425, 12.05182076046712], [77.99823507777428, 12.05225836313838], [77.99887318036068, 12.052638426657259], [77.99904928036067, 12.052732526657259], [77.99972589039143, 12.053054298583406], [78.00042963507394, 12.053311362248733], [78.0011543419262, 12.053501462970699], [78.00189365460885, 12.053622933392786], [78.0023277508155, 12.053653003212684], [78.00235429359006, 12.053670846023275], [78.00252309359006, 12.053773446023275], [78.0031871705386, 12.054135256340686], [78.00388244426907, 12.054432744725485], [78.00460270180562, 12.054663252817287], [78.00534150691682, 12.054824720792542], [78.0060922576298, 12.054915705771153], [78.0063604576298, 12.054935405771152], [78.00709815788274, 12.054955462363738], [78.0074260201031, 12.05493408897443], [78.00791616553535, 12.055284449247852], [78.00861826553535, 12.055713049247851], [78.0092532931483, 12.056062246808708], [78.00991731590574, 12.056352544558193], [78.01060488468119, 12.056581560244911], [78.01088358468118, 12.05666056024491], [78.01099298831845, 12.056686004633207], [78.01139923134667, 12.057183579075234], [78.01195743663482, 12.057743810559465], [78.0125682294123, 12.05824618954252], [78.0128625294123, 12.058464789542521], [78.01367580606531, 12.058995455456627], [78.0142853143913, 12.059294913145603], [78.01443951286254, 12.059455266137332], [78.01495941124179, 12.059909965425165], [78.01551659215473, 12.060318126174595], [78.01572095138341, 12.060442262750941], [78.01578366349646, 12.061212028030207], [78.01581336349646, 12.061415528030206], [78.01597168418913, 12.062213733681457], [78.01621027375388, 12.062991726433998], [78.01652666354288, 12.063741456521987], [78.01691757992187, 12.064455166608822], [78.01700317992186, 12.064594166608822], [78.01741519413632, 12.065199325512541], [78.0178808048636, 12.065764285389271], [78.0183961128102, 12.066284314938283], [78.01895680248936, 12.066755059131395], [78.01978950248936, 12.067391559131394], [78.02048377170067, 12.067866576102114], [78.02122408275899, 12.06826606377049], [78.02157528275899, 12.06843236377049], [78.02235611453297, 12.068752838126208], [78.02316636501138, 12.068989261970582], [78.0233154884175, 12.069016144509275], [78.02378075684291, 12.069228994184881], [78.02448853227199, 12.069475647573626], [78.02521628498181, 12.06965497951598], [78.02525095151998, 12.069661817240018], [78.02564403810922, 12.070097245746709], [78.02668663810923, 12.07115234574671], [78.02747792952175, 12.071853707373418], [78.02814392037992, 12.07236961385421], [78.0282579592972, 12.072578130982254], [78.02863073651585, 12.07314108863758], [78.02886973651584, 12.07347088863758], [78.02934421135402, 12.074064157776881], [78.02987281937082, 12.074609747557105], [78.03045079405288, 12.075102738338568], [78.0310729237425, 12.07553868477222], [78.03173359863167, 12.075913655883808], [78.03223639863168, 12.076168255883807], [78.0322369295802, 12.07616848867665], [78.03261784521169, 12.076582666543791], [78.03323438317729, 12.077184503996623], [78.03391206823639, 12.077716547550601], [78.0342262682364, 12.0779369475506], [78.03481427162087, 12.078301753937632], [78.03511965179882, 12.078618747758211], [78.03564509378009, 12.079076723525016], [78.0359208937801, 12.079296723525017], [78.03649770036843, 12.079716165489602], [78.03710957034998, 12.08008257035811], [78.03775164091293, 12.08039302614272], [78.03841880922752, 12.08064506550869], [78.03910577300067, 12.080836685383389], [78.03942767300066, 12.080911185383389], [78.04035758292193, 12.08106593417169], [78.04065412225647, 12.08115993275628], [78.04070553422852, 12.081240900219989], [78.04121468392098, 12.081885584988843], [78.04178726247669, 12.082474656850398], [78.04241723230652, 12.08300190430087], [78.04277733230651, 12.08327310430087], [78.04340035731178, 12.083697834349854], [78.04406060266685, 12.084062020899314], [78.04475220296067, 12.084362428631053], [78.04502420296068, 12.084465628631053], [78.04584788715347, 12.084728183035958], [78.04616538715347, 12.084810783035957], [78.0469798254444, 12.084978022173667], [78.04729872711229, 12.08500955267649], [78.04766632740795, 12.085253877770134], [78.04839242203573, 12.085635607301136], [78.04915379062547, 12.085940973825014], [78.04994242773328, 12.086166766551885], [78.0502706277333, 12.086242766551887], [78.05109126815545, 12.086370511625162], [78.0511914090732, 12.086539194089482], [78.05141263484838, 12.086838466521705], [78.05149026034461, 12.087076437349362], [78.05176341807937, 12.087718026942602], [78.05209140898717, 12.088333392133865], [78.05225050898716, 12.088602892133865], [78.05266261892861, 12.089231506052558], [78.05272196627729, 12.08930575986642], [78.05282637938858, 12.089659647311446], [78.05310202716264, 12.090350052533983], [78.05323442716264, 12.090641552533983], [78.05360743311762, 12.091363078277828], [78.05405167853895, 12.092043062724063], [78.05456258400014, 12.092674496371579], [78.05513488292132, 12.093250870196714], [78.05576267585886, 12.093766242750384], [78.05584541067111, 12.093827404425465], [78.05595676370388, 12.094159032622425], [78.05614305727241, 12.094674391356184], [78.05617393314496, 12.094778825292282], [78.05623233629332, 12.095094332560642], [78.05640200980265, 12.095820162420853], [78.05663850237877, 12.096527049503198], [78.05693976090366, 12.097208856944434], [78.05730316999163, 12.097859665611038], [78.05748356999162, 12.098150065611039], [78.05798010576203, 12.098860402063144], [78.0585505686593, 12.099512857218166], [78.0587479686593, 12.099715357218166], [78.05935011784035, 12.10027277777999], [78.06000619826936, 12.100765585845718], [78.06070930776167, 12.101188596910342], [78.06145204937121, 12.101537360756554], [78.06156421377078, 12.101576582321535], [78.0617141155453, 12.101750727530597], [78.06214688722959, 12.102209186954093], [78.0626957339528, 12.10282841319506], [78.06327906621814, 12.10350938596393], [78.06369104933215, 12.10395494965576], [78.06413562118854, 12.104368002865671], [78.06454652118853, 12.104721702865671], [78.0650661426144, 12.105132787229373], [78.06561799914435, 12.105499463040747], [78.06619830541527, 12.105819215151351], [78.06661100541527, 12.10602481515135], [78.06738119184882, 12.10635927745061], [78.06818219245703, 12.106611170677427], [78.06900518306459, 12.106777719865134], [78.0692810830646, 12.106818619865134], [78.06987826344087, 12.106884341635636], [78.07047869195314, 12.106905062508925], [78.07083799195314, 12.106903962508925], [78.07154535837722, 12.106870453622264], [78.07224699011797, 12.106774521334808], [78.07293738934142, 12.10661691735113], [78.07361114622915, 12.106398876621832], [78.0742629813685, 12.10612210766672], [78.07429848513806, 12.106105140672426], [78.07449712055295, 12.106066732575947], [78.07524960574146, 12.105842855317102], [78.07597652369942, 12.10554629964213], [78.07667087380952, 12.105179921544298], [78.07732596910061, 12.104747249444971], [78.07793550064696, 12.104252450212984], [78.07849359832655, 12.10370028903543], [78.07899488735363, 12.103096083526289], [78.07943454004086, 12.102445652514906], [78.07980832229252, 12.101755260007483], [78.0801126343812, 12.101031554861274], [78.08034454561509, 12.100281506752454], [78.0805018225623, 12.099512339054328], [78.0805829505598, 12.098731459272301], [78.08058714830064, 12.097946387705543], [78.08051437535829, 12.097164685022408], [78.08036533257595, 12.096393879447056], [78.0801414553171, 12.095641394258545], [78.07984489964214, 12.094914476300588], [78.0794785215443, 12.094220126190493], [78.07904584944498, 12.093565030899393], [78.078551050213, 12.092955499353051], [78.07799888903544, 12.092397401673464], [78.0773946835263, 12.091896112646372], [78.07674425251491, 12.09145645995914], [78.07605386000749, 12.091082677707483], [78.07533015486128, 12.090778365618817], [78.07458010675246, 12.090546454384906], [78.07381093905434, 12.090389177437713], [78.07325113905434, 12.090303077437712], [78.07321629601826, 12.090299458758851], [78.07288511207342, 12.089835813102724], [78.07245703154561, 12.089330710806287], [78.07216333154561, 12.089011910806288], [78.07167024906705, 12.088521316965911], [78.07113641558547, 12.08807540838692], [78.0707966342828, 12.08783847372171], [78.07065530337061, 12.087166347873817], [78.07045260787868, 12.086498227975932], [78.07019243051373, 12.08585032566913], [78.07003363051373, 12.08549992566913], [78.0696934552615, 12.084833981344229], [78.06929258524288, 12.084202709394695], [78.0688345230662, 12.083611625569505], [78.0685955230662, 12.083331325569505], [78.0681247809888, 12.082825254379653], [78.06800781290522, 12.08271949243993], [78.06785330717022, 12.08230486186893], [78.06776520717023, 12.082098161868931], [78.06740232594987, 12.081355644319743], [78.06696477702938, 12.080654526616977], [78.06645722997935, 12.08000229116644], [78.0658851013981, 12.07940589869713], [78.06567117110518, 12.079224678405334], [78.06548820101807, 12.078887138889858], [78.06535800101807, 12.078666838889859], [78.06512366110364, 12.078303793943842], [78.0649922582678, 12.077858440068432], [78.06471982205368, 12.077174339733425], [78.06454502205368, 12.076788139733424], [78.06413362865757, 12.075999207788678], [78.06363717123986, 12.075260839200373], [78.06306179080921, 12.074582167335745], [78.0628637908092, 12.074373367335745], [78.06221041105924, 12.073757568691834], [78.06166305473798, 12.073347045983173], [78.06148895662663, 12.073199093676132], [78.0607218960239, 12.072686600560864], [78.06027489602391, 12.072423900560864], [78.05967817655363, 12.072106335267417], [78.05905677847372, 12.071840278378623], [78.05841513819594, 12.071627629382036], [78.05811416054924, 12.07154181055246], [78.05810000346561, 12.071534608510587], [78.05737944998127, 12.071251966322201], [78.0566349551375, 12.071040279388143], [78.0558141551375, 12.070849279388144], [78.05501132997202, 12.070705154350764], [78.05499171296358, 12.070702656897724], [78.05436524334883, 12.070357841684842], [78.05370386087883, 12.070068124246978], [78.05360713973688, 12.070035794377516], [78.05336640762415, 12.069618528308009], [78.05293763155606, 12.069012906014601], [78.05265673155606, 12.068652806014601], [78.05213314783542, 12.068046775144506], [78.05155159390144, 12.067496131566598], [78.05091789813605, 12.067006393876659], [78.05023841149097, 12.066582470266583], [78.04993951149096, 12.066416170266583], [78.0491607291025, 12.066036561447863], [78.04834546345788, 12.065743394613921], [78.04750327615643, 12.065540108084312], [78.04664404454013, 12.065429086044313], [78.04603164454014, 12.065383486044313], [78.04532821206043, 12.065362147892541], [78.04462562609392, 12.065402713024383], [78.04459312632116, 12.065407481064737], [78.04402247819202, 12.064993969636623], [78.04388753682994, 12.064917608248116], [78.04386733358953, 12.064889991129933], [78.04337177361697, 12.06427819530774], [78.04281847652834, 12.06371807376185], [78.04221280129828, 12.06321505156538], [78.04179430129828, 12.062900951565382], [78.04111611671341, 12.062444193425517], [78.0407249327331, 12.062235305468617], [78.04032737339944, 12.061774660075157], [78.03973748840009, 12.061217062757867], [78.03854238840009, 12.060197062757869], [78.03824807047825, 12.059957692626583], [78.03769514211507, 12.059529369440945], [78.03727874758339, 12.059107982647951], [78.03651126564043, 12.058176628570147], [78.03586251342202, 12.057478603948267], [78.03513536348608, 12.05686267312072], [78.03428026348608, 12.05622177312072], [78.03347646250302, 12.055691729766679], [78.03261480595268, 12.055262090421648], [78.03184559199246, 12.054934757354491], [78.0316846516397, 12.05444619891428], [78.0316174516397, 12.05427109891428], [78.0312474271379, 12.053448780267304], [78.0307872113619, 12.052673327155487], [78.0305665113619, 12.052345127155487], [78.03021973581892, 12.051869947140826], [78.02993964824019, 12.05141564351564], [78.02944316702957, 12.050768580244128], [78.02888338450518, 12.050175429339875], [78.02844184857415, 12.049752958477212], [78.02767423477174, 12.048998980547312], [78.0270707992033, 12.048463303786558], [78.02641647226645, 12.047991138204383], [78.02583959111223, 12.047657632930035], [78.02570133091552, 12.047291514651892], [78.02566553091552, 12.047208714651893], [78.02527552501907, 12.046426904019231], [78.02480258990816, 12.045692285175551], [78.02425236631288, 12.045013619971048], [78.02363141678842, 12.044399002892954], [78.02349501678842, 12.044278002892954], [78.02295150829381, 12.043836801699934], [78.02251161675615, 12.043539496510354], [78.022426304111, 12.043443340230867], [78.0219532965455, 12.042953845575475], [78.02144038953814, 12.042506332920407], [78.02089129638473, 12.04210404212565], [78.02046809638473, 12.04182084212565], [78.02042688108675, 12.041793445571003], [78.02013518108674, 12.041600845571002], [78.01939257077431, 12.041165988870842], [78.01860754694323, 12.040813415459473], [78.01778919342834, 12.040547205109418], [78.01744169342834, 12.040454505109418], [78.01654678545776, 12.040269788364617], [78.01564684879602, 12.040189240297039], [78.01544995424949, 12.039992345750507], [78.01486444104398, 12.03946199546034], [78.01422947456562, 12.038991979805846], [78.01355124670138, 12.038586882153083], [78.01322144670138, 12.038411382153084], [78.01244948700223, 12.038051928837556], [78.01164369340945, 12.037776565170729], [78.01131009340946, 12.037682065170728], [78.01047230634819, 12.037492666655506], [78.0096190424141, 12.037394180024961], [78.00960122918625, 12.03739404647435], [78.00897117818833, 12.037065714437656], [78.00818362538867, 12.036756101404638], [78.00785682538866, 12.036647201404637], [78.0070584705017, 12.036426366505392], [78.00624156017084, 12.03628926767407], [78.00590681243314, 12.036268255358921], [78.00575904676704, 12.036049600583139], [78.00539069995273, 12.035547795267023], [78.0049844519735, 12.03507614865114], [78.00480355197351, 12.03488194865114], [78.00426434658982, 12.03435520180742], [78.0036779576083, 12.033881543021455], [78.00304959110653, 12.033465177529816], [78.00238482584685, 12.033109801907854], [78.00168956374696, 12.032818571250761], [78.00096997748157, 12.03259407116203], [78.00077125464973, 12.032542208424251], [78.00077886450235, 12.032435945844217], [78.00079642687275, 12.031650113010635], [78.00073678676978, 12.030866349821075], [78.00060051994564, 12.030092222549996], [78.00038894188977, 12.029335204448849], [78.00024484188977, 12.02890280444885], [77.99999944862907, 12.028260032523653], [77.99969973390876, 12.027640722676605], [77.99934791455755, 12.027049455609765], [77.99894659279406, 12.026490604607824], [77.99866289279406, 12.026129404607824], [77.99816288462884, 12.02555185442301], [77.99761006877426, 12.02502462865335], [77.99700948598135, 12.024552534711304], [77.99654878598135, 12.024224734711305], [77.99558715079743, 12.02363785934157], [77.99510765079744, 12.023389759341569], [77.99482982482509, 12.02326241163547], [77.99473713400222, 12.023087161520461], [77.99458363400223, 12.02282626152046], [77.99409788956861, 12.022095545001992], [77.99353504275372, 12.021422419643578], [77.9929786163459, 12.02088861452068], [77.99297319031841, 12.020801688358532], [77.99283983975272, 12.019997363327859], [77.99262531697674, 12.019210787770826], [77.99233185008143, 12.018450131271681], [77.99217785008143, 12.018104531271682], [77.99182079655388, 12.017399213181495], [77.99139587329034, 12.016732579061461], [77.990907229672, 12.016111138602408], [77.990611129672, 12.015770638602408], [77.99010617329162, 12.015240971310112], [77.98955492907334, 12.014759662471194], [77.98896200962538, 12.014330739500439], [77.98839240962538, 12.013957139500437], [77.98800162889296, 12.013732035240393], [77.98757869931495, 12.013256856800396], [77.98702510241287, 12.012742173440394], [77.98642540051583, 12.01228203636761], [77.98578494754209, 12.011880553516812], [77.98557584754208, 12.011762853516812], [77.98480642242922, 12.011382584119021], [77.98400068745595, 12.011086930652842], [77.98316791637775, 12.010879295996446], [77.98231769412715, 12.010762069959252], [77.9805482129961, 12.010614248830741], [77.98033509983404, 12.010430535683609], [77.97973148192044, 12.010000713191955], [77.97913861798277, 12.009656422712228], [77.97904963249808, 12.009485735515854], [77.9792780987787, 12.008798775902896], [77.97931489877871, 12.008665775902896], [77.97947539664716, 12.007964377702017], [77.97957222481273, 12.007251395718844], [77.97960459999757, 12.006532597520891], [77.97957226030718, 12.00581379772512], [77.97955516030717, 12.00562419772512], [77.97946008141191, 12.004920667125505], [77.97930300651608, 12.004228335717858], [77.97908517257291, 12.003552655561185], [77.97880829500873, 12.002898947587104], [77.97847455421405, 12.002272359697914], [77.97825209548125, 12.001895966669288], [77.97797586867891, 12.001414370540585], [77.97779134777957, 12.00055644441558], [77.97761332545002, 11.999875840309427], [77.97737619860456, 11.999213507494071], [77.97717739860455, 11.998726807494071], [77.9768048846047, 11.997940063918074], [77.97634909720949, 11.997198450821614], [77.97581543274326, 11.99651074858086], [77.97545313274325, 11.99609294858086], [77.97500050485422, 11.995612544987932], [77.97450981525732, 11.995171089058617], [77.97413263402981, 11.994884294379332], [77.97404761380987, 11.994704710853533], [77.97347949288401, 11.993699447835795], [77.97255199288401, 11.992304047835795], [77.97218754719, 11.991799488587837], [77.97178497856036, 11.991324789528425], [77.97164597356954, 11.991173246477526], [77.97163333210014, 11.99108844096303], [77.97153773210013, 11.99059504096303], [77.9713378971977, 11.989789828558816], [77.97105574475174, 11.989009642041783], [77.97069430922804, 11.988262872086354], [77.97025747775838, 11.98755754998175], [77.97008727775838, 11.98731214998175], [77.96954291711126, 11.986613326667312], [77.96892463302883, 11.985978970826823], [77.96824000608491, 11.985416860084523], [77.96799760608491, 11.985239360084522], [77.96731024881112, 11.984788388816797], [77.96658023949074, 11.984410339219128], [77.9661313958374, 11.98423364476147], [77.96611628971203, 11.984203414074587], [77.96578518971204, 11.983638114074587], [77.96537906568342, 11.98301338430791], [77.96491657804032, 11.982429150460915], [77.96440173903653, 11.981890480981384], [77.96383901509355, 11.981402049029121], [77.96323328805268, 11.980968091934534], [77.9625898128232, 11.980592374438205], [77.9623336128232, 11.980458374438204], [77.96153073131691, 11.980093310798217], [77.96107366399319, 11.97994364459882], [77.9610844053505, 11.979701334860481], [77.9610947780129, 11.979236920416476], [77.96111120297378, 11.979181918642418], [77.96128994801984, 11.978463714702764], [77.96140155528813, 11.977732065532681], [77.96144506954829, 11.976993233210983], [77.96144876954828, 11.976698533210984], [77.96142505487232, 11.97597445798925], [77.96133593393033, 11.975255497093038], [77.96118213757991, 11.974547546533195], [77.96096492706484, 11.97385641202767], [77.96068608367192, 11.973187761390335], [77.96053688367192, 11.972871161390335], [77.96017371262847, 11.97218823429323], [77.95974628684768, 11.971543571723611], [77.95905008684767, 11.97059637172361], [77.95838815773413, 11.969807680842996], [77.95762205773414, 11.969005880842996], [77.95733553016, 11.968720782300053], [77.95723428948867, 11.968625013063336], [77.95723182721945, 11.968617905650534], [77.95690576337093, 11.96781890134451], [77.95649553200191, 11.967059667692572], [77.95600590670252, 11.966349039392721], [77.95567930670252, 11.965925839392721], [77.95499617878609, 11.965149978155312], [77.95452927878608, 11.964684178155311], [77.95400249782654, 11.964203532463946], [77.95343967325488, 11.963775255566052], [77.95341751886389, 11.963670636507118], [77.95318971898364, 11.962944213155621], [77.95299521898365, 11.96241381315562], [77.95261947336846, 11.961550186098023], [77.95214483464483, 11.9607367031271], [77.95189753464483, 11.960365003127102], [77.95145525802748, 11.959763183622396], [77.95095878585947, 11.959205231376323], [77.95041244516977, 11.958696009250652], [77.94982099761901, 11.95823995539725], [77.94871509761902, 11.957466755397249], [77.94821311704361, 11.957143001103471], [77.94812191443468, 11.957088890661366], [77.94794145284726, 11.956880976500125], [77.9474682450814, 11.956419095404753], [77.94695850873912, 11.955997872664035], [77.94656050873911, 11.955695772664036], [77.94597095985982, 11.95528856169855], [77.94534734074595, 11.954935733337557], [77.94469465388154, 11.954640117863498], [77.94401813492325, 11.954404086614339], [77.94332321070168, 11.954229532961401], [77.94286991070167, 11.9541370329614], [77.94224321101531, 11.95403486786342], [77.94161038276845, 11.953982727532503], [77.94110728276846, 11.953961327532504], [77.94027224674929, 11.953969432049549], [77.93944260488321, 11.954064538361509], [77.93862739703664, 11.954245610179848], [77.93783550580133, 11.954510674526693], [77.93730879184218, 11.954750601926044], [77.93699647028716, 11.954412948050615], [77.93669917028716, 11.954119848050615], [77.93588453914637, 11.953418179772763], [77.93532793914636, 11.953000479772763], [77.9346446905529, 11.952540731982934], [77.93398504039303, 11.952144598542748], [77.93367049503725, 11.951828996355864], [77.93363568169137, 11.95166735988374], [77.93342244518946, 11.95098247558197], [77.93328494518947, 11.950601875581969], [77.93299234125362, 11.949898659163821], [77.93263418764802, 11.94922645652412], [77.93221373086942, 11.948591360868834], [77.93173478216404, 11.94799912904629], [77.93120168298032, 11.947455129363995], [77.93075480923511, 11.947078523290703], [77.93074094643404, 11.94672817295086], [77.93064184588711, 11.945987443209571], [77.9304740571131, 11.945259192981045], [77.93023904433508, 11.94454977740312], [77.93002317662923, 11.944057623305758], [77.93006153441102, 11.943404605459628], [77.93006848810707, 11.942605433514045], [77.92999566926717, 11.941809555653407], [77.92993756926717, 11.941400855653406], [77.92980280594016, 11.940687142383863], [77.92960386637608, 11.939988593290906], [77.92934239042066, 11.939310966468703], [77.92902053340299, 11.93865984755053], [77.92884533340299, 11.938342547550532], [77.92848432939336, 11.937750861168466], [77.92807346466863, 11.937192643605448], [77.92761582338916, 11.936672085127451], [77.92737222338916, 11.936418085127452], [77.92681431985072, 11.935889679353886], [77.92620829382663, 11.935417237317367], [77.92607712401787, 11.935333886716844], [77.92593549033307, 11.93504814456513], [77.92556148882625, 11.934376732799118], [77.92512478586207, 11.933744307777687], [77.9246294118738, 11.933156706298462], [77.92451457129206, 11.93303306080128], [77.9240172868307, 11.932324124234196], [77.92337361770566, 11.931407081178367], [77.92295165266991, 11.930728881416487], [77.9227750992887, 11.930365591720138], [77.92234753652745, 11.929596518813781], [77.92183809652121, 11.92887905527455], [77.92172357066791, 11.928750433683526], [77.92178167822317, 11.928630816769221], [77.92208337248239, 11.927925613387151], [77.92231614399027, 11.92719475864012], [77.92247785295383, 11.926444971038705], [77.92256701283506, 11.925683143137068], [77.92258280401607, 11.924916278171944], [77.92252508133369, 11.924151425684158], [77.92239437541379, 11.923395616714487], [77.92219188779347, 11.922655799169577], [77.92205158779348, 11.922225399169578], [77.92179076918168, 11.921535096441515], [77.92146745332356, 11.920871763146316], [77.92108439115314, 11.92024104325744], [77.92064484195612, 11.91964830325708], [77.92054111116309, 11.919532473510575], [77.92048923880064, 11.919368429687319], [77.92019611838101, 11.918586128063392], [77.91982301447383, 11.917838659745904], [77.91937399575045, 11.917134175823264], [77.91885395872785, 11.916480358642138], [77.91826857437249, 11.91588433803201], [77.91801777437249, 11.91565433803201], [77.91741483845465, 11.915153505932675], [77.91676578547148, 11.914714080469386], [77.91662046328835, 11.914635232446738], [77.91646238834996, 11.91435409762557], [77.9160497053992, 11.913754985293924], [77.91558430403194, 11.913195839184992], [77.915070032847, 11.912681283112125], [77.9145111445682, 11.91221557215499], [77.91391226087677, 11.911802557472535], [77.91362436087677, 11.911622757472536], [77.91298483017636, 11.911263029656757], [77.91292619216125, 11.91123679938008], [77.91294880196769, 11.911227364874048], [77.9129830813277, 11.911211004472815], [77.91365075826678, 11.911368607202379], [77.9144087836512, 11.911472438546165], [77.91517326120817, 11.911503381982886], [77.91593719855493, 11.911461154484803], [77.91649509855492, 11.911403454484802], [77.9172553051499, 11.911287676677087], [77.91800088395422, 11.911099445929473], [77.9183080039878, 11.910989611380938], [77.91872457932433, 11.911037300864743], [77.91966867932435, 11.911095000864744], [77.92063790223763, 11.911095414661343], [77.92160006205523, 11.910978616920662], [77.92216187441129, 11.91087556344383], [77.92362312057737, 11.910687680206127], [77.92434114242583, 11.91056187400776], [77.92504473190343, 11.910371231878555], [77.92538231454206, 11.910245798413017], [77.92613532956685, 11.910372008941104], [77.92690285604426, 11.910425708745214], [77.92786845604427, 11.910446708745214], [77.9286711936726, 11.910423850373329], [77.92946759512193, 11.910320627620912], [77.92991531845755, 11.910216118223266], [77.93009529184455, 11.91027220194355], [77.93081949730073, 11.910426184372486], [77.93155483691368, 11.910512554418458], [77.93244533691367, 11.91057555441846], [77.93320298060534, 11.910593169653083], [77.93395889159692, 11.910539014017674], [77.93470628636369, 11.910413573503433], [77.93543845780536, 11.910217973810125], [77.9361488354353, 11.909953970244077], [77.936831044344, 11.909623931966115], [77.93747896240724, 11.909230820730773], [77.93830506240724, 11.908674420730772], [77.93887559230346, 11.908252191775828], [77.93940645260375, 11.907781055920193], [77.9397286628788, 11.907439445902838], [77.93995396509007, 11.907303494611238], [77.94073447704143, 11.906767043268815], [77.94144612235422, 11.9061421113543], [77.94163410004295, 11.90595621195137], [77.94221455644418, 11.906091335059827], [77.94301836118622, 11.906194276879726], [77.94337917251613, 11.906203672819895], [77.94391053360843, 11.906593639550966], [77.94458978153904, 11.906995661596794], [77.94530533981101, 11.907328791955585], [77.94605024291769, 11.907589787814228], [77.94681723969896, 11.907776108543295], [77.94775063969895, 11.907954608543296], [77.9485651984456, 11.908067352329155], [77.94938702759926, 11.908095882229988], [77.95020744380147, 11.908039896801931], [77.95088584480318, 11.907922766755046], [77.95134159655888, 11.908165938588338], [77.95204335445342, 11.908458558542034], [77.95276972225601, 11.908683236968274], [77.95346172225601, 11.908861736968275], [77.95416828185141, 11.909010344177092], [77.95488536229345, 11.909094642480666], [77.95539506229346, 11.909131342480665], [77.9561857768021, 11.909149078691012], [77.95697437837164, 11.909088650453679], [77.95775315911165, 11.908950648401822], [77.95827274141612, 11.908804449074147], [77.95893308659707, 11.908968498895975], [77.95978702741753, 11.909131961695364], [77.9606536640789, 11.909201789403365], [77.96152276031563, 11.909177157251081], [77.96238405081095, 11.9090583561808], [77.96295265081096, 11.9089481561808], [77.96374017866216, 11.908753633161416], [77.96450395871057, 11.908480357917082], [77.96518525871056, 11.908196857917082], [77.96595401866314, 11.907827733500085], [77.96667911872262, 11.907378874275311], [77.96735231943313, 11.906855380719206], [77.96796597108141, 11.906263201392921], [77.96799583090889, 11.906227501639927], [77.96807809140745, 11.906199419186352], [77.96861311643458, 11.90596078261539], [77.96927456887927, 11.90591634780126], [77.97014692834556, 11.905759471918719], [77.97089792834555, 11.905580971918718], [77.9716125931238, 11.905375587415163], [77.97206938274245, 11.905196928419713], [77.97211886510586, 11.905324387491344], [77.97233346510585, 11.905817787491344], [77.97273886906552, 11.906622618689761], [77.97323221811271, 11.907376748881505], [77.97360121465303, 11.907821995471927], [77.97366732875098, 11.907914386174133], [77.9741323426565, 11.908455081295442], [77.97464366088083, 11.908952215904986], [77.97476176088084, 11.909057215904985], [77.97533625405009, 11.909522294169644], [77.97595121946875, 11.909932364563126], [77.97623011946875, 11.910100264563127], [77.97692668483734, 11.910474015495378], [77.97765673583507, 11.910777196320593], [77.97841314427741, 11.911006846795058], [77.97887444427741, 11.911122346795057], [77.97975039772317, 11.911290411381765], [77.9806396155861, 11.911359922076445], [77.9811117155861, 11.911370422076445], [77.98125560967998, 11.911367334502197], [77.98131470777543, 11.911434868289197], [77.98199060777543, 11.912138268289196], [77.98249874244858, 11.91262262431774], [77.98304738200709, 11.913060569797558], [77.98363230191255, 11.913448732537452], [77.98377180191254, 11.913532732537453], [77.98469833783261, 11.914011306687124], [77.98539573783262, 11.914315706687123], [77.98611794716447, 11.914590227075106], [77.98686327006031, 11.914793799036255], [77.98746477791603, 11.91489706043802], [77.98784311805494, 11.915150040265843], [77.98806841805495, 11.915286440265843], [77.98879591365834, 11.915677061099625], [77.98955979883594, 11.915990611612555], [77.98997819883594, 11.916137611612555], [77.99062334621209, 11.916334145642763], [77.99115792602319, 11.916448856337766], [77.99142829239344, 11.91665818442544], [77.99171789239344, 11.91685768442544], [77.99244522156145, 11.917303495160953], [77.99315405487641, 11.917639971120789], [77.9934441195742, 11.918101970498618], [77.99368011957421, 11.91843787049862], [77.99412945437092, 11.91901877407258], [77.9946301669221, 11.919556024165995], [77.9948232669221, 11.919745024165994], [77.99535747344017, 11.920222954281273], [77.99593231483854, 11.920651149523838], [77.99621131483853, 11.920840149523839], [77.99673392991966, 11.921165566478606], [77.99699142991966, 11.921312466478605], [77.9976308144381, 11.921640086532292], [77.99829701270073, 11.921909023954091], [77.99848303127283, 11.921974567410702], [77.99851039891396, 11.921987170929647], [77.99949634132405, 11.922364536395365], [77.99990404132404, 11.922490436395366], [78.00054111412979, 11.92264485855208], [78.0009519802635, 11.92314194660729], [78.00151915315895, 11.92370334527928], [78.00213943612727, 11.924205443478305], [78.00269796979451, 11.924571929163092], [78.00274061873054, 11.924640482438708], [78.00320356540362, 11.92524700715258], [78.00350396540362, 11.92560390715258], [78.00385885999818, 11.92599823503111], [78.00420215999817, 11.92635513503111], [78.0050633094402, 11.927129482616225], [78.0056856094402, 11.927612382616225], [78.00632986588855, 11.928063392735927], [78.00663026588855, 11.928252392735926], [78.00736820783109, 11.928663958614564], [78.00814544230673, 11.928995396923906], [78.00895329896393, 11.929243010341263], [78.00917285402696, 11.929285633067366], [78.00980921819989, 11.92950073828606], [78.01050963174261, 11.929702443959721], [78.01122549651222, 11.929839564130432], [78.01195087011185, 11.929910960562994], [78.01267973121169, 11.929916040595277], [78.01340602953226, 11.929854762057907], [78.01372792953227, 11.929812762057907], [78.01445852855942, 11.929682727458408], [78.01517393534776, 11.929485554786023], [78.01543143534775, 11.929401554786024], [78.01624407429213, 11.92908652190569], [78.01652297429214, 11.92896052190569], [78.01700854600797, 11.928718283932609], [78.01767970881278, 11.928930995247754], [78.01851268513964, 11.929100378874892], [78.01935893153981, 11.92918042513913], [78.02020889415097, 11.92917023034269], [78.02053079415097, 11.92914923034269], [78.02135576878145, 11.929050744220433], [78.02142573214832, 11.929843134456585], [78.02159838077876, 11.930704158206884], [78.02186436162823, 11.931541071365993], [78.02222046975447, 11.932343789529861], [78.02237066975447, 11.932637689529862], [78.02276408733184, 11.93332193958562], [78.02322301674978, 11.933964091684677], [78.02374299079274, 11.934557895123232], [78.02431894803719, 11.935097569822986], [78.0246407480372, 11.935370569822986], [78.02518667068341, 11.935794545126038], [78.0257671539431, 11.936169812735194], [78.02588334615582, 11.93623799760312], [78.02607914803545, 11.936945069943617], [78.02635164726244, 11.937657144358692], [78.02641604726244, 11.937804044358693], [78.02678138799587, 11.938533744615832], [78.02721916503654, 11.939222430015297], [78.02772482320272, 11.939862934609927], [78.02798232320272, 11.940156934609927], [78.02857948770452, 11.940769341727693], [78.02923862406892, 11.941314490490173], [78.02995219704982, 11.941786148757394], [78.03071204908179, 11.942178924532636], [78.03085154908179, 11.942241824532635], [78.03158096580013, 11.942528600242142], [78.0323349438509, 11.94274262396867], [78.03310624635182, 11.942881841455451], [78.03388747013594, 11.942944916455945], [78.03395816599206, 11.942947148285437], [78.03441368143872, 11.943253522592052], [78.03505412328529, 11.943604060628017], [78.03533302328529, 11.943740560628017], [78.03607974867747, 11.944060119297557], [78.03685502795581, 11.944302314663272], [78.03705892795581, 11.94435481466327], [78.03771598493032, 11.944494864476955], [78.03838247567671, 11.94457929138637], [78.0390537, 11.944607499999998], [78.0391931, 11.944607499999998], [78.04005779461501, 11.94456063166135], [78.040444094615, 11.944518631661351], [78.04089586589356, 11.944447549900175], [78.04125706081216, 11.944567379842427], [78.04202640490604, 11.94474080417096], [78.04280908624277, 11.944837635248758], [78.04359749854987, 11.944856932049719], [78.04438397985996, 11.94479850704321], [78.0444337919413, 11.944789814274918], [78.04529625214842, 11.944868656497329], [78.04648715214842, 11.94488965649733], [78.04666186701206, 11.944885098782189], [78.0471598853344, 11.945062121312414], [78.047377411522, 11.945112575692004], [78.04755209933744, 11.945239330050258], [78.048273810064, 11.945655908970528], [78.04903561006401, 11.946044208970529], [78.04975006976755, 11.946365336202843], [78.05049250975641, 11.946615052502436], [78.05125581217294, 11.946790963810395], [78.05203265914898, 11.94689138364476], [78.05281560296318, 11.946915349269021], [78.05395280296318, 11.94689444926902], [78.05460237046745, 11.946856043431604], [78.05524666799901, 11.946764973997912], [78.05619517328154, 11.9465913], [78.0562734, 11.9465913], [78.05679295940118, 11.946574410798972], [78.05743675940118, 11.94653251079897], [78.05769738338171, 11.94650330974074], [78.05774813161491, 11.946514987739642], [78.05836968410361, 11.946607407599686], [78.05856278410361, 11.946628407599686], [78.0594277, 11.946675299999999], [78.0598998, 11.946675299999999], [78.06067826713549, 11.946637334219906], [78.06175116713548, 11.946532434219906], [78.06175229816338, 11.946532251494796], [78.06226136758785, 11.946656830325493], [78.0631614072107, 11.946771323518895], [78.0633116072107, 11.946781823518895], [78.06395351228912, 11.946800858858792], [78.06426766139059, 11.946784933832733], [78.06492540322094, 11.94699455161536], [78.06568665674351, 11.947157730658345], [78.06646016690124, 11.947246140847728], [78.06662116690124, 11.947256640847728], [78.06747526032069, 11.947266647242104], [78.06832555241911, 11.947185535933148], [78.06916235018947, 11.947014231558976], [78.06932325018947, 11.946972231558975], [78.07005115340927, 11.94673981524201], [78.07076638419643, 11.946834625192952], [78.07113108419644, 11.946866125192951], [78.07204656771063, 11.946892576866636], [78.07295907518402, 11.946814219564532], [78.07332387518402, 11.946761719564533], [78.07417690795471, 11.946591171548937], [78.07500637964533, 11.946329010819653], [78.07580248238126, 11.945978337228771], [78.07655580285055, 11.945543297225944], [78.07678110285055, 11.945396297225944], [78.07731292397946, 11.945011146775476], [78.07749042348345, 11.944932590456034], [78.07817373931978, 11.944546022927929], [78.07881587455994, 11.944094340163911], [78.07941064509053, 11.943581892115915], [78.07995232294623, 11.943013613938776], [78.08043569147314, 11.942394978461992], [78.08085609556815, 11.941731943483383], [78.08120948651, 11.941030894392247], [78.08149246095071, 11.940298582674563], [78.08170229369176, 11.939542060892496], [78.08183696392913, 11.938768614764362], [78.08189517471483, 11.937985692999185], [78.08187636544716, 11.937200835561551], [78.08178071726964, 11.936421601057633], [78.08160915132652, 11.935655493941676], [78.08136331989162, 11.934909892244002], [78.08104559045604, 11.93419197651655], [78.08065902292793, 11.933508660680223], [78.08020734016391, 11.932866525440069], [78.07969489211592, 11.932271754909474], [78.07912661393878, 11.931730077053782], [78.078507978462, 11.931246708526857], [78.07784494348338, 11.930826304431847], [78.07714389439225, 11.930472913490005], [78.07641158267457, 11.930189939049283], [78.0756550608925, 11.929980106308236], [78.0755080608925, 11.929947006308236], [78.07509335919183, 11.929865075651808], [78.07484665919182, 11.929823075651807], [78.07417772294545, 11.929738019391817], [78.073504, 11.9297096], [78.0733323, 11.9297096], [78.07253285712487, 11.929749644529686], [78.07174141757822, 11.929869377227652], [78.07096590456617, 11.930067599434004], [78.07069522511618, 11.930166509761236], [78.06996901390795, 11.930049117770055], [78.06963132885436, 11.930031061049867], [78.06951926836294, 11.93001887635715], [78.06880092313806, 11.929973340095701], [78.06808139258717, 11.92999255466255], [78.06736650146091, 11.930076364511748], [78.06717340146092, 11.930107864511749], [78.06657058896818, 11.930248513733027], [78.06583787013592, 11.930227983544055], [78.06550527013593, 11.930238483544056], [78.06471549651961, 11.930302677264622], [78.06393594729721, 11.930444685041358], [78.06373130322288, 11.930503371500603], [78.0630825387181, 11.930414091981598], [78.06236653158584, 11.930348176615881], [78.06164749806811, 11.930346816731161], [78.06093124673171, 11.930410023312993], [78.06049783672506, 11.930487963312899], [78.06002028875945, 11.930348391607023], [78.05923606463244, 11.93020196944903], [78.05844115650432, 11.930134382486031], [78.05784035650431, 11.93011338248603], [78.0570030072107, 11.930127976481105], [78.0568528072107, 11.930138476481105], [78.0561181437663, 11.930224109349542], [78.05539452891817, 11.930377226678031], [78.05504879041868, 11.930484559734216], [78.05474042518223, 11.930315881245301], [78.0540363625444, 11.930014247604179], [78.0538110625444, 11.92993024760418], [78.05304752838137, 11.92968836365754], [78.05226363457322, 11.929524038494284], [78.05159843457322, 11.929419038494283], [78.05097668290988, 11.929345697130408], [78.05082996852532, 11.929339951958418], [78.05015366878091, 11.929156814574306], [78.04977816878092, 11.929072914574306], [78.04885369584748, 11.928922535537085], [78.04864989584748, 11.928901535537085], [78.04794015468913, 11.928860159792109], [78.04717835468914, 11.928849659792109], [78.0465259820164, 11.92886728937984], [78.04636364709694, 11.928884991251559], [78.04616670287204, 11.928881518391771], [78.04603585195514, 11.928860998170828], [78.045403210311, 11.928767701299149], [78.04536953260984, 11.928749579533944], [78.04519783260983, 11.928665579533945], [78.04447696254442, 11.928355747604188], [78.04402636254443, 11.928187747604188], [78.04334735936848, 11.92796854852419], [78.04265152620117, 11.927810720285606], [78.04194439810776, 11.92771551834685], [78.04146071981073, 11.927693927599554], [78.04122198333722, 11.92752886776001], [78.04048091605966, 11.927124639929602], [78.03970138037153, 11.926800749578273], [78.03959356413554, 11.926768784477916], [78.03913810536687, 11.926372165568214], [78.03902000536688, 11.926277665568215], [78.0387717804752, 11.926102830360296], [78.0386635156222, 11.925944172552864], [78.03816156552182, 11.925344142061101], [78.03760341016164, 11.92479600604858], [78.03720204308199, 11.924438670011225], [78.03719627967135, 11.924389210335836], [78.03711047967136, 11.923864410335836], [78.03695475268816, 11.923130138991578], [78.03673089369455, 11.92241369468022], [78.0364408733678, 11.921721384409922], [78.03608724481708, 11.92105930273187], [78.03593704481708, 11.920807302731868], [78.03542985912598, 11.920056568049029], [78.03484104143214, 11.919367994441718], [78.03473416300616, 11.919256467684077], [78.03468043413564, 11.919076474808538], [78.03444851661462, 11.918478940578714], [78.03401931661462, 11.917492240578714], [78.03367779057035, 11.916800375630226], [78.03327120296103, 11.916144628985696], [78.03280333579565, 11.9155311002892], [78.03227854109524, 11.914965496480622], [78.03206394109523, 11.914755496480621], [78.03150629033071, 11.914258584909193], [78.03090472630211, 11.913815847736041], [78.03026449291345, 11.913431144352883], [78.02959117115401, 11.9131078282641], [78.02889063044834, 11.912848717853853], [78.02816897749172, 11.91265607181789], [78.02778277749172, 11.912572071817891], [78.02738409589072, 11.91250747664042], [78.02720275736347, 11.912439295954005], [78.02664099892415, 11.912251508783275], [78.02578269892415, 11.911999508783275], [78.02490875902362, 11.911795381660994], [78.02401745488096, 11.911690425684174], [78.02367415488096, 11.911669425684174], [78.0231857, 11.911654500000001], [78.022542, 11.911654500000001], [78.02183851854282, 11.911685490410385], [78.02114048738039, 11.911778221540152], [78.0204323873804, 11.911904221540151], [78.01977576832867, 11.912049775970296], [78.01938802447567, 11.912170671372973], [78.01864778683135, 11.912064792435517], [78.01725298683135, 11.911938892435517], [78.0165338, 11.9119065], [78.0161905, 11.9119065], [78.01537955464306, 11.91194770815525], [78.01457696367667, 11.91207090809298], [78.01390006041969, 11.912246533266801], [78.01364487154744, 11.911683888686863], [78.01324062235983, 11.910988245524464], [78.01309042235984, 11.910757345524464], [78.0126829527234, 11.910187234077792], [78.012227155614, 11.909654967639526], [78.01172652826718, 11.90916463017832], [78.01146902826717, 11.90893363017832], [78.01085892948672, 11.90843818164637], [78.01020315998431, 11.90800498869922], [78.00950804885551, 11.907638232256435], [78.00878030489766, 11.907341452032119], [78.00802695186074, 11.907117512371716], [78.00734025186074, 11.906949612371717], [78.00664293388864, 11.90681162728614], [78.0059361201025, 11.906736085842013], [78.00561238055776, 11.906730391417184], [78.0055731764523, 11.906624342592417], [78.00527403555706, 11.905920561164647], [78.00490906394164, 11.905248557226262], [78.00448159649751, 11.904614471145765], [78.00399553916552, 11.904024096821042], [78.00345533324574, 11.903482828738202], [78.0028659148155, 11.90299561268], [78.00223266962652, 11.902566900534241], [78.00156138389315, 11.90220060961511], [78.00085819142134, 11.901900086869093], [78.00012951756172, 11.901668078292609], [77.99938202049847, 11.901506703840724], [77.99862253041098, 11.901417438056292], [77.99856350834243, 11.90141617651008], [77.99847548541592, 11.901373088364243], [77.99783423896913, 11.901093254331764], [77.9971709951342, 11.900870517476571], [77.9968061951342, 11.900765517476572], [77.99617831647947, 11.90061196902389], [77.99586711647947, 11.900549069023889], [77.99557020647293, 11.90050432437926], [77.99554537097696, 11.90048785338258], [77.994934885416, 11.900155388364283], [77.994806185416, 11.900092388364282], [77.99410953153638, 11.89979144340969], [77.99338749662286, 11.899557862423048], [77.99268389029962, 11.899366590801193], [77.99267638699077, 11.899352385901363], [77.9922387950357, 11.898621135967712], [77.99172590163798, 11.897940582114469], [77.99114352664051, 11.897318446641336], [77.9904982782996, 11.896761788969922], [77.98979747830042, 11.896276925539924], [77.9895077783004, 11.896098525539925], [77.98888316240108, 11.895751364131238], [77.98823005881655, 11.895461326593578], [77.98801555881656, 11.895377326593577], [77.9870549911223, 11.89506945473907], [77.98704449346565, 11.895066806872373], [77.98684295246892, 11.894513573445153], [77.98652040142127, 11.893752833565912], [77.98612110124549, 11.893029422402178], [77.98564931175284, 11.892351057443747], [77.98511006608462, 11.89172497561882], [77.9845091170176, 11.891157856089041], [77.98385287559233, 11.890655748994922], [77.98314834271889, 11.890224010911771], [77.98285874271889, 11.89006651091177], [77.98197823848281, 11.889654859487544], [77.98105431085476, 11.889353027840842], [77.98073241085476, 11.889269127840842], [77.98005373036307, 11.88912335871264], [77.97936496831494, 11.889036971852525], [77.97910746831494, 11.889015971852524], [77.97860215376252, 11.888990813332383], [77.97802275376253, 11.888980313332382], [77.97764756910493, 11.888982313577802], [77.97728286910493, 11.888992813577802], [77.97640536584876, 11.889066563356923], [77.97625516584877, 11.889087563356924], [77.9758703108695, 11.88915953021314], [77.97571964736622, 11.889081811232636], [77.97502684957429, 11.88876523716411], [77.97430708437966, 11.888515986314603], [77.97356687676786, 11.888336318251802], [77.9728129370438, 11.888227861745085], [77.97274437579372, 11.888224594093236], [77.97271239943952, 11.888219295057873], [77.97245489943953, 11.888187795057874], [77.9714835, 11.888128600000002], [77.9710758, 11.888128600000002], [77.96991397180429, 11.888213414895176], [77.9696993718043, 11.888244914895175], [77.96889106787032, 11.888406482818864], [77.9681036799501, 11.88865036743656], [77.96734556738987, 11.88897397953409], [77.96717386738987, 11.88905797953409], [77.96653402792631, 11.88940801545951], [77.96593992633568, 11.88980733922192], [77.96578312482725, 11.889899487009417], [77.9656439579319, 11.889907848327338], [77.96469989641601, 11.890079665356858], [77.964528296416, 11.890121665356858], [77.96384354615789, 11.890322014542962], [77.96317936879906, 11.890582573842135], [77.96294326879905, 11.890687573842134], [77.96266291016505, 11.890827557058351], [77.96242245383677, 11.890854025260465], [77.96158790466788, 11.89103757892848], [77.96077769387425, 11.891309098235757], [77.96004809387425, 11.891597798235757], [77.95937100600811, 11.891902786213114], [77.95872511553574, 11.892269243772029], [77.95834388860847, 11.892535088818518], [77.95812323000472, 11.892528233375895], [77.95739690947792, 11.892571811478906], [77.95722444577385, 11.892590060073728], [77.95672339155783, 11.892286482879607], [77.95602990827172, 11.891952780215586], [77.95539874964952, 11.891720773986028], [77.95503020929716, 11.891190387035799], [77.95451410326635, 11.890585863912342], [77.95394055448395, 11.89003554088353], [77.95331522507409, 11.88954485078681], [77.95264428834386, 11.88911863775808], [77.95103498834386, 11.888205237758081], [77.95034208790852, 11.887855269347606], [77.94961853087668, 11.88757410369667], [77.9488711298645, 11.887364388106848], [77.94810692199005, 11.88722809714512], [77.94733310261557, 11.887166514052444], [77.94655695759992, 11.887180218661442], [77.94578579469893, 11.887269081937033], [77.94470219469893, 11.887447581937034], [77.94389456281223, 11.88762390767611], [77.94310943842586, 11.887882634807674], [77.94235520470583, 11.888221000772655], [77.94198213364577, 11.88843713364703], [77.94132375246772, 11.888384714756246], [77.94066925246771, 11.888363714756245], [77.93988877001729, 11.88837677485014], [77.93911327573576, 11.888465836855497], [77.93835015285485, 11.888630052841593], [77.9376066668221, 11.88886785936083], [77.936889896129, 11.889176992333804], [77.93620666491883, 11.889554508604874], [77.93556347801626, 11.889996813963013], [77.93444777801626, 11.890847113963012], [77.93409413384717, 11.891132879036094], [77.93263493384717, 11.892382179036094], [77.93221247764578, 11.892770988645701], [77.93157768338702, 11.893398764604033], [77.93141658886306, 11.893371345405244], [77.93062484610661, 11.893316355390837], [77.92983155083148, 11.893340085130214], [77.92904451055672, 11.893442301078064], [77.92785361055672, 11.893657501078064], [77.92720713149092, 11.8938021959455], [77.9265748407969, 11.89399988323757], [77.92642988344721, 11.89405188533568], [77.92596703568228, 11.894019841909765], [77.92471173568228, 11.893993641909766], [77.92403069452143, 11.894008436117895], [77.92335338091392, 11.894081114921304], [77.9226847057637, 11.894211151357869], [77.92174060576369, 11.894436851357868], [77.9210796094507, 11.894625228668046], [77.92070669272415, 11.894767117873398], [77.92036593677928, 11.894649099101862], [77.91956547660489, 11.894461177676135], [77.91874995552998, 11.894356409697115], [77.91771995552998, 11.894277609697115], [77.91696041296136, 11.894255693035028], [77.91620221720736, 11.894305936962175], [77.91545220844057, 11.894427888195702], [77.91471715297355, 11.894620446534924], [77.91420598596933, 11.894807747128375], [77.91385524546907, 11.894787411936655], [77.91312104038691, 11.894778596791642], [77.91238911954831, 11.894837134774521], [77.91126791954831, 11.89497883477452], [77.91064815358277, 11.895082031031626], [77.91003839751953, 11.895233546254847], [77.90880999751953, 11.895590546254848], [77.90819400437772, 11.895797039294706], [77.90779196923603, 11.895969239262188], [77.90708113394038, 11.89595899087549], [77.90598683394037, 11.896011490875491], [77.90514527740393, 11.896096633384612], [77.90431741448104, 11.89627015465649], [77.90351249998909, 11.896530114867947], [77.90273953220114, 11.896873607880519], [77.90200715225274, 11.89729679372865], [77.90143466992967, 11.897669288751239], [77.90008537384476, 11.898024276123062], [77.89794002794112, 11.89850717374387], [77.89714936611831, 11.898728326922724], [77.89638553414166, 11.899029351104495], [77.8950802442812, 11.899622846845087], [77.8949517894045, 11.899660419310228], [77.89272658443123, 11.900087074003123], [77.8923921373113, 11.900101443946212], [77.89198858766967, 11.899998758054494], [77.89198849265173, 11.899998738785355], [77.89198839997933, 11.899998710297854], [77.89193023844093, 11.89998391220656], [77.89130781445361, 11.89979162792595], [77.8904680841395, 11.89958123401418], [77.88961053672658, 11.899462806681445], [77.88860203672658, 11.899378806681446], [77.88781716923573, 11.899352112556649], [77.88703346611837, 11.899402500832403], [77.88611076611836, 11.899507500832403], [77.88524461733483, 11.899654617923312], [77.88439982345885, 11.89989582418509], [77.88358657293095, 11.900228210605572], [77.88287847293095, 11.900564110605572], [77.88218042583405, 11.900938653058265], [77.88152284380823, 11.901380396963354], [77.88091217477196, 11.901885010802372], [77.88026847477197, 11.902472910802372], [77.87982453323987, 11.902911319430247], [77.87941610778955, 11.903382991838232], [77.87868815133477, 11.904293102315927], [77.87845842856989, 11.904223641615875], [77.87764204870369, 11.904066915234525], [77.87681381266957, 11.903995751224393], [77.87619151266958, 11.903974751224395], [77.8753800598859, 11.903988556936897], [77.87479914155344, 11.904057720834755], [77.87460967410848, 11.904018580674302], [77.8737606688366, 11.903935936674158], [77.87290769032255, 11.90394416084761], [77.87157729032255, 11.90402806084761], [77.87084564338097, 11.904108125852671], [77.87012445122289, 11.904255093615383], [77.86941981826271, 11.904467720150878], [77.86873770875222, 11.904744205716225], [77.86808389629707, 11.905082210044062], [77.86746391498706, 11.905478872151406], [77.86695318958567, 11.905839784768377], [77.8594173114984, 11.902790648905528], [77.85861275286493, 11.902513918295002], [77.85778335500603, 11.902324198456405], [77.85090461093328, 11.901131558120806], [77.85112988912717, 11.90091461183734], [77.85168147409281, 11.900327075390155], [77.85217114995712, 11.899687026486529], [77.85259394769557, 11.899000960073224], [77.85294557693476, 11.898275838063318], [77.85322246948924, 11.897519018689636], [77.85342181556994, 11.896738181836504], [77.85382951556994, 11.894722481836505], [77.85394779277684, 11.89394053652627], [77.85398828733722, 11.893150733920267], [77.8539506035256, 11.892360792215955], [77.85383510959997, 11.891578430970105], [77.85364293420298, 11.89081129566088], [77.85337595533257, 11.89006688297384], [77.84853605533256, 11.87841868297384], [77.8482046468417, 11.877718766804886], [77.84780711754378, 11.87705417317816], [77.84247601754379, 11.869048473178161], [77.84197835684854, 11.868379524602842], [77.83468568292525, 11.859574916572894], [77.82503314058634, 11.839906449608815], [77.82010966384071, 11.826867139034672], [77.81986703275322, 11.820691533266015], [77.8198670297794, 11.820691499696258], [77.81986703011002, 11.820691465996722], [77.81943523011003, 11.809703365996723], [77.81942318325768, 11.809477929775218], [77.81926117327781, 11.807081339886562], [77.8203243367989, 11.806090557066003], [77.82037901674464, 11.806050554672755], [77.82063431664311, 11.805843811658466], [77.8208928968975, 11.805641186477258], [77.82093927508164, 11.805596854933478], [77.82098913454756, 11.805556478512115], [77.82122294074819, 11.805325707255987], [77.82146041512718, 11.805098712473315], [77.82150222473655, 11.80505004854104], [77.82154788653413, 11.805004979460927], [77.82175794735531, 11.804752402416408], [77.82197202885088, 11.804503224116017], [77.82263696094591, 11.803647696417526], [77.82325638053102, 11.802860480735397], [77.82367832120308, 11.80227114093251], [77.82404518968646, 11.801646030662315], [77.82435397447624, 11.80099028125317], [77.82460214085782, 11.800309275540233], [77.82473631589335, 11.799881799478266], [77.82477894487042, 11.799803668302063], [77.82523747566695, 11.799085892409263], [77.82576932059293, 11.798109932248888], [77.82632722059293, 11.796891632248888], [77.82668547549461, 11.795959648981212], [77.82702877549461, 11.794867448981211], [77.82720926130808, 11.79419110131839], [77.82732993113149, 11.793501565181849], [77.82738986104633, 11.792804120062016], [77.82738859219425, 11.792104106005095], [77.82728129219426, 11.789751506005095], [77.82723541612566, 11.789186480717058], [77.82691351612566, 11.786434780717059], [77.82679770393023, 11.785723861505986], [77.82661841749116, 11.785026240575931], [77.82637711020122, 11.78434757321919], [77.82519691020121, 11.78144887321919], [77.82487464639044, 11.780754487492892], [77.82448748807167, 11.780094083119172], [77.82236318807168, 11.77683828311917], [77.82196422158006, 11.776280588394926], [77.82151896250024, 11.7757591077925], [77.82103068207876, 11.775277672545677], [77.81961448207875, 11.773996272545677], [77.81890725119621, 11.773425934406994], [77.8185208237025, 11.773180950381878], [77.81732719799528, 11.771490637694775], [77.81695549994481, 11.771004813117319], [77.81654776788292, 11.770548809250553], [77.8135875350859, 11.767482570943406], [77.812851520902, 11.766486522963469], [77.81238266038737, 11.765550200343807], [77.81186919744856, 11.763889802889638], [77.81160199234307, 11.763155048483373], [77.81126434216067, 11.762449885409856], [77.8108594717909, 11.761781048666242], [77.81039124814184, 11.761154926297701], [77.80986414320738, 11.760577498385334], [77.80928319135523, 11.760054279930559], [77.8086539412439, 11.759590268181435], [77.8079824028275, 11.759189894904074], [77.80727498995482, 11.758856984054926], [77.80645958995483, 11.758520884054926], [77.80569325053972, 11.758249679148129], [77.80490334484959, 11.758057644772704], [77.80432561349554, 11.75797809904713], [77.80411014761226, 11.7571990236182], [77.80390688634412, 11.756567327113352], [77.80191128634412, 11.751147427113352], [77.80155516636387, 11.750325401506291], [77.80110937214977, 11.749548346130098], [77.80002178177928, 11.747876956291684], [77.80014878336983, 11.747548585544418], [77.80042625755357, 11.746690134152452], [77.8006053115207, 11.745805899798981], [77.80068366812245, 11.744907127882437], [77.80071046812245, 11.744030027882436], [77.80069628157328, 11.74325056099232], [77.80060629394839, 11.742476175998712], [77.80044135980664, 11.74171422677478], [77.80030195980663, 11.74119422677478], [77.79997928334976, 11.740236900514532], [77.79908338334975, 11.738046700514532], [77.79867586529429, 11.737197036815902], [77.79817126441465, 11.73640118675555], [77.79744971750294, 11.735398997717704], [77.7974573083371, 11.734752668835455], [77.79747863283629, 11.733304487381686], [77.79745787608942, 11.73259889478074], [77.79737500123204, 11.731897878718822], [77.79723065351196, 11.731206897172934], [77.79713405351197, 11.730828697172935], [77.7968931069315, 11.730052272170868], [77.79657460678139, 11.729304309141803], [77.79618184202872, 11.728592531867976], [77.79581704202872, 11.728004231867976], [77.79541076386437, 11.727422347902573], [77.79549291483055, 11.726908773108699], [77.79553759999999, 11.7260644], [77.79553759999999, 11.7256442], [77.7954964213678, 11.724833544441058], [77.79537330939118, 11.724031234303888], [77.79529695735522, 11.72373684426089], [77.79543521040611, 11.723180536616205], [77.79555130873885, 11.722345594294527], [77.79557890525132, 11.721503070742399], [77.79556820525131, 11.720967270742397], [77.79554859288093, 11.720544879597405], [77.79552463462599, 11.720216497439484], [77.79561417361936, 11.719924947960278], [77.79580937556602, 11.719155046327332], [77.79592727172972, 11.718369582885165], [77.79595837887172, 11.717743718164826], [77.79597330724062, 11.717675795723201], [77.79611117036735, 11.71683924359565], [77.7961597264722, 11.715992799262866], [77.7961184301899, 11.71514596969271], [77.79607553018991, 11.714725769692711], [77.79599050095871, 11.71412182269939], [77.79593254429737, 11.713799666019515], [77.79613914649964, 11.712606263922849], [77.79623519405047, 11.71182370437219], [77.79633927455112, 11.710397092721355], [77.79658855295048, 11.709130804924524], [77.79671437524486, 11.708215345832544], [77.79673379167961, 11.707291484587058], [77.79669089167962, 11.70612538458706], [77.79663078298533, 11.705397746724822], [77.7965045862573, 11.704678619267744], [77.7963133526155, 11.703973991984755], [77.79605867488651, 11.703289733869681], [77.7957426743365, 11.702631544257121], [77.7955280743365, 11.702232344257121], [77.79498160997116, 11.701356484998636], [77.79470270997115, 11.700967784998635], [77.79438672855085, 11.700556264771873], [77.7931953898845, 11.699104704852891], [77.79143410755576, 11.696546258944418], [77.79109708581109, 11.696091966655205], [77.78908556709494, 11.69357184719089], [77.78890392529684, 11.693307849942519], [77.78823747781674, 11.691046536654678], [77.78803028642947, 11.690435543577866], [77.78777453478651, 11.68984323292628], [77.78734543478652, 11.688950232926281], [77.78698249038712, 11.688278946374439], [77.78655723598796, 11.68764529586529], [77.78563658008184, 11.68640563370673], [77.78562005166562, 11.68635369493195], [77.78546178669059, 11.685792941822696], [77.78547979025876, 11.68578026197492], [77.78604492124128, 11.685297935988526], [77.78656286886749, 11.684765261940864], [77.78702916574699, 11.684186834240348], [77.78743686574698, 11.683630034240348], [77.78784151030457, 11.683020821028064], [77.78818882839536, 11.682377199944023], [77.78847591731949, 11.681704550030881], [77.78870037774045, 11.681008492938805], [77.78886033373746, 11.680294845942711], [77.78895444848335, 11.679569573324578], [77.78899744848336, 11.679054673324577], [77.78902240455736, 11.67817743069304], [77.78895112209176, 11.677302732887902], [77.78878445890135, 11.676441106042235], [77.7885244206147, 11.675602918992887], [77.78839562061471, 11.675256218992887], [77.78810115796209, 11.674564921939838], [77.78774313585005, 11.673904300992076], [77.78732471270415, 11.673280184063678], [77.78718240129045, 11.673105831848734], [77.78726737402474, 11.672394050345265], [77.78728420164882, 11.671617274157207], [77.78726270164881, 11.670818774157206], [77.78720588160108, 11.670058431974699], [77.78707693541581, 11.669306952345146], [77.78687703438527, 11.668571161389567], [77.78673763438526, 11.668140361389566], [77.78643363628994, 11.667347324743893], [77.78604727859631, 11.666590985074226], [77.78562663667526, 11.665946820307477], [77.78574444280407, 11.665695274383785], [77.78601264280407, 11.665054274383785], [77.78628186771405, 11.664309198207006], [77.78647607953502, 11.663541147212635], [77.78659337371491, 11.66275765334749], [77.78663259999999, 11.6619664], [77.78663259999999, 11.6617563], [77.78660176414482, 11.661054571539117], [77.78650949429179, 11.660358252677531], [77.78635650174586, 11.659672711312137], [77.78625403467831, 11.65934994428839], [77.78628419355128, 11.65931030957363], [77.78666798078139, 11.658698333168502], [77.78699500119134, 11.658054232702815], [77.78732760119134, 11.657318632702816], [77.78758362534484, 11.656680715664082], [77.7877839438893, 11.656023175554113], [77.78792707795269, 11.655350866729707], [77.78801197083322, 11.654668752579205], [77.78817287083322, 11.652682852579204], [77.78819897237473, 11.652057823880657], [77.78817615631459, 11.65143266662694], [77.78812375243, 11.650740710185527], [77.78819904350694, 11.650628809055524], [77.78863157014308, 11.64990663105016], [77.78898581670416, 11.649143001731455], [77.78925786090379, 11.648346376150736], [77.78944469061607, 11.647525574700309], [77.78954423722634, 11.646689685452383], [77.78956573722634, 11.646363885452383], [77.7895746581728, 11.64546967929989], [77.78948372407214, 11.644580064093308], [77.78929407115197, 11.643706155633394], [77.78788857115197, 11.638620255633395], [77.7876614886908, 11.637924291783628], [77.78737173659893, 11.637252000292076], [77.78702174124284, 11.63660901088698], [77.78685004124284, 11.63632531088698], [77.7864110793005, 11.6356744135071], [77.78591043198007, 11.635069676170314], [77.78535292078892, 11.634516922827757], [77.7847439148646, 11.634021476796287], [77.78408927926708, 11.633588109492024], [77.78339531849501, 11.633220994479009], [77.78266871576997, 11.632923667275504], [77.78191646867344, 11.632698991305015], [77.78114582175617, 11.632549130319957], [77.78036419676923, 11.632475527563537], [77.77957912118853, 11.632478891870539], [77.7787981557211, 11.632559190840846], [77.77802882149129, 11.632715651151475], [77.7772785276083, 11.632946766004109], [77.77655449981238, 11.633250309636374], [77.77586371088698, 11.633623358757157], [77.77521281350711, 11.634062320699497], [77.77460807617032, 11.63456296801993], [77.77405532282776, 11.635120479211075], [77.7735598767963, 11.635729485135396], [77.77312650949203, 11.636384120732927], [77.77275939447901, 11.637078081505], [77.77246206727551, 11.637804684230026], [77.77223739130503, 11.63855693132656], [77.77208753031996, 11.639327578243842], [77.77201392756355, 11.64010920323078], [77.77201729187054, 11.640894278811471], [77.77209759084086, 11.641675244278908], [77.77225405115148, 11.642444578508716], [77.77248516600412, 11.643194872391707], [77.77268434405757, 11.643669962071456], [77.77296627961678, 11.644690165600851], [77.77267778766445, 11.645283480004291], [77.77241582495314, 11.64598059613072], [77.77221982074452, 11.64669905121355], [77.77214472074454, 11.64703525121355], [77.77201109982737, 11.64781113688462], [77.77195439106231, 11.648596399413998], [77.77197514368541, 11.649383433373059], [77.77210422162534, 11.651087816791627], [77.77015080832794, 11.653656879098165], [77.76967894234043, 11.654350071076292], [77.76960527468552, 11.654487257984202], [77.76959549119007, 11.654471070980746], [77.76951626317269, 11.65369290256879], [77.76905734186818, 11.647648357338571], [77.7689504569405, 11.64681851062984], [77.76875748356974, 11.646004366154992], [77.76848053261303, 11.64521482950902], [77.76770803261303, 11.643333829509022], [77.76732689465152, 11.642534730823257], [77.76685979198923, 11.641782640430963], [77.76538122102569, 11.639672220764933], [77.76524578938847, 11.639299631649404], [77.76491524039291, 11.638606017556684], [77.7645196754382, 11.637947313135355], [77.76406274338323, 11.637329594554418], [77.76386964338323, 11.637093194554419], [77.76337809238592, 11.636544983382889], [77.76283821993857, 11.636044288253958], [77.7628368669512, 11.636043144641041], [77.76275049239996, 11.635876523735313], [77.76249839239996, 11.635424623735313], [77.7621850738619, 11.634909608047186], [77.76183386376854, 11.6344196477063], [77.76151196376854, 11.6340045477063], [77.76097667211062, 11.63338290883415], [77.76038053355776, 11.63281935682038], [77.76014333048883, 11.632637261891007], [77.75997004788783, 11.632252040222738], [77.75959691864676, 11.63152441542742], [77.75821194649248, 11.6291331423388], [77.75817141477837, 11.628464605254784], [77.75808910539983, 11.62608826929683], [77.75801166081257, 11.625221056776972], [77.7578404334143, 11.624367396190573], [77.7570680334143, 11.621372396190573], [77.75680847366297, 11.62055147238458], [77.7564621952016, 11.619763196806531], [77.75603320883923, 11.619016699746489], [77.75487440883923, 11.617230199746489], [77.75441546187474, 11.616593412539569], [77.75389631935057, 11.616004667006495], [77.75225365818747, 11.614316490248589], [77.75081973514048, 11.612457090803122], [77.74865169744042, 11.609190008420178], [77.74599145165152, 11.604344789702509], [77.74582192451183, 11.604050966273002], [77.74409014668537, 11.601191289229746], [77.74380036946856, 11.600489468619367], [77.74332600624834, 11.598454577704345], [77.7431104690266, 11.597699661356657], [77.74282197493392, 11.596969506479633], [77.74246330232609, 11.59627114486388], [77.74203790541642, 11.595611302113522], [77.74154988100968, 11.59499633287495], [77.7410039290477, 11.594432159638112], [77.74040530734631, 11.593924215699683], [77.73975978095974, 11.593477392837462], [77.73907356665998, 11.593095994199869], [77.73835327306584, 11.59278369286428], [77.73760583699841, 11.592543496463279], [77.73683845667559, 11.592377718219508], [77.73605852238938, 11.592287954668082], [77.73527354533333, 11.592275070281069], [77.73449108526559, 11.592339189142159], [77.73371867770435, 11.59247969375167], [77.73296376135666, 11.592695230973405], [77.73223360647964, 11.592983725066093], [77.73153524486388, 11.593342397673915], [77.73087540211353, 11.593767794583588], [77.73026043287496, 11.594255818990323], [77.72969625963812, 11.594801770952307], [77.72918831569969, 11.595400392653694], [77.72874149283747, 11.596045919040261], [77.72836009419987, 11.596732133340026], [77.72804779286429, 11.59745242693416], [77.72780759646328, 11.598199863001595], [77.72764181821951, 11.598967243324415], [77.72755205466808, 11.599747177610618], [77.72753917028108, 11.600532154666672], [77.72760328914217, 11.601314614734413], [77.72774379375167, 11.602087022295656], [77.72836609375166, 11.604756522295656], [77.72853925972262, 11.60538304147843], [77.72876271751888, 11.605993434264409], [77.72953511751888, 11.607864134264409], [77.72978998048963, 11.608420131924316], [77.73008657548817, 11.608955033726998], [77.73204799648634, 11.612193919521069], [77.73478794834848, 11.61718431029749], [77.7351346797085, 11.6177575420807], [77.7376452797085, 11.6215408420807], [77.73797606627059, 11.622002821951805], [77.73986436627058, 11.624451421951806], [77.74046578064942, 11.625145032993506], [77.74187969476849, 11.626598124481326], [77.74190047083768, 11.626630154553494], [77.7421289684222, 11.627516159558173], [77.74218459460016, 11.629122130703172], [77.74219446235365, 11.629329330843756], [77.74232316235366, 11.631452130843755], [77.74241665564118, 11.632279027313285], [77.74259554099872, 11.633091738082863], [77.74285788283426, 11.633881469383661], [77.74343728283425, 11.635363169383663], [77.74368036866684, 11.635921225901049], [77.74396518135323, 11.636459184572582], [77.745546298898, 11.639189119483618], [77.74585575211216, 11.639877059777263], [77.74602662560507, 11.640233158200914], [77.74631102560507, 11.640790158200913], [77.74684991730015, 11.64169351199884], [77.74740781730016, 11.642502611998841], [77.74791842847254, 11.643165975371161], [77.7484955636596, 11.643772349602948], [77.7489675636596, 11.644218949602948], [77.74909471065354, 11.644330279947324], [77.74928003363189, 11.644674882837228], [77.74968434955241, 11.645285349999105], [77.7502637495524, 11.646078749999104], [77.75067533993752, 11.646596048351396], [77.75099218164434, 11.64693293749602], [77.75139146990256, 11.647585592341251], [77.75147996990255, 11.647714392341252], [77.75152150801077, 11.647774259569038], [77.75320308115283, 11.650174431841021], [77.75356995813182, 11.655006642661428], [77.75358814432036, 11.655211318622959], [77.75379194432037, 11.657213018622958], [77.75394584084933, 11.658158437069225], [77.75421162880683, 11.659078685373661], [77.75468902880682, 11.660423685373662], [77.75499825608877, 11.661172303778619], [77.75538159606035, 11.661885817264357], [77.75744354909214, 11.665297362865667], [77.75819977600109, 11.666638213343973], [77.75829364190473, 11.666854258915611], [77.75830386549148, 11.666896694257058], [77.75846571614731, 11.6679136521978], [77.75994384282743, 11.678098502056669], [77.7601419110045, 11.679051215700841], [77.76068632106721, 11.681050675133648], [77.76013000294259, 11.681594075484618], [77.7596248578973, 11.682195060899717], [77.7591810521352, 11.682842665278567], [77.75880285974846, 11.683530651836987], [77.75849392293647, 11.684252394888325], [77.75825721692961, 11.685000943652453], [77.75809502133613, 11.685769089195572], [77.75800889818827, 11.686549433856193], [77.75799967689899, 11.687334462488653], [77.75806744627438, 11.688116614838084], [77.7582115536583, 11.688888358349788], [77.75843061121786, 11.689642260711873], [77.75872250930902, 11.690371061432467], [77.75908443679359, 11.691067741762227], [77.76115529845963, 11.694616641399989], [77.76319367301603, 11.699357351108347], [77.76368039157353, 11.700308654162962], [77.76435954402736, 11.701442301395234], [77.76447662475036, 11.701710916689144], [77.76468680774751, 11.703151545982125], [77.76486029213146, 11.704009179156781], [77.76512640246838, 11.704842735862906], [77.76706084649962, 11.709924383460086], [77.76752568487387, 11.711323486432503], [77.76757341304622, 11.711630401126914], [77.7677257242953, 11.712374933685453], [77.76794799465391, 11.713101654632588], [77.76823821838403, 11.713804006135609], [77.7685937765455, 11.714475650268412], [77.76934529066081, 11.715745457084823], [77.76935640839284, 11.715774418718082], [77.76938614783286, 11.715975566163213], [77.76936738376882, 11.716001188459407], [77.76889101763614, 11.71673219706167], [77.76849709394855, 11.717510735690972], [77.76819029854079, 11.718327543408076], [77.7681043985408, 11.718600643408076], [77.76789887351508, 11.71939395822399], [77.76777558588152, 11.720204136656657], [77.76768245088059, 11.72113450264168], [77.76682603473807, 11.724235659899195], [77.76599340553861, 11.726427778738174], [77.7657533680405, 11.72716574050845], [77.7655816680405, 11.72779604050845], [77.76540556810166, 11.728605784961475], [77.76531417690488, 11.72942940193363], [77.76530847504529, 11.730258054307345], [77.76538357504529, 11.731928254307345], [77.76548740867656, 11.73290232239107], [77.76570951315134, 11.733856397680025], [77.76589372154119, 11.734473726871819], [77.7664562786717, 11.737150420564902], [77.76649367329354, 11.737417162228269], [77.76663895777703, 11.738181200884199], [77.7668577448126, 11.738927521781648], [77.76714796664857, 11.739649071457572], [77.7675068804045, 11.740339030561215], [77.76935228040449, 11.743500930561215], [77.76975748412696, 11.744126347692923], [77.77021912494145, 11.744711347183285], [77.77040142494145, 11.744921447183286], [77.770983701393, 11.745525399278435], [77.77162602330732, 11.746065053387712], [77.77232132711045, 11.74653447496862], [77.77306196658994, 11.746928501821372], [77.77383979697973, 11.747242800857304], [77.77464626452765, 11.747473915749563], [77.77530494322403, 11.747589820600016], [77.77498864291825, 11.74914229265533], [77.77485147516762, 11.750121797653593], [77.77471437516762, 11.751892397653592], [77.77470577608777, 11.753004149820843], [77.77474867608777, 11.753697349820843], [77.77481647776472, 11.754353131441665], [77.77493804605643, 11.755001103471967], [77.77613964605644, 11.760211003471968], [77.77634031134977, 11.760927201093036], [77.77660662389675, 11.761621667233095], [77.77705732389676, 11.762651067233096], [77.77749609782666, 11.763508626153113], [77.77805399782666, 11.764453926153113], [77.77852237329706, 11.765136333233858], [77.77874368174989, 11.765874065240045], [77.77878905350002, 11.766148093689015], [77.77891183575696, 11.766746756272836], [77.77904063575696, 11.767271956272836], [77.77927248756833, 11.768046029095311], [77.77958124304645, 11.768792764692202], [77.7806266665501, 11.77099852848158], [77.78133263101955, 11.77308325143006], [77.78128022873946, 11.775302775043555], [77.78130130756492, 11.77610182765925], [77.78140201987955, 11.776894788206324], [77.78158136024496, 11.777673740344051], [77.78304046024496, 11.78282014034405], [77.7832775147748, 11.783528430464118], [77.7851658147748, 11.788401730464118], [77.78553187381223, 11.789210203381183], [77.78710367381223, 11.792224503381183], [77.78757574256362, 11.793015176975425], [77.78813554703711, 11.793746362717995], [77.78823704971308, 11.793864214079901], [77.7880716788196, 11.794549318573374], [77.7879000788196, 11.795431518573373], [77.78779495046666, 11.796139830161072], [77.78775357987193, 11.796854704800257], [77.78777629848965, 11.797570415035107], [77.78786292430208, 11.798281226715146], [77.78801276327772, 11.7989814449363], [77.78813076327772, 11.7994330449363], [77.788438742478, 11.800370842315763], [77.789597442478, 11.803279942315763], [77.78992540460557, 11.803998070263813], [77.79032255126266, 11.804680376235973], [77.79078501481852, 11.805320215564546], [77.7913082915508, 11.805911357145172], [77.79188728550528, 11.806448044118712], [77.79204622286542, 11.806581409000803], [77.79212651398316, 11.807010049457345], [77.79235605446077, 11.80778867150646], [77.79266331751309, 11.808540023982273], [77.79304513957352, 11.809256370993431], [77.79344213957351, 11.809917970993432], [77.79389963145825, 11.810598673787643], [77.79442441269775, 11.811228959254166], [77.79482410923198, 11.811619585041056], [77.79492922468478, 11.81175161541087], [77.79503565395325, 11.811899833122391], [77.79523505695435, 11.812165695162848], [77.79756565695436, 11.81514219516285], [77.7978097583687, 11.815438976508721], [77.80078364471149, 11.818882633627435], [77.80396882237925, 11.82359653750894], [77.80417296724677, 11.828792566733984], [77.80418258921905, 11.828901183468608], [77.80418448921084, 11.829010209004352], [77.80421721068329, 11.829292004631046], [77.80424224365956, 11.829574587043561], [77.80426246560114, 11.829681737640723], [77.80427504281518, 11.829790051956941], [77.80433522752621, 11.830067283395243], [77.80438783788189, 11.830346051435727], [77.80441846504444, 11.830450703976693], [77.80444159835527, 11.830557263947215], [77.80452866669322, 11.83082726130695], [77.80460834776184, 11.831099530286659], [77.80464908518906, 11.831200676910203], [77.80468255181023, 11.831304456304311], [77.81019925181023, 11.845914856304312], [77.81050174217744, 11.846613436079839], [77.82073914217743, 11.867473636079838], [77.82120296710133, 11.868292989681965], [77.82175984315145, 11.869052175397158], [77.8293899596029, 11.878264185324447], [77.83405893712879, 11.885275577603537], [77.8364245255995, 11.890968845568674], [77.82960185895398, 11.893671259349553], [77.82336036882448, 11.89471747533054], [77.8231246066924, 11.894760634936137], [77.81656890669241, 11.896062534936137], [77.81649060788529, 11.896078491213544], [77.80667740788527, 11.898129391213544], [77.8062766372359, 11.898223976569446], [77.8042107328479, 11.898768040053659], [77.8017453478602, 11.899252111432528], [77.80059532061456, 11.899338898144084], [77.79296969135933, 11.898762052958693], [77.7909222929205, 11.898411101802331], [77.7905478677335, 11.898356002820455], [77.7887561677335, 11.898135502820454], [77.788145282022, 11.898083989556518], [77.78753224534812, 11.898079406396679], [77.78515044534812, 11.89815290639668], [77.78435390093163, 11.898217421296602], [77.78356776742015, 11.898361085077326], [77.7827998895071, 11.89858246414227], [77.7823867895071, 11.89872426414227], [77.78160102712708, 11.899041429816844], [77.78085321947243, 11.899439927363439], [77.78015175620405, 11.899915286034448], [77.77977085620405, 11.900203986034448], [77.77920554610887, 11.90067491266946], [77.77868589235581, 11.901195784415876], [77.77821629046375, 11.901762195452363], [77.77780071258523, 11.90236935476109], [77.77745702457467, 11.90298636349963], [77.77745469522458, 11.902985459415353], [77.7765758238616, 11.902693071730543], [77.77551502292891, 11.902081918877125], [77.77488042033995, 11.901753153860998], [77.7742190082087, 11.901482338657585], [77.77353606550189, 11.901271634739848], [77.7724719655019, 11.900994734739847], [77.77167404429812, 11.900829970550904], [77.77086350269008, 11.900747219194448], [77.77004874783674, 11.900747338990163], [77.76923823059806, 11.900830328695493], [77.76796443059806, 11.901026728695493], [77.7670352982772, 11.901227118756466], [77.76613649061116, 11.901536291565208], [77.76488529061116, 11.902051691565209], [77.76433127972992, 11.902304985768982], [77.76379814835249, 11.902599700791692], [77.75971669814113, 11.905063321183857], [77.75876817092195, 11.90557193831495], [77.75802313107276, 11.90602538967131], [77.75733188203043, 11.906557251750202], [77.75192058203044, 11.911211751750201], [77.75125931464054, 11.911850188487577], [77.75052971464054, 11.912640488487577], [77.75006999764265, 11.913185270293916], [77.74966059952109, 11.913768811305944], [77.74930477068543, 11.91438647850951], [77.74832804726924, 11.91627140339931], [77.74796001855891, 11.916293738870422], [77.74716521855892, 11.916379938870422], [77.74631915287146, 11.916517896940007], [77.7454927061794, 11.916745592881194], [77.74469536789316, 11.917060412247999], [77.74393629319512, 11.917458740227504], [77.74322419791831, 11.917936003145806], [77.7420877979183, 11.918789303145806], [77.74146431260738, 11.919308954005826], [77.74089668991384, 11.919889105216336], [77.73856776529081, 11.922524544890688], [77.73696357506212, 11.92375296973891], [77.7362525398101, 11.924366923304431], [77.73561837753432, 11.92505999495891], [77.73464057753432, 11.92626349495891], [77.7341960204561, 11.92686626712912], [77.73383272045609, 11.927410467129118], [77.73382007130829, 11.92742947341175], [77.73308037130829, 11.928544373411752], [77.7328541831129, 11.928905846844414], [77.7322150831129, 11.929990446844414], [77.73185018976193, 11.930685578363171], [77.73155518827579, 11.931413128436455], [77.73133291968007, 11.932166090359342], [77.73118552454285, 11.9329372126969], [77.73111442235987, 11.933719069119483], [77.73112029788403, 11.934504129922336], [77.73120309453081, 11.935284834540766], [77.73136201492326, 11.936053664362525], [77.7315955285711, 11.936803215136143], [77.73190138661026, 11.937526268277923], [77.73227664346064, 11.938215860390848], [77.7327176851936, 11.938865350325901], [77.7332202643362, 11.939468483139963], [77.73377954077651, 11.940019450334328], [77.7343901283767, 11.940512945793722], [77.73504614684441, 11.940944216887102], [77.73574127836318, 11.94130911023808], [77.73646882843646, 11.941604111724217], [77.73722179035934, 11.941826380319936], [77.7379929126969, 11.941973775457155], [77.73877476911949, 11.94204487764013], [77.73955982992234, 11.94203900211597], [77.74034053454076, 11.941956205469186], [77.74110936436253, 11.941797285076744], [77.74185891513615, 11.9415637714289], [77.74258196827792, 11.941257913389736], [77.74327156039085, 11.940882656539365], [77.74392105032591, 11.940441614806396], [77.74452418313997, 11.93993903566381], [77.74507515033433, 11.939379759223494], [77.74556864579372, 11.938769171623296], [77.7459999168871, 11.938113153155587], [77.74653074122949, 11.937212304960072]]], [[[77.98518946360578, 11.686250939028914], [77.98497465425883, 11.685618402149188], [77.98465055180782, 11.684903340902018], [77.98425792174008, 11.68422349046562], [77.98380054529783, 11.683585398171342], [77.98328282726618, 11.682995209196797], [77.98270975355284, 11.682458607384435], [77.9820868431709, 11.681980760503048], [77.98142009508791, 11.681566270479323], [77.98071593045235, 11.68121912907877], [77.9799811307546, 11.680942679462843], [77.97922277251743, 11.680739583992466], [77.97844815914524, 11.680611798588043], [77.97766475058825, 11.680560553892873], [77.9768800914991, 11.680586343421382], [77.97610173857377, 11.680688918806315], [77.97533718777642, 11.68086729219064], [77.97459380214919, 11.681119745741158], [77.97416200214919, 11.681290445741158], [77.97344694090201, 11.681614548192172], [77.97276709046561, 11.682007178259907], [77.97212899817134, 11.682464554702175], [77.97153880919679, 11.682982272733813], [77.97100220738443, 11.68355534644716], [77.97052436050305, 11.684178256829084], [77.97019964625221, 11.684700591727093], [77.97000810039529, 11.684895534630074], [77.96951540232976, 11.685506765848348], [77.9690849878762, 11.686163346676668], [77.96872100216105, 11.686858953882732], [77.96842695056574, 11.687586888388891], [77.96820566496788, 11.688340139787918], [77.96805927646874, 11.689111453857073], [77.96798919486959, 11.689893402420227], [77.96799609509453, 11.69067845488526], [77.96807991069063, 11.691459050767781], [77.9682398344679, 11.692227672502723], [77.96847432627291, 11.692976917842607], [77.96878112782142, 11.693699571145233], [77.96915728444678, 11.694388672864251], [77.96959917355507, 11.69503758657341], [77.97010253951261, 11.695640062878953], [77.97053543553166, 11.696065415316296], [77.97059555624247, 11.696127451424193], [77.9706582596956, 11.696186099164601], [77.97066253463008, 11.696190299604714], [77.97066703827484, 11.696194309937873], [77.97083055624248, 11.696347251424193], [77.97092496824602, 11.696427243056508], [77.97101379099608, 11.696513398768602], [77.97108319099608, 11.6965743987686], [77.97133620232131, 11.696775665753943], [77.97142955046188, 11.696854756016371], [77.9714758504389, 11.696886753886497], [77.97169758817763, 11.697063143169347], [77.97235693219734, 11.697489312677453], [77.97305487321185, 11.69784880304759], [77.97378468966767, 11.698138152190975], [77.97453935303336, 11.698354573517182], [77.97531159548818, 11.698495982770533], [77.97609397991513, 11.698561018102616], [77.9768789715245, 11.69854905318763], [77.97765901041795, 11.698460203254248], [77.97842658439454, 11.698295323975898], [77.97917430129726, 11.698056003230164], [77.97989496020361, 11.697744545806652], [77.98058162077436, 11.697363951210612], [77.98122767009285, 11.696917884776056], [77.98182688635097, 11.696410642366594], [77.981835706595, 11.696401549082909], [77.98185894736714, 11.696389636576527], [77.98251913413242, 11.695964773750532], [77.98313449807874, 11.695477247136358], [77.9836991129149, 11.694931751881805], [77.9842075410914, 11.694333541404372], [77.98465488616694, 11.693688376797974], [77.9850368399639, 11.693002471350452], [77.98534972405844, 11.69228243070622], [77.98559052520567, 11.691535189250295], [77.98575692435891, 11.690767943326385], [77.98584731900335, 11.689988081932153], [77.98586083858918, 11.689203115559142], [77.98579735291534, 11.68842060386263], [77.98565747338363, 11.687648082858018], [77.98544254711037, 11.686892992344887], [77.98518946360578, 11.686250939028914]]]]}}]}