{
  "type": "FeatureCollection",
  "name": "Tehri Study Area Boundary (Preliminary)",
  "crs": {
    "type": "name",
    "properties": {
      "name": "urn:ogc:def:crs:OGC:1.3:CRS84"
    }
  },
  "features": [
    {
      "type": "Feature",
      "properties": {
        "study_area": "Tehri Dam & Downstream Bhagirathi Valley",
        "boundary_status": "preliminary",
        "dam_name": "Tehri Dam",
        "river": "Bhagirathi",
        "state": "Uttarakhand",
        "min_lat": 30.3,
        "max_lat": 30.45,
        "min_lon": 78.4,
        "max_lon": 78.56,
        "description": "Tehri rockfill dam, reservoir basin, and the downstream Bhagirathi gorge toward Devprayag."
      },
      "geometry": {
        "type": "Polygon",
        "coordinates": [
          [
            [
              78.4,
              30.3
            ],
            [
              78.56,
              30.3
            ],
            [
              78.56,
              30.45
            ],
            [
              78.4,
              30.45
            ],
            [
              78.4,
              30.3
            ]
          ]
        ]
      }
    }
  ]
}