<?xml version="1.0" encoding="UTF-8"?>
<kml xmlns="http://www.opengis.net/kml/2.2">
  <Document>
    <name>Idukki Dam Break Inundation Extent</name>
    <description>Simulated Peak Inundation Area: 16.41 sq km. Max Depth: 51.59 m.</description>
    
        <Placemark>
          <name>Inundation Zone 1</name>
          <Style>
            <LineStyle><color>ff0000ff</color><width>2</width></LineStyle>
            <PolyStyle><color>7f0000ff</color></PolyStyle>
          </Style>
          <Polygon>
            <outerBoundaryIs>
              <LinearRing>
                <coordinates>76.89902777777779,9.994861111111112,0 76.90069444444445,9.993194444444445,0 76.90069444444445,9.992638888888889,0 76.90152777777779,9.992638888888889,0 76.90152777777779,9.992083333333333,0 76.90236111111112,9.991805555555556,0 76.90263888888889,9.990972222222222,0 76.90430555555557,9.990972222222222,0 76.90430555555557,9.990416666666667,0 76.9051388888889,9.990416666666667,0 76.90569444444445,9.990972222222222,0 76.90597222222223,9.990416666666667,0 76.9076388888889,9.98986111111111,0 76.90791666666667,9.989305555555555,0 76.90875000000001,9.989305555555555,0 76.90875000000001,9.989027777777778,0 76.90986111111111,9.988750000000001,0 76.9101388888889,9.988472222222223,0 76.90986111111111,9.987916666666667,0 76.9101388888889,9.98763888888889,0 76.90902777777778,9.987916666666667,0 76.90847222222223,9.988472222222223,0 76.90708333333333,9.988750000000001,0 76.90625,9.989583333333334,0 76.90541666666667,9.989305555555555,0 76.90541666666667,9.98986111111111,0 76.90486111111112,9.98986111111111,0 76.90486111111112,9.99013888888889,0 76.90402777777778,9.99013888888889,0 76.90402777777778,9.98986111111111,0 76.90319444444445,9.99013888888889,0 76.90319444444445,9.990416666666667,0 76.90236111111112,9.99013888888889,0 76.90208333333334,9.990694444444445,0 76.90125,9.990694444444445,0 76.90097222222222,9.99125,0 76.90041666666667,9.99125,0 76.89986111111112,9.992083333333333,0 76.89875,9.992083333333333,0 76.89847222222222,9.993472222222223,0 76.89819444444444,9.993472222222223,0 76.89819444444444,9.994305555555556,0 76.89847222222222,9.994305555555556,0 76.89847222222222,9.994861111111112,0 76.89902777777779,9.994861111111112,0</coordinates>
              </LinearRing>
            </outerBoundaryIs>
          </Polygon>
        </Placemark>
        
        <Placemark>
          <name>Inundation Zone 2</name>
          <Style>
            <LineStyle><color>ff0000ff</color><width>2</width></LineStyle>
            <PolyStyle><color>7f0000ff</color></PolyStyle>
          </Style>
          <Polygon>
            <outerBoundaryIs>
              <LinearRing>
                <coordinates>76.89763888888889,9.995416666666667,0 76.89791666666667,9.995138888888889,0 76.89763888888889,9.995138888888889,0 76.89763888888889,9.995416666666667,0</coordinates>
              </LinearRing>
            </outerBoundaryIs>
          </Polygon>
        </Placemark>
        
        <Placemark>
          <name>Inundation Zone 3</name>
          <Style>
            <LineStyle><color>ff0000ff</color><width>2</width></LineStyle>
            <PolyStyle><color>7f0000ff</color></PolyStyle>
          </Style>
          <Polygon>
            <outerBoundaryIs>
              <LinearRing>
                <coordinates>76.87347222222223,10.005972222222223,0 76.87375,10.005694444444446,0 76.87347222222223,10.005694444444446,0 76.87347222222223,10.005972222222223,0</coordinates>
              </LinearRing>
            </outerBoundaryIs>
          </Polygon>
        </Placemark>
        
        <Placemark>
          <name>Inundation Zone 4</name>
          <Style>
            <LineStyle><color>ff0000ff</color><width>2</width></LineStyle>
            <PolyStyle><color>7f0000ff</color></PolyStyle>
          </Style>
          <Polygon>
            <outerBoundaryIs>
              <LinearRing>
                <coordinates>76.85902777777778,10.01513888888889,0 76.85930555555557,10.014861111111111,0 76.85902777777778,10.014861111111111,0 76.85902777777778,10.01513888888889,0</coordinates>
              </LinearRing>
            </outerBoundaryIs>
          </Polygon>
        </Placemark>
        
        <Placemark>
          <name>Inundation Zone 5</name>
          <Style>
            <LineStyle><color>ff0000ff</color><width>2</width></LineStyle>
            <PolyStyle><color>7f0000ff</color></PolyStyle>
          </Style>
          <Polygon>
            <outerBoundaryIs>
              <LinearRing>
                <coordinates>76.81597222222223,10.031527777777779,0 76.81597222222223,10.030694444444444,0 76.81541666666668,10.030694444444444,0 76.8151388888889,10.030972222222223,0 76.81541666666668,10.031527777777779,0 76.81458333333333,10.031805555555556,0 76.81458333333333,10.032083333333334,0 76.81541666666668,10.032083333333334,0 76.81597222222223,10.031527777777779,0</coordinates>
              </LinearRing>
            </outerBoundaryIs>
          </Polygon>
        </Placemark>
        
        <Placemark>
          <name>Inundation Zone 6</name>
          <Style>
            <LineStyle><color>ff0000ff</color><width>2</width></LineStyle>
            <PolyStyle><color>7f0000ff</color></PolyStyle>
          </Style>
          <Polygon>
            <outerBoundaryIs>
              <LinearRing>
                <coordinates>76.81486111111111,10.033194444444446,0 76.81486111111111,10.032916666666667,0 76.81430555555556,10.032916666666667,0 76.81430555555556,10.033194444444446,0 76.81486111111111,10.033194444444446,0</coordinates>
              </LinearRing>
            </outerBoundaryIs>
          </Polygon>
        </Placemark>
        
        <Placemark>
          <name>Inundation Zone 7</name>
          <Style>
            <LineStyle><color>ff0000ff</color><width>2</width></LineStyle>
            <PolyStyle><color>7f0000ff</color></PolyStyle>
          </Style>
          <Polygon>
            <outerBoundaryIs>
              <LinearRing>
                <coordinates>76.80902777777779,10.03486111111111,0 76.80875,10.03513888888889,0 76.80902777777779,10.03513888888889,0 76.80902777777779,10.03486111111111,0</coordinates>
              </LinearRing>
            </outerBoundaryIs>
          </Polygon>
        </Placemark>
        
        <Placemark>
          <name>Inundation Zone 8</name>
          <Style>
            <LineStyle><color>ff0000ff</color><width>2</width></LineStyle>
            <PolyStyle><color>7f0000ff</color></PolyStyle>
          </Style>
          <Polygon>
            <outerBoundaryIs>
              <LinearRing>
                <coordinates>76.80875,10.035972222222222,0 76.80875,10.036527777777778,0 76.80847222222222,10.036527777777778,0 76.80708333333334,10.03513888888889,0 76.80708333333334,10.035694444444445,0 76.80652777777779,10.035972222222222,0 76.80708333333334,10.036527777777778,0 76.80652777777779,10.036527777777778,0 76.80597222222222,10.037083333333333,0 76.80597222222222,10.037916666666668,0 76.80513888888889,10.037916666666668,0 76.80513888888889,10.03875,0 76.80430555555556,10.03875,0 76.80430555555556,10.038194444444445,0 76.80152777777778,10.038472222222223,0 76.80152777777778,10.03875,0 76.79902777777778,10.03875,0 76.79902777777778,10.039027777777779,0 76.7976388888889,10.03875,0 76.79736111111112,10.039583333333335,0 76.79680555555557,10.039583333333335,0 76.79736111111112,10.04013888888889,0 76.79708333333333,10.040972222222223,0 76.79597222222223,10.04125,0 76.79597222222223,10.041527777777778,0 76.7951388888889,10.041527777777778,0 76.79486111111112,10.042083333333334,0 76.79375,10.042083333333334,0 76.79347222222222,10.04263888888889,0 76.79236111111112,10.042361111111111,0 76.79152777777779,10.041527777777778,0 76.79041666666667,10.041527777777778,0 76.79013888888889,10.042361111111111,0 76.78902777777779,10.042361111111111,0 76.78930555555556,10.04263888888889,0 76.78930555555556,10.043194444444445,0 76.78902777777779,10.043194444444445,0 76.78902777777779,10.042916666666667,0 76.78847222222223,10.042916666666667,0 76.78847222222223,10.042361111111111,0 76.78875000000001,10.042361111111111,0 76.78847222222223,10.041805555555555,0 76.78902777777779,10.041805555555555,0 76.78875000000001,10.04125,0 76.78819444444444,10.04125,0 76.78791666666667,10.041805555555555,0 76.78708333333334,10.041527777777778,0 76.78708333333334,10.042083333333334,0 76.78652777777778,10.042361111111111,0 76.78652777777778,10.042916666666667,0 76.78597222222223,10.043472222222222,0 76.78430555555556,10.043750000000001,0 76.78458333333334,10.044027777777778,0 76.78458333333334,10.044861111111112,0 76.78347222222223,10.044583333333334,0 76.78291666666667,10.04513888888889,0 76.78291666666667,10.045416666666668,0 76.78347222222223,10.045416666666668,0 76.78375000000001,10.04625,0 76.78152777777778,10.045972222222224,0 76.78069444444445,10.046805555555556,0 76.78125,10.047361111111112,0 76.78125,10.047916666666667,0 76.78041666666667,10.047916666666667,0 76.78041666666667,10.047638888888889,0 76.77958333333333,10.047638888888889,0 76.77930555555557,10.048194444444444,0 76.77847222222222,10.048194444444444,0 76.77847222222222,10.047916666666667,0 76.77791666666667,10.047916666666667,0 76.77791666666667,10.048194444444444,0 76.77597222222222,10.047916666666667,0 76.77569444444445,10.04875,0 76.77513888888889,10.04875,0 76.77513888888889,10.049027777777779,0 76.77458333333334,10.04875,0 76.77402777777779,10.049305555555556,0 76.77402777777779,10.049861111111111,0 76.77458333333334,10.049861111111111,0 76.77541666666667,10.050694444444446,0 76.77736111111112,10.050694444444446,0 76.77708333333334,10.051527777777778,0 76.77763888888889,10.051527777777778,0 76.77791666666667,10.050972222222223,0 76.77875,10.050972222222223,0 76.77875,10.052083333333334,0 76.77902777777778,10.052083333333334,0 76.77902777777778,10.05263888888889,0 76.77958333333333,10.05263888888889,0 76.77930555555557,10.052916666666667,0 76.77958333333333,10.05375,0 76.77875,10.05375,0 76.77819444444445,10.053194444444445,0 76.77819444444445,10.05263888888889,0 76.77763888888889,10.05263888888889,0 76.77763888888889,10.053194444444445,0 76.77708333333334,10.05375,0 76.77625,10.05375,0 76.77625,10.054305555555556,0 76.77680555555555,10.054305555555556,0 76.77680555555555,10.054583333333333,0 76.77430555555556,10.054583333333333,0 76.77458333333334,10.05375,0 76.77319444444444,10.05375,0 76.77319444444444,10.054027777777778,0 76.77236111111111,10.054027777777778,0 76.77236111111111,10.054583333333333,0 76.77097222222223,10.054861111111112,0 76.77097222222223,10.055694444444445,0 76.76902777777778,10.055972222222223,0 76.76930555555556,10.055694444444445,0 76.76902777777778,10.055138888888889,0 76.76791666666666,10.055694444444445,0 76.76791666666666,10.055138888888889,0 76.76708333333333,10.055138888888889,0 76.76680555555556,10.054861111111112,0 76.76652777777778,10.055416666666668,0 76.76486111111112,10.055694444444445,0 76.76486111111112,10.055972222222223,0 76.76375,10.055972222222223,0 76.76375,10.05625,0 76.76263888888889,10.05625,0 76.76236111111112,10.056805555555556,0 76.76180555555555,10.056805555555556,0 76.76208333333334,10.057638888888889,0 76.76097222222222,10.058194444444444,0 76.76069444444445,10.059027777777779,0 76.76152777777779,10.059027777777779,0 76.76180555555555,10.05875,0 76.76208333333334,10.059305555555556,0 76.76097222222222,10.06013888888889,0 76.76097222222222,10.060694444444445,0 76.76069444444445,10.060694444444445,0 76.76097222222222,10.061250000000001,0 76.76069444444445,10.061527777777778,0 76.75986111111112,10.061805555555557,0 76.75986111111112,10.062083333333334,0 76.75930555555556,10.062083333333334,0 76.75930555555556,10.062361111111112,0 76.75819444444446,10.062361111111112,0 76.75819444444446,10.06263888888889,0 76.75736111111111,10.062361111111112,0 76.75736111111111,10.06263888888889,0 76.75597222222223,10.06263888888889,0 76.75569444444444,10.062916666666668,0 76.75625000000001,10.063472222222222,0 76.75763888888889,10.063194444444445,0 76.75763888888889,10.064583333333333,0 76.75569444444444,10.064305555555556,0 76.75569444444444,10.064583333333333,0 76.75375000000001,10.064861111111112,0 76.75319444444445,10.065416666666668,0 76.7501388888889,10.065416666666668,0 76.7501388888889,10.06763888888889,0 76.75069444444445,10.067916666666667,0 76.75069444444445,10.068750000000001,0 76.7501388888889,10.069027777777778,0 76.7501388888889,10.07625,0 76.75041666666667,10.07625,0 76.75041666666667,10.075694444444444,0 76.75125,10.075694444444444,0 76.75125,10.07625,0 76.75180555555556,10.075694444444444,0 76.75236111111111,10.075694444444444,0 76.7526388888889,10.075138888888889,0 76.75208333333333,10.075138888888889,0 76.75208333333333,10.074861111111112,0 76.75291666666668,10.074583333333333,0 76.75291666666668,10.074305555555556,0 76.75486111111111,10.074305555555556,0 76.75541666666668,10.07375,0 76.75541666666668,10.073194444444445,0 76.75625000000001,10.073472222222223,0 76.75625000000001,10.072083333333333,0 76.75708333333334,10.072361111111112,0 76.75736111111111,10.071527777777778,0 76.75819444444446,10.071805555555557,0 76.75875,10.071250000000001,0 76.75819444444446,10.070416666666667,0 76.75847222222222,10.070416666666667,0 76.75847222222222,10.069583333333334,0 76.75930555555556,10.068750000000001,0 76.75902777777779,10.068194444444446,0 76.76097222222222,10.068194444444446,0 76.76097222222222,10.068472222222223,0 76.76152777777779,10.068472222222223,0 76.76208333333334,10.069027777777778,0 76.76180555555555,10.069861111111111,0 76.76402777777778,10.069861111111111,0 76.76402777777778,10.069305555555555,0 76.76263888888889,10.069305555555555,0 76.76180555555555,10.067916666666667,0 76.76347222222223,10.06763888888889,0 76.76430555555557,10.06625,0 76.76541666666667,10.065972222222223,0 76.7651388888889,10.064583333333333,0 76.76569444444445,10.064027777777778,0 76.76680555555556,10.064027777777778,0 76.76680555555556,10.06375,0 76.7676388888889,10.064027777777778,0 76.7676388888889,10.063194444444445,0 76.76930555555556,10.063194444444445,0 76.76930555555556,10.063472222222222,0 76.7701388888889,10.06375,0 76.7701388888889,10.064305555555556,0 76.76930555555556,10.064583333333333,0 76.76986111111111,10.065138888888889,0 76.77125000000001,10.065138888888889,0 76.77152777777778,10.064305555555556,0 76.77236111111111,10.064305555555556,0 76.77263888888889,10.064861111111112,0 76.77319444444444,10.064861111111112,0 76.77319444444444,10.064305555555556,0 76.77291666666667,10.064305555555556,0 76.77319444444444,10.064027777777778,0 76.77319444444444,10.062916666666668,0 76.77152777777778,10.062916666666668,0 76.77152777777778,10.06263888888889,0 76.77069444444444,10.06263888888889,0 76.77097222222223,10.062083333333334,0 76.76986111111111,10.062083333333334,0 76.76986111111111,10.061805555555557,0 76.76875000000001,10.061805555555557,0 76.76875000000001,10.062083333333334,0 76.76847222222223,10.061805555555557,0 76.7676388888889,10.061805555555557,0 76.76791666666666,10.060972222222222,0 76.77152777777778,10.060972222222222,0 76.77236111111111,10.06013888888889,0 76.77319444444444,10.06013888888889,0 76.77319444444444,10.059861111111111,0 76.77569444444445,10.059583333333334,0 76.77708333333334,10.060972222222222,0 76.77680555555555,10.061527777777778,0 76.77763888888889,10.061527777777778,0 76.77791666666667,10.061250000000001,0 76.77791666666667,10.060416666666667,0 76.77847222222222,10.060694444444445,0 76.77930555555557,10.059861111111111,0 76.78152777777778,10.059861111111111,0 76.78152777777778,10.059583333333334,0 76.78236111111111,10.059583333333334,0 76.78236111111111,10.059305555555556,0 76.78458333333334,10.059305555555556,0 76.78458333333334,10.05875,0 76.7851388888889,10.058194444444444,0 76.78652777777778,10.058472222222223,0 76.78652777777778,10.057916666666667,0 76.78763888888889,10.057638888888889,0 76.78763888888889,10.057083333333335,0 76.78652777777778,10.057083333333335,0 76.78625000000001,10.056527777777779,0 76.78763888888889,10.05625,0 76.78763888888889,10.055694444444445,0 76.78791666666667,10.055694444444445,0 76.78819444444444,10.054861111111112,0 76.78958333333334,10.054583333333333,0 76.78958333333334,10.054305555555556,0 76.78902777777779,10.054305555555556,0 76.78930555555556,10.05375,0 76.78847222222223,10.05375,0 76.78791666666667,10.053194444444445,0 76.78819444444444,10.052083333333334,0 76.78875000000001,10.051527777777778,0 76.79041666666667,10.051527777777778,0 76.79041666666667,10.051250000000001,0 76.79125,10.051527777777778,0 76.79152777777779,10.050972222222223,0 76.79180555555556,10.051250000000001,0 76.79263888888889,10.050972222222223,0 76.79291666666667,10.05013888888889,0 76.79347222222222,10.050416666666667,0 76.79375,10.049583333333334,0 76.79430555555557,10.049583333333334,0 76.79430555555557,10.049861111111111,0 76.79569444444445,10.049583333333334,0 76.79569444444445,10.049027777777779,0 76.79625,10.049027777777779,0 76.79625,10.048472222222223,0 76.79569444444445,10.048194444444444,0 76.79597222222223,10.047916666666667,0 76.79569444444445,10.047638888888889,0 76.79597222222223,10.046805555555556,0 76.79652777777778,10.046805555555556,0 76.79680555555557,10.047638888888889,0 76.79736111111112,10.047638888888889,0 76.79791666666667,10.047083333333333,0 76.79847222222223,10.047916666666667,0 76.79958333333335,10.047916666666667,0 76.79986111111111,10.04875,0 76.80069444444445,10.04875,0 76.80041666666668,10.047916666666667,0 76.79958333333335,10.047361111111112,0 76.79958333333335,10.046527777777778,0 76.80041666666668,10.046527777777778,0 76.80097222222223,10.045972222222224,0 76.80097222222223,10.045416666666668,0 76.80041666666668,10.045416666666668,0 76.80041666666668,10.044305555555557,0 76.80097222222223,10.043750000000001,0 76.80208333333334,10.043750000000001,0 76.80208333333334,10.044583333333334,0 76.80236111111111,10.044861111111112,0 76.8026388888889,10.044583333333334,0 76.80402777777778,10.044583333333334,0 76.80430555555556,10.043750000000001,0 76.80458333333334,10.043750000000001,0 76.80458333333334,10.043194444444445,0 76.80513888888889,10.043750000000001,0 76.80513888888889,10.043194444444445,0 76.80569444444446,10.04263888888889,0 76.80625,10.04263888888889,0 76.80652777777779,10.042083333333334,0 76.80736111111112,10.041805555555555,0 76.80736111111112,10.040694444444444,0 76.80819444444445,10.039861111111112,0 76.80875,10.039861111111112,0 76.80875,10.040694444444444,0 76.80847222222222,10.040694444444444,0 76.80819444444445,10.042083333333334,0 76.80763888888889,10.042361111111111,0 76.80763888888889,10.043194444444445,0 76.80736111111112,10.043194444444445,0 76.80736111111112,10.044583333333334,0 76.80763888888889,10.044861111111112,0 76.80819444444445,10.044861111111112,0 76.80902777777779,10.044027777777778,0 76.80875,10.043194444444445,0 76.80847222222222,10.043194444444445,0 76.80847222222222,10.042361111111111,0 76.80875,10.042361111111111,0 76.80875,10.041805555555555,0 76.80902777777779,10.041805555555555,0 76.80902777777779,10.042361111111111,0 76.80958333333334,10.042361111111111,0 76.80986111111112,10.04125,0 76.81069444444445,10.041527777777778,0 76.81069444444445,10.041805555555555,0 76.81180555555557,10.041527777777778,0 76.81208333333333,10.042361111111111,0 76.81291666666667,10.04263888888889,0 76.81319444444445,10.041805555555555,0 76.81375,10.041805555555555,0 76.81319444444445,10.04125,0 76.81430555555556,10.04125,0 76.81458333333333,10.04013888888889,0 76.81541666666668,10.040694444444444,0 76.81569444444445,10.040416666666667,0 76.81569444444445,10.039583333333335,0 76.81625000000001,10.039583333333335,0 76.81652777777778,10.038472222222223,0 76.81708333333334,10.038472222222223,0 76.81736111111111,10.037916666666668,0 76.8176388888889,10.038194444444445,0 76.81902777777778,10.038194444444445,0 76.81875000000001,10.037916666666668,0 76.81902777777778,10.037083333333333,0 76.82013888888889,10.037083333333333,0 76.81986111111111,10.036805555555556,0 76.81986111111111,10.035416666666666,0 76.82069444444446,10.035694444444445,0 76.82152777777779,10.036527777777778,0 76.82236111111112,10.036527777777778,0 76.82236111111112,10.035972222222222,0 76.82347222222222,10.035972222222222,0 76.82375,10.034305555555557,0 76.82513888888889,10.034305555555557,0 76.82541666666667,10.034027777777778,0 76.82513888888889,10.032916666666667,0 76.82569444444445,10.032361111111111,0 76.82625,10.032361111111111,0 76.82625,10.031805555555556,0 76.82680555555557,10.031527777777779,0 76.82652777777778,10.03125,0 76.82652777777778,10.030416666666667,0 76.82680555555557,10.030138888888889,0 76.82736111111112,10.030138888888889,0 76.82791666666667,10.029583333333333,0 76.82958333333333,10.029027777777777,0 76.83041666666666,10.028194444444445,0 76.83125000000001,10.028194444444445,0 76.83152777777778,10.02763888888889,0 76.83236111111111,10.027916666666668,0 76.83236111111111,10.028472222222224,0 76.83291666666668,10.027916666666668,0 76.8326388888889,10.027361111111112,0 76.83347222222223,10.027361111111112,0 76.83347222222223,10.02763888888889,0 76.83402777777778,10.027361111111112,0 76.83402777777778,10.027916666666668,0 76.83486111111111,10.027916666666668,0 76.83513888888889,10.027361111111112,0 76.83652777777779,10.02763888888889,0 76.83652777777779,10.027083333333334,0 76.83736111111112,10.027083333333334,0 76.83763888888889,10.026527777777778,0 76.84097222222222,10.026250000000001,0 76.84152777777778,10.025694444444445,0 76.84236111111112,10.025694444444445,0 76.84291666666667,10.024583333333334,0 76.84402777777778,10.024583333333334,0 76.84430555555556,10.024861111111111,0 76.84486111111111,10.024027777777778,0 76.84569444444445,10.024027777777778,0 76.84597222222223,10.022916666666667,0 76.84819444444445,10.02263888888889,0 76.84819444444445,10.022083333333335,0 76.84875000000001,10.022083333333335,0 76.84930555555556,10.021527777777779,0 76.85097222222223,10.02125,0 76.85125000000001,10.020694444444445,0 76.85180555555556,10.020972222222223,0 76.85263888888889,10.020138888888889,0 76.85347222222222,10.020138888888889,0 76.85347222222222,10.019583333333333,0 76.85402777777779,10.019583333333333,0 76.85458333333334,10.019027777777778,0 76.85513888888889,10.019027777777778,0 76.85541666666667,10.018472222222222,0 76.85652777777779,10.018194444444445,0 76.85736111111112,10.017083333333334,0 76.85875,10.016805555555557,0 76.85875,10.016250000000001,0 76.85986111111112,10.016250000000001,0 76.8601388888889,10.016527777777778,0 76.86041666666667,10.015972222222222,0 76.85986111111112,10.015416666666667,0 76.86041666666667,10.01513888888889,0 76.86097222222223,10.015694444444446,0 76.86125,10.014861111111111,0 76.86208333333335,10.014583333333334,0 76.86208333333335,10.014305555555556,0 76.8626388888889,10.014305555555556,0 76.8626388888889,10.01375,0 76.86291666666668,10.01375,0 76.86319444444445,10.013194444444444,0 76.8651388888889,10.012916666666667,0 76.86541666666668,10.012361111111112,0 76.86597222222223,10.012638888888889,0 76.86680555555556,10.01152777777778,0 76.86875,10.01125,0 76.86986111111112,10.01013888888889,0 76.87069444444445,10.01013888888889,0 76.87069444444445,10.009861111111112,0 76.87125,10.009861111111112,0 76.87180555555555,10.009305555555557,0 76.87236111111112,10.009305555555557,0 76.8726388888889,10.008750000000001,0 76.87319444444445,10.008750000000001,0 76.87430555555557,10.007361111111111,0 76.8751388888889,10.007361111111111,0 76.87541666666667,10.006805555555555,0 76.87625,10.006805555555555,0 76.87680555555556,10.006250000000001,0 76.8776388888889,10.006250000000001,0 76.8776388888889,10.005972222222223,0 76.87875000000001,10.005694444444446,0 76.87930555555556,10.00513888888889,0 76.88041666666668,10.00513888888889,0 76.8801388888889,10.004305555555556,0 76.88097222222223,10.004305555555556,0 76.88180555555556,10.003194444444444,0 76.88319444444446,10.002916666666668,0 76.88319444444446,10.002638888888889,0 76.88402777777779,10.002638888888889,0 76.88402777777779,10.002361111111112,0 76.88458333333334,10.002361111111112,0 76.88458333333334,10.001805555555556,0 76.88597222222222,10.001805555555556,0 76.88569444444445,10.00125,0 76.88625,10.000694444444445,0 76.88708333333334,10.000416666666668,0 76.88680555555555,10.00125,0 76.88736111111112,10.00125,0 76.88791666666667,10.000416666666668,0 76.88847222222223,10.000416666666668,0 76.88902777777778,9.999861111111112,0 76.88902777777778,9.999305555555557,0 76.8901388888889,9.999027777777778,0 76.8901388888889,9.998750000000001,0 76.89208333333333,9.998472222222222,0 76.89208333333333,9.99763888888889,0 76.89236111111111,9.997361111111111,0 76.89319444444445,9.997361111111111,0 76.89319444444445,9.997916666666667,0 76.89236111111111,9.997916666666667,0 76.89236111111111,9.998472222222222,0 76.8926388888889,9.998194444444445,0 76.89347222222223,9.998194444444445,0 76.89347222222223,9.99763888888889,0 76.89430555555556,9.997361111111111,0 76.89430555555556,9.997083333333334,0 76.8951388888889,9.997083333333334,0 76.89541666666668,9.99625,0 76.89625000000001,9.99625,0 76.89680555555556,9.995694444444444,0 76.89763888888889,9.995694444444444,0 76.89736111111111,9.995138888888889,0 76.89763888888889,9.994861111111112,0 76.89847222222222,9.995138888888889,0 76.89847222222222,9.994861111111112,0 76.89763888888889,9.994027777777779,0 76.89736111111111,9.994861111111112,0 76.89569444444444,9.995138888888889,0 76.89486111111111,9.995972222222223,0 76.89375000000001,9.995972222222223,0 76.89347222222223,9.996527777777779,0 76.89236111111111,9.996805555555556,0 76.89208333333333,9.997361111111111,0 76.89069444444445,9.99763888888889,0 76.89069444444445,9.997916666666667,0 76.88986111111112,9.997916666666667,0 76.88986111111112,9.998194444444445,0 76.88875,9.998472222222222,0 76.88875,9.998750000000001,0 76.88763888888889,9.998750000000001,0 76.88736111111112,9.999305555555557,0 76.88680555555555,9.999027777777778,0 76.88652777777779,9.999861111111112,0 76.88541666666667,9.999861111111112,0 76.88513888888889,10.000416666666668,0 76.88430555555556,10.000416666666668,0 76.88430555555556,10.000972222222222,0 76.88375,10.000972222222222,0 76.88375,10.00125,0 76.88347222222222,10.00125,0 76.88347222222222,10.000694444444445,0 76.88236111111111,10.000694444444445,0 76.88208333333334,10.001527777777778,0 76.88125000000001,10.001527777777778,0 76.88097222222223,10.002083333333333,0 76.87986111111111,10.002083333333333,0 76.87902777777778,10.002916666666668,0 76.87930555555556,10.003194444444444,0 76.87930555555556,10.004027777777779,0 76.87875000000001,10.004027777777779,0 76.87875000000001,10.003472222222223,0 76.87791666666668,10.003472222222223,0 76.87791666666668,10.004027777777779,0 76.87736111111111,10.004027777777779,0 76.87736111111111,10.004305555555556,0 76.87625,10.004583333333334,0 76.87625,10.004861111111111,0 76.87541666666667,10.004861111111111,0 76.8751388888889,10.005416666666667,0 76.87458333333333,10.005416666666667,0 76.87430555555557,10.006250000000001,0 76.87375,10.005972222222223,0 76.87347222222223,10.006805555555555,0 76.8726388888889,10.007083333333334,0 76.87291666666667,10.00763888888889,0 76.87236111111112,10.008194444444445,0 76.87180555555555,10.008194444444445,0 76.87125,10.008750000000001,0 76.87069444444445,10.008750000000001,0 76.87069444444445,10.008472222222222,0 76.86986111111112,10.008750000000001,0 76.86958333333334,10.008472222222222,0 76.86930555555556,10.008750000000001,0 76.86930555555556,10.009583333333333,0 76.86847222222222,10.009861111111112,0 76.86819444444446,10.010416666666668,0 76.86569444444444,10.010694444444445,0 76.86541666666668,10.01125,0 76.86458333333334,10.01125,0 76.86375000000001,10.012361111111112,0 76.86291666666668,10.012361111111112,0 76.86291666666668,10.012916666666667,0 76.86125,10.013472222222223,0 76.86097222222223,10.014027777777779,0 76.8601388888889,10.01375,0 76.86041666666667,10.014305555555556,0 76.85930555555557,10.014583333333334,0 76.85986111111112,10.01513888888889,0 76.85958333333333,10.015416666666667,0 76.85875,10.01513888888889,0 76.85875,10.015694444444446,0 76.85819444444445,10.016250000000001,0 76.85597222222222,10.016527777777778,0 76.85569444444445,10.017083333333334,0 76.85513888888889,10.017083333333334,0 76.85458333333334,10.01763888888889,0 76.85430555555556,10.017361111111112,0 76.85319444444445,10.017361111111112,0 76.85236111111112,10.018472222222222,0 76.85097222222223,10.018472222222222,0 76.85041666666667,10.019027777777778,0 76.85041666666667,10.019583333333333,0 76.84930555555556,10.019583333333333,0 76.84930555555556,10.019027777777778,0 76.84902777777778,10.019027777777778,0 76.84902777777778,10.019305555555556,0 76.84736111111111,10.019861111111112,0 76.84736111111111,10.020138888888889,0 76.84625000000001,10.020138888888889,0 76.84625000000001,10.019861111111112,0 76.84597222222223,10.020138888888889,0 76.84486111111111,10.020138888888889,0 76.8451388888889,10.020694444444445,0 76.84430555555556,10.020972222222223,0 76.84458333333333,10.02263888888889,0 76.84375,10.02263888888889,0 76.84375,10.022083333333335,0 76.84319444444445,10.022083333333335,0 76.84291666666667,10.02263888888889,0 76.84208333333333,10.02263888888889,0 76.84208333333333,10.022361111111111,0 76.84097222222222,10.022361111111111,0 76.84041666666667,10.021805555555556,0 76.83986111111112,10.021805555555556,0 76.83958333333334,10.022361111111111,0 76.84013888888889,10.022916666666667,0 76.83930555555555,10.02375,0 76.83791666666667,10.02375,0 76.83763888888889,10.022916666666667,0 76.83541666666667,10.022916666666667,0 76.83513888888889,10.02375,0 76.83402777777778,10.02375,0 76.83375000000001,10.022916666666667,0 76.8326388888889,10.022916666666667,0 76.8326388888889,10.023194444444446,0 76.83180555555556,10.023194444444446,0 76.83180555555556,10.024305555555555,0 76.83041666666666,10.024305555555555,0 76.8301388888889,10.024583333333334,0 76.8301388888889,10.025694444444445,0 76.82902777777778,10.025972222222222,0 76.82902777777778,10.026527777777778,0 76.82819444444445,10.026527777777778,0 76.82819444444445,10.026250000000001,0 76.82736111111112,10.026527777777778,0 76.82736111111112,10.026250000000001,0 76.82680555555557,10.026250000000001,0 76.82597222222223,10.025416666666667,0 76.82597222222223,10.025694444444445,0 76.82541666666667,10.025694444444445,0 76.82513888888889,10.026527777777778,0 76.82402777777779,10.026527777777778,0 76.82402777777779,10.026805555555557,0 76.82347222222222,10.026527777777778,0 76.82319444444445,10.027083333333334,0 76.82208333333334,10.027083333333334,0 76.82208333333334,10.02763888888889,0 76.82152777777779,10.027916666666668,0 76.82152777777779,10.02875,0 76.82180555555556,10.029027777777777,0 76.82263888888889,10.029027777777777,0 76.82263888888889,10.029583333333333,0 76.82319444444445,10.029583333333333,0 76.82319444444445,10.030138888888889,0 76.82236111111112,10.030972222222223,0 76.82180555555556,10.030972222222223,0 76.82125,10.032083333333334,0 76.82041666666667,10.032083333333334,0 76.81986111111111,10.03263888888889,0 76.81902777777778,10.03263888888889,0 76.81902777777778,10.032916666666667,0 76.81597222222223,10.033194444444446,0 76.81569444444445,10.033472222222223,0 76.81597222222223,10.03513888888889,0 76.8151388888889,10.03486111111111,0 76.81486111111111,10.035694444444445,0 76.81458333333333,10.035694444444445,0 76.81430555555556,10.033194444444446,0 76.81402777777778,10.033194444444446,0 76.81458333333333,10.03263888888889,0 76.81458333333333,10.032083333333334,0 76.81402777777778,10.032083333333334,0 76.81402777777778,10.029583333333333,0 76.81319444444445,10.029583333333333,0 76.81291666666667,10.030138888888889,0 76.81208333333333,10.030138888888889,0 76.81208333333333,10.030416666666667,0 76.81291666666667,10.030694444444444,0 76.81291666666667,10.030972222222223,0 76.81347222222223,10.030972222222223,0 76.81347222222223,10.031805555555556,0 76.81152777777778,10.032361111111111,0 76.81152777777778,10.032916666666667,0 76.81097222222223,10.03263888888889,0 76.81041666666667,10.033472222222223,0 76.80958333333334,10.033472222222223,0 76.80986111111112,10.034027777777778,0 76.80902777777779,10.03486111111111,0 76.80986111111112,10.03486111111111,0 76.80986111111112,10.035416666666666,0 76.80930555555555,10.035416666666666,0 76.80930555555555,10.035972222222222,0 76.80875,10.035972222222222,0</coordinates>
              </LinearRing>
            </outerBoundaryIs>
          </Polygon>
        </Placemark>
        
        <Placemark>
          <name>Inundation Zone 9</name>
          <Style>
            <LineStyle><color>ff0000ff</color><width>2</width></LineStyle>
            <PolyStyle><color>7f0000ff</color></PolyStyle>
          </Style>
          <Polygon>
            <outerBoundaryIs>
              <LinearRing>
                <coordinates>76.80875,10.035972222222222,0 76.80875,10.035694444444445,0 76.80819444444445,10.035694444444445,0 76.80819444444445,10.035972222222222,0 76.80875,10.035972222222222,0</coordinates>
              </LinearRing>
            </outerBoundaryIs>
          </Polygon>
        </Placemark>
        
        <Placemark>
          <name>Inundation Zone 10</name>
          <Style>
            <LineStyle><color>ff0000ff</color><width>2</width></LineStyle>
            <PolyStyle><color>7f0000ff</color></PolyStyle>
          </Style>
          <Polygon>
            <outerBoundaryIs>
              <LinearRing>
                <coordinates>76.81680555555556,10.04013888888889,0 76.81625000000001,10.039583333333335,0 76.81625000000001,10.040416666666667,0 76.81680555555556,10.04013888888889,0</coordinates>
              </LinearRing>
            </outerBoundaryIs>
          </Polygon>
        </Placemark>
        
        <Placemark>
          <name>Inundation Zone 11</name>
          <Style>
            <LineStyle><color>ff0000ff</color><width>2</width></LineStyle>
            <PolyStyle><color>7f0000ff</color></PolyStyle>
          </Style>
          <Polygon>
            <outerBoundaryIs>
              <LinearRing>
                <coordinates>76.78069444444445,10.046805555555556,0 76.78069444444445,10.046527777777778,0 76.7801388888889,10.046527777777778,0 76.7801388888889,10.046805555555556,0 76.78069444444445,10.046805555555556,0</coordinates>
              </LinearRing>
            </outerBoundaryIs>
          </Polygon>
        </Placemark>
        
        <Placemark>
          <name>Inundation Zone 12</name>
          <Style>
            <LineStyle><color>ff0000ff</color><width>2</width></LineStyle>
            <PolyStyle><color>7f0000ff</color></PolyStyle>
          </Style>
          <Polygon>
            <outerBoundaryIs>
              <LinearRing>
                <coordinates>76.77541666666667,10.051250000000001,0 76.77569444444445,10.050972222222223,0 76.77541666666667,10.050972222222223,0 76.77541666666667,10.051250000000001,0</coordinates>
              </LinearRing>
            </outerBoundaryIs>
          </Polygon>
        </Placemark>
        
        <Placemark>
          <name>Inundation Zone 13</name>
          <Style>
            <LineStyle><color>ff0000ff</color><width>2</width></LineStyle>
            <PolyStyle><color>7f0000ff</color></PolyStyle>
          </Style>
          <Polygon>
            <outerBoundaryIs>
              <LinearRing>
                <coordinates>76.77652777777779,10.061250000000001,0 76.77680555555555,10.060972222222222,0 76.77652777777779,10.060972222222222,0 76.77652777777779,10.061250000000001,0</coordinates>
              </LinearRing>
            </outerBoundaryIs>
          </Polygon>
        </Placemark>
        
        <Placemark>
          <name>Inundation Zone 14</name>
          <Style>
            <LineStyle><color>ff0000ff</color><width>2</width></LineStyle>
            <PolyStyle><color>7f0000ff</color></PolyStyle>
          </Style>
          <Polygon>
            <outerBoundaryIs>
              <LinearRing>
                <coordinates>76.75569444444444,10.063472222222222,0 76.75569444444444,10.063194444444445,0 76.75486111111111,10.063194444444445,0 76.75486111111111,10.063472222222222,0 76.75569444444444,10.063472222222222,0</coordinates>
              </LinearRing>
            </outerBoundaryIs>
          </Polygon>
        </Placemark>
        
        <Placemark>
          <name>Inundation Zone 15</name>
          <Style>
            <LineStyle><color>ff0000ff</color><width>2</width></LineStyle>
            <PolyStyle><color>7f0000ff</color></PolyStyle>
          </Style>
          <Polygon>
            <outerBoundaryIs>
              <LinearRing>
                <coordinates>76.75375000000001,10.063472222222222,0 76.75319444444445,10.064027777777778,0 76.75486111111111,10.06375,0 76.75486111111111,10.063472222222222,0 76.75375000000001,10.063472222222222,0</coordinates>
              </LinearRing>
            </outerBoundaryIs>
          </Polygon>
        </Placemark>
        
        <Placemark>
          <name>Inundation Zone 16</name>
          <Style>
            <LineStyle><color>ff0000ff</color><width>2</width></LineStyle>
            <PolyStyle><color>7f0000ff</color></PolyStyle>
          </Style>
          <Polygon>
            <outerBoundaryIs>
              <LinearRing>
                <coordinates>76.77347222222222,10.065138888888889,0 76.77319444444444,10.064861111111112,0 76.77319444444444,10.065138888888889,0 76.77347222222222,10.065138888888889,0</coordinates>
              </LinearRing>
            </outerBoundaryIs>
          </Polygon>
        </Placemark>
        
        <Placemark>
          <name>Inundation Zone 17</name>
          <Style>
            <LineStyle><color>ff0000ff</color><width>2</width></LineStyle>
            <PolyStyle><color>7f0000ff</color></PolyStyle>
          </Style>
          <Polygon>
            <outerBoundaryIs>
              <LinearRing>
                <coordinates>76.75041666666667,10.068194444444446,0 76.7501388888889,10.067916666666667,0 76.7501388888889,10.068194444444446,0 76.75041666666667,10.068194444444446,0</coordinates>
              </LinearRing>
            </outerBoundaryIs>
          </Polygon>
        </Placemark>
        
        <Placemark>
          <name>Inundation Zone 18</name>
          <Style>
            <LineStyle><color>ff0000ff</color><width>2</width></LineStyle>
            <PolyStyle><color>7f0000ff</color></PolyStyle>
          </Style>
          <Polygon>
            <outerBoundaryIs>
              <LinearRing>
                <coordinates>76.96375,9.857361111111112,0 76.96541666666667,9.856805555555557,0 76.96541666666667,9.856250000000001,0 76.96597222222222,9.855972222222222,0 76.96597222222222,9.855416666666667,0 76.96680555555557,9.854583333333334,0 76.96736111111112,9.854583333333334,0 76.96736111111112,9.85375,0 76.9676388888889,9.853472222222223,0 76.96847222222223,9.85375,0 76.96902777777778,9.852916666666667,0 76.96986111111111,9.852916666666667,0 76.96986111111111,9.852083333333335,0 76.96930555555556,9.852083333333335,0 76.96791666666667,9.850694444444445,0 76.96680555555557,9.850416666666668,0 76.96625,9.849583333333333,0 76.96597222222222,9.849583333333333,0 76.96597222222222,9.850138888888889,0 76.96652777777778,9.850694444444445,0 76.96708333333333,9.850694444444445,0 76.96708333333333,9.85125,0 76.96791666666667,9.851805555555556,0 76.96791666666667,9.852361111111112,0 76.96736111111112,9.85263888888889,0 76.96736111111112,9.853194444444444,0 76.96708333333333,9.853194444444444,0 76.96708333333333,9.85375,0 76.96652777777778,9.854305555555555,0 76.96597222222222,9.854305555555555,0 76.96597222222222,9.854583333333334,0 76.96513888888889,9.854861111111111,0 76.96513888888889,9.855416666666667,0 76.96430555555555,9.856250000000001,0 76.96375,9.856250000000001,0 76.96375,9.856527777777778,0 76.96208333333334,9.856250000000001,0 76.96208333333334,9.857361111111112,0 76.96263888888889,9.857361111111112,0 76.96236111111112,9.85763888888889,0 76.96263888888889,9.857916666666668,0 76.96236111111112,9.858194444444445,0 76.96263888888889,9.85875,0 76.96291666666667,9.85875,0 76.96291666666667,9.858194444444445,0 76.96375,9.857916666666668,0 76.96375,9.857361111111112,0</coordinates>
              </LinearRing>
            </outerBoundaryIs>
          </Polygon>
        </Placemark>
        
        <Placemark>
          <name>Inundation Zone 19</name>
          <Style>
            <LineStyle><color>ff0000ff</color><width>2</width></LineStyle>
            <PolyStyle><color>7f0000ff</color></PolyStyle>
          </Style>
          <Polygon>
            <outerBoundaryIs>
              <LinearRing>
                <coordinates>76.96347222222222,9.85875,0 76.96291666666667,9.85875,0 76.96291666666667,9.859305555555556,0 76.96402777777779,9.859305555555556,0 76.96347222222222,9.85875,0</coordinates>
              </LinearRing>
            </outerBoundaryIs>
          </Polygon>
        </Placemark>
        
        <Placemark>
          <name>Inundation Zone 20</name>
          <Style>
            <LineStyle><color>ff0000ff</color><width>2</width></LineStyle>
            <PolyStyle><color>7f0000ff</color></PolyStyle>
          </Style>
          <Polygon>
            <outerBoundaryIs>
              <LinearRing>
                <coordinates>76.9676388888889,9.887083333333333,0 76.96791666666667,9.887916666666667,0 76.96819444444445,9.887916666666667,0 76.96819444444445,9.887083333333333,0 76.9676388888889,9.887083333333333,0</coordinates>
              </LinearRing>
            </outerBoundaryIs>
          </Polygon>
        </Placemark>
        
        <Placemark>
          <name>Inundation Zone 21</name>
          <Style>
            <LineStyle><color>ff0000ff</color><width>2</width></LineStyle>
            <PolyStyle><color>7f0000ff</color></PolyStyle>
          </Style>
          <Polygon>
            <outerBoundaryIs>
              <LinearRing>
                <coordinates>76.97319444444445,9.895138888888889,0 76.97347222222223,9.894861111111112,0 76.97319444444445,9.894861111111112,0 76.97319444444445,9.895138888888889,0</coordinates>
              </LinearRing>
            </outerBoundaryIs>
          </Polygon>
        </Placemark>
        
        <Placemark>
          <name>Inundation Zone 22</name>
          <Style>
            <LineStyle><color>ff0000ff</color><width>2</width></LineStyle>
            <PolyStyle><color>7f0000ff</color></PolyStyle>
          </Style>
          <Polygon>
            <outerBoundaryIs>
              <LinearRing>
                <coordinates>76.97291666666668,9.92763888888889,0 76.97236111111111,9.927083333333334,0 76.97152777777778,9.92736111111111,0 76.97180555555556,9.92763888888889,0 76.97180555555556,9.928472222222222,0 76.97041666666667,9.929861111111112,0 76.97041666666667,9.932916666666667,0 76.9701388888889,9.932916666666667,0 76.9701388888889,9.933472222222223,0 76.97097222222223,9.93375,0 76.97069444444445,9.934583333333334,0 76.97180555555556,9.93513888888889,0 76.97208333333334,9.935972222222222,0 76.9726388888889,9.935972222222222,0 76.9726388888889,9.936527777777778,0 76.97319444444445,9.937083333333334,0 76.97291666666668,9.937361111111112,0 76.97291666666668,9.938194444444445,0 76.97347222222223,9.938194444444445,0 76.97347222222223,9.93875,0 76.97402777777778,9.939305555555556,0 76.97458333333334,9.939027777777778,0 76.97486111111111,9.939583333333333,0 76.97597222222223,9.939861111111112,0 76.97597222222223,9.940416666666668,0 76.97652777777779,9.940416666666668,0 76.97652777777779,9.941527777777779,0 76.97736111111112,9.941805555555556,0 76.97736111111112,9.942361111111111,0 76.97791666666667,9.942916666666667,0 76.97847222222222,9.94263888888889,0 76.97847222222222,9.943472222222223,0 76.97986111111112,9.944583333333334,0 76.97986111111112,9.94513888888889,0 76.98069444444445,9.945694444444445,0 76.98069444444445,9.946250000000001,0 76.98152777777779,9.946805555555557,0 76.98125,9.947361111111112,0 76.98208333333334,9.947916666666668,0 76.98236111111112,9.947361111111112,0 76.98208333333334,9.947361111111112,0 76.98125,9.94513888888889,0 76.98069444444445,9.944861111111111,0 76.98069444444445,9.944305555555555,0 76.98013888888889,9.944027777777778,0 76.98013888888889,9.943194444444446,0 76.97930555555556,9.94263888888889,0 76.97930555555556,9.941527777777779,0 76.97819444444445,9.940694444444444,0 76.97819444444445,9.940138888888889,0 76.97736111111112,9.940138888888889,0 76.97736111111112,9.93875,0 76.97763888888889,9.938472222222222,0 76.97569444444444,9.93875,0 76.97486111111111,9.937916666666668,0 76.97513888888889,9.937083333333334,0 76.97430555555556,9.936805555555557,0 76.97430555555556,9.936250000000001,0 76.97347222222223,9.936250000000001,0 76.97319444444445,9.93513888888889,0 76.9726388888889,9.934861111111111,0 76.97291666666668,9.934583333333334,0 76.9726388888889,9.934305555555556,0 76.9726388888889,9.933472222222223,0 76.97208333333334,9.932916666666667,0 76.97236111111111,9.932083333333335,0 76.97152777777778,9.931527777777779,0 76.97152777777778,9.930416666666668,0 76.97180555555556,9.930416666666668,0 76.97208333333334,9.929305555555556,0 76.97291666666668,9.929305555555556,0 76.97347222222223,9.92875,0 76.97347222222223,9.928194444444445,0 76.97402777777778,9.928194444444445,0 76.97486111111111,9.92736111111111,0 76.97541666666667,9.92736111111111,0 76.97541666666667,9.926805555555557,0 76.97652777777779,9.926527777777778,0 76.97680555555556,9.925972222222223,0 76.97791666666667,9.925694444444446,0 76.97847222222222,9.924861111111111,0 76.97902777777779,9.924861111111111,0 76.97902777777779,9.923472222222223,0 76.97930555555556,9.923472222222223,0 76.97930555555556,9.922916666666667,0 76.97902777777779,9.922916666666667,0 76.97930555555556,9.922361111111112,0 76.97847222222222,9.922083333333333,0 76.97847222222222,9.92125,0 76.97708333333334,9.920416666666668,0 76.97708333333334,9.919861111111112,0 76.97541666666667,9.918472222222222,0 76.97541666666667,9.917361111111111,0 76.97486111111111,9.917083333333334,0 76.97486111111111,9.916527777777778,0 76.97430555555556,9.915972222222223,0 76.97375000000001,9.915972222222223,0 76.97375000000001,9.915416666666667,0 76.97319444444445,9.915416666666667,0 76.97319444444445,9.914861111111112,0 76.9726388888889,9.914583333333335,0 76.9726388888889,9.913472222222223,0 76.97319444444445,9.913194444444445,0 76.97319444444445,9.912638888888889,0 76.97375000000001,9.912638888888889,0 76.97430555555556,9.912083333333333,0 76.97430555555556,9.91125,0 76.97513888888889,9.910416666666666,0 76.97513888888889,9.909305555555557,0 76.97569444444444,9.909027777777778,0 76.97569444444444,9.908472222222223,0 76.97625000000001,9.908472222222223,0 76.97680555555556,9.907916666666667,0 76.97847222222222,9.907916666666667,0 76.97930555555556,9.907083333333334,0 76.97930555555556,9.906805555555556,0 76.97875,9.906805555555556,0 76.97875,9.90625,0 76.97819444444445,9.905694444444444,0 76.97763888888889,9.905416666666667,0 76.97763888888889,9.904861111111112,0 76.97708333333334,9.904583333333333,0 76.97680555555556,9.901527777777778,0 76.97625000000001,9.900972222222222,0 76.97652777777779,9.90013888888889,0 76.97569444444444,9.899583333333334,0 76.97597222222223,9.89875,0 76.97680555555556,9.89875,0 76.97597222222223,9.897916666666667,0 76.97652777777779,9.897916666666667,0 76.97652777777779,9.897083333333335,0 76.97708333333334,9.896805555555556,0 76.97708333333334,9.895694444444445,0 76.97763888888889,9.895694444444445,0 76.97763888888889,9.894583333333333,0 76.97791666666667,9.894583333333333,0 76.97791666666667,9.892916666666666,0 76.97819444444445,9.892916666666666,0 76.97819444444445,9.892083333333334,0 76.97763888888889,9.891805555555557,0 76.97791666666667,9.89013888888889,0 76.97736111111112,9.890694444444446,0 76.97541666666667,9.890694444444446,0 76.97513888888889,9.891250000000001,0 76.97486111111111,9.890972222222222,0 76.97402777777778,9.890972222222222,0 76.97402777777778,9.89013888888889,0 76.97458333333334,9.889861111111111,0 76.97458333333334,9.889305555555556,0 76.97513888888889,9.889305555555556,0 76.97513888888889,9.888472222222223,0 76.97541666666667,9.888472222222223,0 76.97513888888889,9.887916666666667,0 76.97569444444444,9.887916666666667,0 76.97569444444444,9.887083333333333,0 76.97513888888889,9.886805555555556,0 76.97541666666667,9.884305555555557,0 76.97597222222223,9.884027777777778,0 76.97625000000001,9.883194444444445,0 76.97680555555556,9.883194444444445,0 76.97708333333334,9.884305555555557,0 76.97763888888889,9.884305555555557,0 76.97763888888889,9.884583333333333,0 76.97791666666667,9.884305555555557,0 76.97875,9.884305555555557,0 76.97902777777779,9.885416666666668,0 76.97958333333334,9.885416666666668,0 76.97958333333334,9.88652777777778,0 76.97930555555556,9.886805555555556,0 76.97986111111112,9.887083333333333,0 76.98069444444445,9.885416666666668,0 76.98152777777779,9.885416666666668,0 76.98180555555557,9.885694444444445,0 76.98319444444445,9.884305555555557,0 76.98375,9.884305555555557,0 76.98430555555557,9.883472222222222,0 76.98486111111112,9.883472222222222,0 76.98541666666667,9.88263888888889,0 76.98375,9.88263888888889,0 76.98375,9.882361111111111,0 76.98319444444445,9.882361111111111,0 76.98291666666667,9.882916666666667,0 76.98208333333334,9.882916666666667,0 76.98180555555557,9.883750000000001,0 76.98041666666667,9.883750000000001,0 76.98013888888889,9.883472222222222,0 76.98041666666667,9.882361111111111,0 76.98180555555557,9.88263888888889,0 76.98097222222222,9.881805555555555,0 76.98097222222222,9.880972222222223,0 76.98041666666667,9.880972222222223,0 76.97958333333334,9.882916666666667,0 76.97847222222222,9.882916666666667,0 76.97847222222222,9.88263888888889,0 76.97763888888889,9.882916666666667,0 76.97736111111112,9.882361111111111,0 76.97652777777779,9.882361111111111,0 76.97652777777779,9.882083333333334,0 76.97569444444444,9.882361111111111,0 76.97541666666667,9.883194444444445,0 76.97402777777778,9.884305555555557,0 76.97402777777778,9.885416666666668,0 76.97319444444445,9.885972222222223,0 76.97291666666668,9.886805555555556,0 76.97236111111111,9.886805555555556,0 76.97236111111111,9.88625,0 76.97208333333334,9.88625,0 76.97208333333334,9.886805555555556,0 76.97125000000001,9.88652777777778,0 76.97125000000001,9.88625,0 76.97041666666667,9.88652777777778,0 76.9701388888889,9.885972222222223,0 76.97069444444445,9.885972222222223,0 76.97069444444445,9.885694444444445,0 76.9701388888889,9.885694444444445,0 76.9701388888889,9.884861111111112,0 76.97069444444445,9.884861111111112,0 76.97069444444445,9.884305555555557,0 76.97180555555556,9.883472222222222,0 76.97152777777778,9.882916666666667,0 76.97208333333334,9.88263888888889,0 76.97208333333334,9.882083333333334,0 76.97375000000001,9.881805555555555,0 76.97375000000001,9.881250000000001,0 76.97319444444445,9.880694444444446,0 76.97375000000001,9.88013888888889,0 76.97430555555556,9.88013888888889,0 76.97513888888889,9.879027777777779,0 76.97625000000001,9.87875,0 76.97680555555556,9.878194444444444,0 76.97680555555556,9.877638888888889,0 76.97763888888889,9.876805555555556,0 76.97847222222222,9.876527777777778,0 76.97847222222222,9.875694444444445,0 76.97875,9.875416666666668,0 76.97819444444445,9.875416666666668,0 76.97736111111112,9.87625,0 76.97652777777779,9.87625,0 76.97652777777779,9.876805555555556,0 76.97597222222223,9.876805555555556,0 76.97597222222223,9.877361111111112,0 76.97513888888889,9.877638888888889,0 76.97402777777778,9.879027777777779,0 76.9726388888889,9.879305555555556,0 76.9726388888889,9.878472222222223,0 76.97152777777778,9.878472222222223,0 76.97152777777778,9.877638888888889,0 76.97236111111111,9.877083333333333,0 76.97236111111111,9.87625,0 76.97319444444445,9.876527777777778,0 76.97291666666668,9.875694444444445,0 76.97347222222223,9.875694444444445,0 76.97319444444445,9.875416666666668,0 76.97319444444445,9.874861111111112,0 76.97347222222223,9.874861111111112,0 76.97319444444445,9.874027777777778,0 76.97375000000001,9.873750000000001,0 76.97375000000001,9.873194444444445,0 76.97430555555556,9.87263888888889,0 76.97319444444445,9.872916666666667,0 76.97319444444445,9.873750000000001,0 76.97236111111111,9.874583333333334,0 76.97236111111111,9.875416666666668,0 76.97152777777778,9.875694444444445,0 76.97125000000001,9.877083333333333,0 76.97069444444445,9.877638888888889,0 76.96930555555556,9.877638888888889,0 76.96902777777778,9.877361111111112,0 76.96902777777778,9.876805555555556,0 76.96930555555556,9.876805555555556,0 76.96902777777778,9.876527777777778,0 76.96902777777778,9.874583333333334,0 76.96930555555556,9.874583333333334,0 76.96930555555556,9.873750000000001,0 76.96986111111111,9.873750000000001,0 76.9701388888889,9.872916666666667,0 76.96847222222223,9.87263888888889,0 76.96847222222223,9.872083333333334,0 76.96819444444445,9.872083333333334,0 76.96819444444445,9.871527777777779,0 76.9676388888889,9.870972222222223,0 76.96791666666667,9.870972222222223,0 76.96791666666667,9.870416666666667,0 76.96875,9.870416666666667,0 76.96875,9.870138888888889,0 76.96791666666667,9.870138888888889,0 76.9676388888889,9.869583333333335,0 76.96708333333333,9.869583333333335,0 76.96736111111112,9.868472222222223,0 76.96819444444445,9.868472222222223,0 76.96847222222223,9.867916666666668,0 76.9701388888889,9.867916666666668,0 76.9701388888889,9.868194444444445,0 76.97097222222223,9.868194444444445,0 76.97097222222223,9.868472222222223,0 76.97152777777778,9.868472222222223,0 76.97152777777778,9.868194444444445,0 76.97180555555556,9.868472222222223,0 76.9726388888889,9.868472222222223,0 76.9726388888889,9.868194444444445,0 76.97347222222223,9.868194444444445,0 76.97402777777778,9.867361111111112,0 76.97458333333334,9.867361111111112,0 76.97430555555556,9.866527777777778,0 76.97375000000001,9.866527777777778,0 76.97347222222223,9.867083333333333,0 76.9726388888889,9.867083333333333,0 76.9726388888889,9.867361111111112,0 76.97041666666667,9.867361111111112,0 76.9701388888889,9.866805555555556,0 76.96930555555556,9.866805555555556,0 76.96958333333333,9.86625,0 76.96902777777778,9.865972222222222,0 76.96902777777778,9.865416666666667,0 76.97097222222223,9.865694444444445,0 76.97041666666667,9.86486111111111,0 76.96986111111111,9.86486111111111,0 76.96986111111111,9.864027777777778,0 76.97041666666667,9.864027777777778,0 76.9701388888889,9.863194444444446,0 76.97069444444445,9.863194444444446,0 76.97069444444445,9.862916666666667,0 76.97152777777778,9.863194444444446,0 76.97152777777778,9.862083333333334,0 76.97180555555556,9.862083333333334,0 76.97152777777778,9.860972222222223,0 76.97180555555556,9.860972222222223,0 76.97180555555556,9.860416666666667,0 76.97236111111111,9.860416666666667,0 76.97236111111111,9.859305555555556,0 76.9726388888889,9.859305555555556,0 76.9726388888889,9.859027777777778,0 76.97208333333334,9.859027777777778,0 76.97236111111111,9.85875,0 76.97236111111111,9.85763888888889,0 76.9726388888889,9.85763888888889,0 76.9726388888889,9.856805555555557,0 76.97319444444445,9.856250000000001,0 76.97375000000001,9.856250000000001,0 76.97375000000001,9.856527777777778,0 76.97430555555556,9.856527777777778,0 76.97430555555556,9.856250000000001,0 76.97513888888889,9.856250000000001,0 76.97513888888889,9.856527777777778,0 76.97597222222223,9.856527777777778,0 76.97597222222223,9.856250000000001,0 76.97708333333334,9.856250000000001,0 76.97708333333334,9.856527777777778,0 76.97763888888889,9.856527777777778,0 76.97763888888889,9.856250000000001,0 76.97958333333334,9.856250000000001,0 76.97986111111112,9.856527777777778,0 76.98013888888889,9.856250000000001,0 76.97958333333334,9.855694444444445,0 76.97902777777779,9.855694444444445,0 76.97902777777779,9.855972222222222,0 76.97875,9.855694444444445,0 76.97847222222222,9.855972222222222,0 76.97819444444445,9.855694444444445,0 76.97569444444444,9.855694444444445,0 76.97569444444444,9.855972222222222,0 76.97486111111111,9.855972222222222,0 76.97402777777778,9.85513888888889,0 76.97347222222223,9.85513888888889,0 76.97347222222223,9.855416666666667,0 76.9726388888889,9.855416666666667,0 76.97236111111111,9.85513888888889,0 76.9726388888889,9.854305555555555,0 76.97347222222223,9.854583333333334,0 76.97375000000001,9.85375,0 76.97541666666667,9.853194444444444,0 76.97652777777779,9.851805555555556,0 76.97736111111112,9.851805555555556,0 76.97736111111112,9.851527777777779,0 76.97875,9.851527777777779,0 76.97875,9.851805555555556,0 76.97902777777779,9.851527777777779,0 76.97986111111112,9.851527777777779,0 76.98152777777779,9.849861111111112,0 76.98180555555557,9.848194444444445,0 76.9826388888889,9.84736111111111,0 76.98319444444445,9.84736111111111,0 76.98319444444445,9.847083333333334,0 76.98375,9.847083333333334,0 76.98430555555557,9.846527777777778,0 76.98430555555557,9.845694444444446,0 76.98347222222223,9.845694444444446,0 76.98319444444445,9.846250000000001,0 76.98236111111112,9.845972222222223,0 76.98180555555557,9.846527777777778,0 76.98041666666667,9.846527777777778,0 76.98041666666667,9.844861111111111,0 76.97958333333334,9.844305555555556,0 76.97958333333334,9.84375,0 76.97847222222222,9.843472222222223,0 76.97847222222222,9.843194444444444,0 76.97736111111112,9.843194444444444,0 76.97736111111112,9.84375,0 76.97791666666667,9.844027777777779,0 76.97791666666667,9.84513888888889,0 76.97819444444445,9.84513888888889,0 76.97819444444445,9.846805555555557,0 76.97791666666667,9.847083333333334,0 76.97847222222222,9.84736111111111,0 76.97847222222222,9.847916666666666,0 76.97791666666667,9.847916666666666,0 76.97763888888889,9.848472222222222,0 76.97708333333334,9.848472222222222,0 76.97652777777779,9.849305555555556,0 76.97569444444444,9.849305555555556,0 76.97402777777778,9.85125,0 76.97319444444445,9.85125,0 76.9726388888889,9.851805555555556,0 76.97180555555556,9.851805555555556,0 76.97097222222223,9.85263888888889,0 76.96986111111111,9.852916666666667,0 76.96958333333333,9.854305555555555,0 76.9701388888889,9.854305555555555,0 76.9701388888889,9.854583333333334,0 76.96930555555556,9.85513888888889,0 76.96958333333333,9.856527777777778,0 76.96875,9.856527777777778,0 76.96875,9.856805555555557,0 76.96819444444445,9.856527777777778,0 76.96819444444445,9.857083333333334,0 76.96652777777778,9.856805555555557,0 76.96652777777778,9.857361111111112,0 76.96541666666667,9.857916666666668,0 76.96541666666667,9.858472222222222,0 76.96430555555555,9.858472222222222,0 76.96541666666667,9.859583333333333,0 76.96652777777778,9.859583333333333,0 76.96652777777778,9.85875,0 76.96736111111112,9.858472222222222,0 76.96736111111112,9.858194444444445,0 76.96791666666667,9.858194444444445,0 76.96819444444445,9.85763888888889,0 76.97041666666667,9.85763888888889,0 76.97041666666667,9.858194444444445,0 76.9701388888889,9.858194444444445,0 76.97041666666667,9.859027777777778,0 76.96986111111111,9.859583333333333,0 76.9701388888889,9.859861111111112,0 76.96986111111111,9.860138888888889,0 76.96986111111111,9.860972222222223,0 76.96930555555556,9.860972222222223,0 76.96930555555556,9.861527777777779,0 76.96847222222223,9.861805555555556,0 76.96847222222223,9.86263888888889,0 76.9676388888889,9.863194444444446,0 76.9676388888889,9.863750000000001,0 76.96736111111112,9.863750000000001,0 76.96708333333333,9.864583333333334,0 76.96625,9.864305555555557,0 76.96652777777778,9.863472222222223,0 76.96569444444445,9.86263888888889,0 76.96486111111112,9.86263888888889,0 76.96402777777779,9.863472222222223,0 76.96402777777779,9.864027777777778,0 76.96319444444445,9.864583333333334,0 76.96319444444445,9.86513888888889,0 76.96263888888889,9.86513888888889,0 76.96236111111112,9.865972222222222,0 76.96180555555556,9.865972222222222,0 76.96125,9.866527777777778,0 76.96041666666667,9.866527777777778,0 76.96041666666667,9.86625,0 76.95930555555556,9.865972222222222,0 76.95958333333334,9.86513888888889,0 76.95986111111111,9.86513888888889,0 76.95986111111111,9.864583333333334,0 76.95958333333334,9.864583333333334,0 76.95986111111111,9.863750000000001,0 76.95875000000001,9.864027777777778,0 76.95902777777778,9.863194444444446,0 76.95847222222223,9.863194444444446,0 76.95847222222223,9.86263888888889,0 76.95708333333334,9.862361111111111,0 76.95736111111111,9.862916666666667,0 76.95625000000001,9.863194444444446,0 76.95625000000001,9.864583333333334,0 76.95541666666666,9.86513888888889,0 76.95541666666666,9.865694444444445,0 76.95625000000001,9.865416666666667,0 76.95625000000001,9.86513888888889,0 76.95680555555556,9.865416666666667,0 76.95680555555556,9.864305555555557,0 76.95736111111111,9.864305555555557,0 76.95736111111111,9.864027777777778,0 76.95819444444444,9.864305555555557,0 76.95819444444444,9.86486111111111,0 76.95847222222223,9.86486111111111,0 76.95847222222223,9.865694444444445,0 76.95819444444444,9.865694444444445,0 76.95847222222223,9.868194444444445,0 76.9576388888889,9.868194444444445,0 76.9576388888889,9.86875,0 76.96041666666667,9.868472222222223,0 76.96041666666667,9.867916666666668,0 76.96125,9.867916666666668,0 76.96180555555556,9.867361111111112,0 76.96263888888889,9.867361111111112,0 76.96291666666667,9.866805555555556,0 76.96375,9.866805555555556,0 76.96375,9.867361111111112,0 76.96430555555555,9.867361111111112,0 76.96430555555555,9.867638888888889,0 76.96513888888889,9.867361111111112,0 76.96513888888889,9.868194444444445,0 76.96569444444445,9.86875,0 76.96569444444445,9.869583333333335,0 76.96513888888889,9.870138888888889,0 76.96513888888889,9.87125,0 76.96569444444445,9.87125,0 76.96569444444445,9.871805555555556,0 76.96597222222222,9.871805555555556,0 76.96569444444445,9.87263888888889,0 76.96597222222222,9.872916666666667,0 76.96513888888889,9.872916666666667,0 76.96513888888889,9.873472222222222,0 76.96458333333334,9.873472222222222,0 76.96458333333334,9.873194444444445,0 76.96263888888889,9.873194444444445,0 76.96208333333334,9.874027777777778,0 76.96236111111112,9.874305555555557,0 76.96597222222222,9.874583333333334,0 76.96625,9.874861111111112,0 76.96625,9.875972222222222,0 76.96736111111112,9.877083333333333,0 76.96708333333333,9.878472222222223,0 76.9676388888889,9.878472222222223,0 76.96819444444445,9.879027777777779,0 76.96819444444445,9.879583333333334,0 76.9676388888889,9.879861111111111,0 76.9676388888889,9.880694444444446,0 76.96736111111112,9.880694444444446,0 76.96736111111112,9.881250000000001,0 76.96680555555557,9.881805555555555,0 76.96597222222222,9.881805555555555,0 76.96569444444445,9.88263888888889,0 76.96513888888889,9.88263888888889,0 76.96513888888889,9.882916666666667,0 76.96402777777779,9.882916666666667,0 76.96430555555555,9.883472222222222,0 76.96486111111112,9.883472222222222,0 76.96458333333334,9.883750000000001,0 76.96486111111112,9.884861111111112,0 76.96402777777779,9.88513888888889,0 76.96402777777779,9.885416666666668,0 76.96569444444445,9.885416666666668,0 76.96569444444445,9.885694444444445,0 76.96319444444445,9.885694444444445,0 76.96319444444445,9.88625,0 76.96402777777779,9.88625,0 76.96402777777779,9.88652777777778,0 76.96291666666667,9.887638888888889,0 76.96236111111112,9.887638888888889,0 76.96208333333334,9.888194444444444,0 76.96125,9.888472222222223,0 76.96152777777779,9.889027777777779,0 76.96236111111112,9.889027777777779,0 76.96236111111112,9.889583333333334,0 76.96013888888889,9.889583333333334,0 76.96013888888889,9.889861111111111,0 76.96097222222222,9.889861111111111,0 76.96097222222222,9.89013888888889,0 76.96263888888889,9.889861111111111,0 76.96291666666667,9.889583333333334,0 76.96263888888889,9.889305555555556,0 76.96263888888889,9.888472222222223,0 76.96347222222222,9.887638888888889,0 76.96486111111112,9.888472222222223,0 76.96486111111112,9.887361111111112,0 76.96513888888889,9.887083333333333,0 76.96652777777778,9.887083333333333,0 76.96652777777778,9.886805555555556,0 76.96736111111112,9.886805555555556,0 76.9676388888889,9.887083333333333,0 76.96819444444445,9.88652777777778,0 76.96875,9.887361111111112,0 76.97041666666667,9.887638888888889,0 76.97069444444445,9.888194444444444,0 76.97180555555556,9.888194444444444,0 76.97208333333334,9.88875,0 76.97236111111111,9.88875,0 76.97236111111111,9.888194444444444,0 76.97319444444445,9.888194444444444,0 76.97347222222223,9.888472222222223,0 76.97347222222223,9.889305555555556,0 76.97291666666668,9.889305555555556,0 76.97236111111111,9.889861111111111,0 76.97236111111111,9.891527777777778,0 76.97347222222223,9.89263888888889,0 76.97430555555556,9.89263888888889,0 76.97430555555556,9.892916666666666,0 76.97625000000001,9.892916666666666,0 76.97652777777779,9.89263888888889,0 76.97680555555556,9.892916666666666,0 76.97625000000001,9.894583333333333,0 76.97541666666667,9.894861111111112,0 76.97541666666667,9.895694444444445,0 76.97513888888889,9.895694444444445,0 76.97513888888889,9.895972222222223,0 76.97569444444444,9.895972222222223,0 76.97569444444444,9.896527777777779,0 76.97458333333334,9.896527777777779,0 76.97430555555556,9.895694444444445,0 76.97347222222223,9.895138888888889,0 76.97347222222223,9.89625,0 76.97402777777778,9.896805555555556,0 76.97375000000001,9.897916666666667,0 76.97347222222223,9.897916666666667,0 76.97347222222223,9.89875,0 76.97291666666668,9.899027777777778,0 76.97291666666668,9.899583333333334,0 76.97208333333334,9.899583333333334,0 76.97180555555556,9.899861111111111,0 76.97152777777778,9.900972222222222,0 76.97097222222223,9.900972222222222,0 76.97097222222223,9.901805555555557,0 76.97125000000001,9.902083333333334,0 76.97208333333334,9.902083333333334,0 76.97208333333334,9.902361111111112,0 76.97291666666668,9.902083333333334,0 76.97291666666668,9.902361111111112,0 76.97375000000001,9.90263888888889,0 76.97375000000001,9.902361111111112,0 76.97486111111111,9.902361111111112,0 76.97513888888889,9.901805555555557,0 76.97597222222223,9.902083333333334,0 76.97625000000001,9.904305555555556,0 76.97597222222223,9.904305555555556,0 76.97569444444444,9.905416666666667,0 76.97625000000001,9.905694444444444,0 76.97625000000001,9.90625,0 76.97680555555556,9.90625,0 76.97680555555556,9.906805555555556,0 76.97652777777779,9.906805555555556,0 76.97625000000001,9.90763888888889,0 76.97541666666667,9.90763888888889,0 76.97541666666667,9.907916666666667,0 76.97458333333334,9.908194444444446,0 76.97430555555556,9.909583333333334,0 76.97402777777778,9.909583333333334,0 76.97375000000001,9.910416666666666,0 76.97291666666668,9.910416666666666,0 76.97291666666668,9.91013888888889,0 76.97180555555556,9.90986111111111,0 76.97180555555556,9.91013888888889,0 76.9701388888889,9.91013888888889,0 76.9701388888889,9.910416666666666,0 76.96958333333333,9.91013888888889,0 76.96958333333333,9.910694444444445,0 76.97236111111111,9.910694444444445,0 76.97236111111111,9.911805555555556,0 76.97180555555556,9.912361111111112,0 76.97180555555556,9.91513888888889,0 76.9726388888889,9.91513888888889,0 76.97291666666668,9.915694444444444,0 76.97347222222223,9.915694444444444,0 76.97319444444445,9.91625,0 76.97430555555556,9.917361111111111,0 76.97430555555556,9.917916666666667,0 76.97486111111111,9.918194444444445,0 76.97486111111111,9.919027777777778,0 76.97736111111112,9.921527777777778,0 76.97791666666667,9.924027777777779,0 76.97763888888889,9.924027777777779,0 76.97763888888889,9.924583333333334,0 76.97708333333334,9.92513888888889,0 76.97652777777779,9.92513888888889,0 76.97625000000001,9.925694444444446,0 76.97513888888889,9.925972222222223,0 76.97430555555556,9.927083333333334,0 76.97375000000001,9.926805555555557,0 76.97375000000001,9.92736111111111,0 76.97291666666668,9.92736111111111,0 76.97291666666668,9.92763888888889,0</coordinates>
              </LinearRing>
            </outerBoundaryIs>
          </Polygon>
        </Placemark>
        
        <Placemark>
          <name>Inundation Zone 23</name>
          <Style>
            <LineStyle><color>ff0000ff</color><width>2</width></LineStyle>
            <PolyStyle><color>7f0000ff</color></PolyStyle>
          </Style>
          <Polygon>
            <outerBoundaryIs>
              <LinearRing>
                <coordinates>76.96902777777778,9.91013888888889,0 76.96930555555556,9.90986111111111,0 76.96902777777778,9.90986111111111,0 76.96902777777778,9.91013888888889,0</coordinates>
              </LinearRing>
            </outerBoundaryIs>
          </Polygon>
        </Placemark>
        
        <Placemark>
          <name>Inundation Zone 24</name>
          <Style>
            <LineStyle><color>ff0000ff</color><width>2</width></LineStyle>
            <PolyStyle><color>7f0000ff</color></PolyStyle>
          </Style>
          <Polygon>
            <outerBoundaryIs>
              <LinearRing>
                <coordinates>76.97930555555556,9.922361111111112,0 76.97958333333334,9.922083333333333,0 76.97930555555556,9.922083333333333,0 76.97930555555556,9.922361111111112,0</coordinates>
              </LinearRing>
            </outerBoundaryIs>
          </Polygon>
        </Placemark>
        
        <Placemark>
          <name>Inundation Zone 25</name>
          <Style>
            <LineStyle><color>ff0000ff</color><width>2</width></LineStyle>
            <PolyStyle><color>7f0000ff</color></PolyStyle>
          </Style>
          <Polygon>
            <outerBoundaryIs>
              <LinearRing>
                <coordinates>76.97763888888889,9.938472222222222,0 76.97791666666667,9.938194444444445,0 76.97763888888889,9.938194444444445,0 76.97763888888889,9.938472222222222,0</coordinates>
              </LinearRing>
            </outerBoundaryIs>
          </Polygon>
        </Placemark>
        
        <Placemark>
          <name>Inundation Zone 26</name>
          <Style>
            <LineStyle><color>ff0000ff</color><width>2</width></LineStyle>
            <PolyStyle><color>7f0000ff</color></PolyStyle>
          </Style>
          <Polygon>
            <outerBoundaryIs>
              <LinearRing>
                <coordinates>76.98097222222222,9.947083333333333,0 76.98125,9.946805555555557,0 76.98097222222222,9.946805555555557,0 76.98097222222222,9.947083333333333,0</coordinates>
              </LinearRing>
            </outerBoundaryIs>
          </Polygon>
        </Placemark>
        
        <Placemark>
          <name>Inundation Zone 27</name>
          <Style>
            <LineStyle><color>ff0000ff</color><width>2</width></LineStyle>
            <PolyStyle><color>7f0000ff</color></PolyStyle>
          </Style>
          <Polygon>
            <outerBoundaryIs>
              <LinearRing>
                <coordinates>76.93069444444446,9.974861111111112,0 76.93069444444446,9.975138888888889,0 76.93013888888889,9.975138888888889,0 76.92986111111112,9.975972222222223,0 76.92930555555556,9.975416666666668,0 76.92875000000001,9.975694444444445,0 76.92847222222223,9.977361111111112,0 76.9276388888889,9.97763888888889,0 76.9276388888889,9.978194444444444,0 76.92625000000001,9.978472222222223,0 76.92569444444445,9.979305555555555,0 76.92486111111111,9.979027777777778,0 76.92430555555556,9.979583333333334,0 76.92347222222223,9.979583333333334,0 76.92319444444445,9.979861111111111,0 76.92347222222223,9.980694444444445,0 76.92291666666667,9.980694444444445,0 76.92291666666667,9.980972222222222,0 76.9226388888889,9.980694444444445,0 76.92180555555557,9.980694444444445,0 76.92180555555557,9.981250000000001,0 76.92125,9.981250000000001,0 76.92041666666667,9.98263888888889,0 76.91958333333334,9.98263888888889,0 76.91902777777779,9.983194444444445,0 76.91791666666667,9.983194444444445,0 76.91569444444445,9.985694444444444,0 76.91402777777779,9.985694444444444,0 76.91375000000001,9.985972222222223,0 76.91319444444444,9.985416666666667,0 76.91319444444444,9.985694444444444,0 76.91236111111111,9.985972222222223,0 76.91236111111111,9.985138888888889,0 76.91180555555556,9.985138888888889,0 76.91125000000001,9.985694444444444,0 76.91125000000001,9.98625,0 76.91069444444445,9.98625,0 76.91097222222223,9.987083333333334,0 76.91041666666668,9.987083333333334,0 76.91041666666668,9.987361111111111,0 76.91069444444445,9.987361111111111,0 76.91069444444445,9.98763888888889,0 76.91125000000001,9.98763888888889,0 76.91125000000001,9.986805555555556,0 76.91208333333334,9.986527777777779,0 76.91208333333334,9.98625,0 76.91263888888889,9.98625,0 76.91263888888889,9.986527777777779,0 76.91513888888889,9.98625,0 76.91513888888889,9.985972222222223,0 76.91597222222222,9.985972222222223,0 76.91625,9.98625,0 76.91680555555556,9.985694444444444,0 76.91736111111112,9.985694444444444,0 76.91763888888889,9.984861111111112,0 76.91819444444445,9.984861111111112,0 76.91875,9.984305555555556,0 76.92041666666667,9.98375,0 76.92041666666667,9.983194444444445,0 76.92069444444445,9.983472222222224,0 76.92180555555557,9.983194444444445,0 76.92236111111112,9.982361111111112,0 76.92347222222223,9.982083333333334,0 76.92347222222223,9.981527777777778,0 76.92430555555556,9.981527777777778,0 76.92486111111111,9.980694444444445,0 76.92541666666668,9.980972222222222,0 76.92597222222223,9.98013888888889,0 76.92680555555556,9.98013888888889,0 76.9276388888889,9.979305555555555,0 76.92819444444444,9.979305555555555,0 76.92847222222223,9.97875,0 76.92902777777778,9.97875,0 76.92930555555556,9.97763888888889,0 76.93125,9.977361111111112,0 76.93208333333334,9.976527777777779,0 76.93375,9.97625,0 76.93402777777779,9.975694444444445,0 76.93486111111112,9.975694444444445,0 76.93486111111112,9.975972222222223,0 76.93569444444445,9.975694444444445,0 76.93625,9.97625,0 76.93680555555557,9.975694444444445,0 76.93680555555557,9.975138888888889,0 76.93736111111112,9.975138888888889,0 76.93708333333333,9.974583333333333,0 76.9376388888889,9.974583333333333,0 76.9376388888889,9.974305555555556,0 76.93819444444445,9.974305555555556,0 76.93875,9.97375,0 76.93930555555556,9.97375,0 76.93930555555556,9.973472222222222,0 76.9401388888889,9.97375,0 76.9401388888889,9.973194444444445,0 76.94069444444445,9.972916666666666,0 76.94069444444445,9.97236111111111,0 76.94180555555556,9.971805555555557,0 76.94180555555556,9.970972222222223,0 76.94236111111111,9.970694444444446,0 76.94236111111111,9.97013888888889,0 76.94319444444444,9.969305555555556,0 76.94375000000001,9.969305555555556,0 76.94513888888889,9.967916666666667,0 76.94513888888889,9.967361111111112,0 76.94597222222222,9.966527777777777,0 76.94652777777779,9.966527777777777,0 76.94708333333334,9.965972222222224,0 76.94819444444445,9.965972222222224,0 76.94819444444445,9.965694444444445,0 76.95069444444445,9.965694444444445,0 76.95069444444445,9.965972222222224,0 76.95125,9.965972222222224,0 76.95125,9.965694444444445,0 76.95236111111112,9.965694444444445,0 76.95236111111112,9.965416666666668,0 76.95375,9.965416666666668,0 76.95458333333333,9.964305555555557,0 76.95625000000001,9.964027777777778,0 76.95597222222223,9.963472222222222,0 76.95708333333334,9.963194444444445,0 76.95708333333334,9.962916666666667,0 76.95819444444444,9.962916666666667,0 76.95819444444444,9.96263888888889,0 76.95986111111111,9.962083333333334,0 76.95986111111111,9.961805555555555,0 76.96097222222222,9.961527777777778,0 76.96125,9.960416666666667,0 76.96180555555556,9.959861111111111,0 76.96263888888889,9.959861111111111,0 76.96319444444445,9.959027777777779,0 76.96402777777779,9.959027777777779,0 76.96402777777779,9.95875,0 76.96486111111112,9.95875,0 76.96486111111112,9.958472222222223,0 76.96625,9.958472222222223,0 76.96625,9.958194444444445,0 76.96902777777778,9.957916666666668,0 76.96930555555556,9.957361111111112,0 76.9701388888889,9.957361111111112,0 76.9701388888889,9.957083333333333,0 76.97069444444445,9.957083333333333,0 76.97152777777778,9.95625,0 76.97291666666668,9.95625,0 76.97319444444445,9.955694444444445,0 76.97402777777778,9.955694444444445,0 76.97402777777778,9.955416666666666,0 76.97541666666667,9.955416666666666,0 76.97597222222223,9.954861111111112,0 76.97652777777779,9.954861111111112,0 76.97680555555556,9.954305555555557,0 76.97902777777779,9.954305555555557,0 76.97902777777779,9.954027777777778,0 76.98013888888889,9.953750000000001,0 76.98125,9.95263888888889,0 76.98541666666667,9.952361111111111,0 76.98541666666667,9.952916666666667,0 76.98597222222223,9.953194444444446,0 76.98625,9.954305555555557,0 76.98708333333335,9.954583333333334,0 76.98736111111111,9.955416666666666,0 76.98791666666668,9.955416666666666,0 76.98791666666668,9.95513888888889,0 76.98652777777778,9.953750000000001,0 76.98652777777778,9.952916666666667,0 76.98569444444445,9.952361111111111,0 76.98569444444445,9.951805555555556,0 76.98458333333333,9.950972222222223,0 76.98458333333333,9.950138888888889,0 76.98402777777778,9.950138888888889,0 76.98347222222223,9.949583333333333,0 76.98319444444445,9.948194444444445,0 76.9826388888889,9.948194444444445,0 76.9826388888889,9.94763888888889,0 76.98236111111112,9.94763888888889,0 76.98180555555557,9.948194444444445,0 76.98180555555557,9.94902777777778,0 76.98236111111112,9.94902777777778,0 76.98236111111112,9.949583333333333,0 76.9826388888889,9.949583333333333,0 76.9826388888889,9.95125,0 76.98180555555557,9.95125,0 76.98180555555557,9.951527777777779,0 76.98152777777779,9.95125,0 76.98041666666667,9.95125,0 76.97986111111112,9.951805555555556,0 76.97847222222222,9.952083333333334,0 76.97819444444445,9.95263888888889,0 76.97458333333334,9.953472222222222,0 76.97458333333334,9.953750000000001,0 76.97402777777778,9.953750000000001,0 76.97347222222223,9.954305555555557,0 76.97069444444445,9.954583333333334,0 76.97069444444445,9.954861111111112,0 76.9701388888889,9.954861111111112,0 76.96930555555556,9.955694444444445,0 76.96819444444445,9.955694444444445,0 76.96819444444445,9.955972222222222,0 76.96430555555555,9.955972222222222,0 76.96430555555555,9.95625,0 76.96319444444445,9.956527777777778,0 76.96319444444445,9.956805555555556,0 76.96236111111112,9.956805555555556,0 76.96236111111112,9.957083333333333,0 76.96180555555556,9.957083333333333,0 76.96125,9.957638888888889,0 76.96069444444444,9.957638888888889,0 76.96069444444444,9.957916666666668,0 76.95930555555556,9.958194444444445,0 76.95875000000001,9.95875,0 76.95875000000001,9.959305555555556,0 76.95847222222223,9.959305555555556,0 76.95847222222223,9.959861111111111,0 76.95791666666668,9.959861111111111,0 76.95736111111111,9.960416666666667,0 76.9576388888889,9.960972222222223,0 76.95736111111111,9.96125,0 76.95652777777778,9.96125,0 76.95680555555556,9.962083333333334,0 76.95625000000001,9.962083333333334,0 76.95625000000001,9.962361111111111,0 76.95541666666666,9.962361111111111,0 76.95541666666666,9.962083333333334,0 76.95458333333333,9.962361111111111,0 76.95347222222223,9.963750000000001,0 76.95013888888889,9.963750000000001,0 76.94986111111112,9.964305555555557,0 76.94902777777779,9.964305555555557,0 76.94902777777779,9.964027777777778,0 76.94708333333334,9.964305555555557,0 76.94708333333334,9.964027777777778,0 76.94625,9.963750000000001,0 76.94597222222222,9.964027777777778,0 76.94625,9.964861111111112,0 76.94569444444446,9.964861111111112,0 76.94569444444446,9.96513888888889,0 76.94541666666667,9.964861111111112,0 76.94402777777778,9.96513888888889,0 76.94402777777778,9.965972222222224,0 76.9426388888889,9.967361111111112,0 76.94291666666668,9.967916666666667,0 76.94208333333334,9.967638888888889,0 76.94208333333334,9.968194444444444,0 76.94041666666668,9.96875,0 76.94041666666668,9.969305555555556,0 76.94097222222223,9.969583333333334,0 76.94097222222223,9.970416666666667,0 76.94041666666668,9.970972222222223,0 76.93986111111111,9.970972222222223,0 76.93986111111111,9.971527777777778,0 76.93930555555556,9.971805555555557,0 76.93930555555556,9.97236111111111,0 76.93875,9.972916666666666,0 76.93708333333333,9.972916666666666,0 76.93708333333333,9.973194444444445,0 76.93652777777778,9.973194444444445,0 76.93569444444445,9.974027777777778,0 76.93291666666667,9.974305555555556,0 76.93291666666667,9.974583333333333,0 76.93208333333334,9.974583333333333,0 76.93208333333334,9.974861111111112,0 76.93069444444446,9.974861111111112,0</coordinates>
              </LinearRing>
            </outerBoundaryIs>
          </Polygon>
        </Placemark>
        
        <Placemark>
          <name>Inundation Zone 28</name>
          <Style>
            <LineStyle><color>ff0000ff</color><width>2</width></LineStyle>
            <PolyStyle><color>7f0000ff</color></PolyStyle>
          </Style>
          <Polygon>
            <outerBoundaryIs>
              <LinearRing>
                <coordinates>76.91541666666667,9.986527777777779,0 76.91569444444445,9.98625,0 76.91541666666667,9.98625,0 76.91541666666667,9.986527777777779,0</coordinates>
              </LinearRing>
            </outerBoundaryIs>
          </Polygon>
        </Placemark>
        
        <Placemark>
          <name>Inundation Zone 29</name>
          <Style>
            <LineStyle><color>ff0000ff</color><width>2</width></LineStyle>
            <PolyStyle><color>7f0000ff</color></PolyStyle>
          </Style>
          <Polygon>
            <outerBoundaryIs>
              <LinearRing>
                <coordinates>76.91208333333334,9.986527777777779,0 76.91208333333334,9.987083333333334,0 76.91236111111111,9.987083333333334,0 76.91263888888889,9.986527777777779,0 76.91208333333334,9.986527777777779,0</coordinates>
              </LinearRing>
            </outerBoundaryIs>
          </Polygon>
        </Placemark>
        
        <Placemark>
          <name>Inundation Zone 30</name>
          <Style>
            <LineStyle><color>ff0000ff</color><width>2</width></LineStyle>
            <PolyStyle><color>7f0000ff</color></PolyStyle>
          </Style>
          <Polygon>
            <outerBoundaryIs>
              <LinearRing>
                <coordinates>76.91208333333334,9.987361111111111,0 76.91208333333334,9.987083333333334,0 76.91152777777778,9.987083333333334,0 76.91152777777778,9.987361111111111,0 76.91208333333334,9.987361111111111,0</coordinates>
              </LinearRing>
            </outerBoundaryIs>
          </Polygon>
        </Placemark>
        
        <Placemark>
          <name>Inundation Zone 31</name>
          <Style>
            <LineStyle><color>ff0000ff</color><width>2</width></LineStyle>
            <PolyStyle><color>7f0000ff</color></PolyStyle>
          </Style>
          <Polygon>
            <outerBoundaryIs>
              <LinearRing>
                <coordinates>76.9101388888889,9.98763888888889,0 76.91041666666668,9.987361111111111,0 76.9101388888889,9.987361111111111,0 76.9101388888889,9.98763888888889,0</coordinates>
              </LinearRing>
            </outerBoundaryIs>
          </Polygon>
        </Placemark>
        
        <Placemark>
          <name>Inundation Zone 32</name>
          <Style>
            <LineStyle><color>ff0000ff</color><width>2</width></LineStyle>
            <PolyStyle><color>7f0000ff</color></PolyStyle>
          </Style>
          <Polygon>
            <outerBoundaryIs>
              <LinearRing>
                <coordinates>76.9101388888889,9.988194444444446,0 76.91041666666668,9.987916666666667,0 76.9101388888889,9.987916666666667,0 76.9101388888889,9.988194444444446,0</coordinates>
              </LinearRing>
            </outerBoundaryIs>
          </Polygon>
        </Placemark>
        
        <Placemark>
          <name>Inundation Zone 33</name>
          <Style>
            <LineStyle><color>ff0000ff</color><width>2</width></LineStyle>
            <PolyStyle><color>7f0000ff</color></PolyStyle>
          </Style>
          <Polygon>
            <outerBoundaryIs>
              <LinearRing>
                <coordinates>76.9051388888889,9.990972222222222,0 76.90486111111112,9.990694444444445,0 76.90486111111112,9.990972222222222,0 76.9051388888889,9.990972222222222,0</coordinates>
              </LinearRing>
            </outerBoundaryIs>
          </Polygon>
        </Placemark>
        
        <Placemark>
          <name>Inundation Zone 34</name>
          <Style>
            <LineStyle><color>ff0000ff</color><width>2</width></LineStyle>
            <PolyStyle><color>7f0000ff</color></PolyStyle>
          </Style>
          <Polygon>
            <outerBoundaryIs>
              <LinearRing>
                <coordinates>76.90430555555557,9.99125,0 76.90486111111112,9.99125,0 76.90486111111112,9.990972222222222,0 76.90430555555557,9.990972222222222,0 76.90430555555557,9.99125,0</coordinates>
              </LinearRing>
            </outerBoundaryIs>
          </Polygon>
        </Placemark>
        
  </Document>
</kml>
