<?xml version="1.0" encoding="UTF-8"?>
<kml xmlns="http://www.opengis.net/kml/2.2">
  <Document>
    <name>mettur Dam Break Inundation Extent</name>
    <description>Simulated Area: 4.15 km2. Max Depth: 49.63 m.</description>
    
    <Placemark>
      <name>Inundation Zone 1</name>
      <Style>
        <LineStyle><color>ff0000ff</color><width>2</width></LineStyle>
        <PolyStyle><color>7f0000ff</color></PolyStyle>
      </Style>
      <Polygon><outerBoundaryIs><LinearRing>
        <coordinates>77.86597222222223,11.915972222222223,0 77.86597222222223,11.915694444444444,0 77.86486111111113,11.915416666666667,0 77.86486111111113,11.915138888888889,0 77.86319444444446,11.914861111111112,0 77.86319444444446,11.914583333333333,0 77.8626388888889,11.914583333333333,0 77.86208333333335,11.914027777777779,0 77.86125000000001,11.914027777777779,0 77.86125000000001,11.91375,0 77.85986111111112,11.913472222222223,0 77.85930555555557,11.912916666666668,0 77.85847222222223,11.912916666666668,0 77.85791666666668,11.912361111111112,0 77.85708333333335,11.912361111111112,0 77.85680555555557,11.911527777777778,0 77.8551388888889,11.91125,0 77.8551388888889,11.910972222222222,0 77.85347222222224,11.910972222222222,0 77.85347222222224,11.910694444444445,0 77.85180555555557,11.910694444444445,0 77.85180555555557,11.910416666666666,0 77.85041666666667,11.910416666666666,0 77.85041666666667,11.91013888888889,0 77.84875000000001,11.91013888888889,0 77.84875000000001,11.90986111111111,0 77.84708333333334,11.90986111111111,0 77.84708333333334,11.909583333333334,0 77.84541666666668,11.909583333333334,0 77.84541666666668,11.909305555555555,0 77.84291666666668,11.909027777777778,0 77.84208333333335,11.908194444444446,0 77.84152777777778,11.908194444444446,0 77.84152777777778,11.907916666666667,0 77.84041666666668,11.90763888888889,0 77.84041666666668,11.907361111111111,0 77.83875,11.906805555555556,0 77.83847222222224,11.90625,0 77.83791666666667,11.90625,0 77.83791666666667,11.905972222222223,0 77.83736111111112,11.905972222222223,0 77.83680555555557,11.905416666666667,0 77.83569444444446,11.905138888888889,0 77.83541666666667,11.904583333333333,0 77.83402777777779,11.904305555555556,0 77.83375000000001,11.90375,0 77.83208333333334,11.903194444444445,0 77.83180555555556,11.90263888888889,0 77.83097222222223,11.90263888888889,0 77.83069444444446,11.902361111111112,0 77.83069444444446,11.900416666666667,0 77.83347222222223,11.900694444444445,0 77.83430555555556,11.901527777777778,0 77.83541666666667,11.901805555555557,0 77.83569444444446,11.902361111111112,0 77.83652777777779,11.902361111111112,0 77.83736111111112,11.903194444444445,0 77.83791666666667,11.903194444444445,0 77.83791666666667,11.903472222222222,0 77.83958333333334,11.904027777777777,0 77.83958333333334,11.904305555555556,0 77.84069444444445,11.904583333333333,0 77.84097222222223,11.905138888888889,0 77.84236111111112,11.905416666666667,0 77.8426388888889,11.905972222222223,0 77.84375000000001,11.90625,0 77.84458333333335,11.907083333333334,0 77.84708333333334,11.907361111111111,0 77.84708333333334,11.90763888888889,0 77.84875000000001,11.90763888888889,0 77.84875000000001,11.907916666666667,0 77.85041666666667,11.907916666666667,0 77.85041666666667,11.908194444444446,0 77.85208333333334,11.908194444444446,0 77.85208333333334,11.908472222222223,0 77.85347222222224,11.908472222222223,0 77.85347222222224,11.908750000000001,0 77.8551388888889,11.908750000000001,0 77.8551388888889,11.909027777777778,0 77.85680555555557,11.909027777777778,0 77.85680555555557,11.909305555555555,0 77.85791666666668,11.909305555555555,0 77.85847222222223,11.90986111111111,0 77.8601388888889,11.90986111111111,0 77.86069444444445,11.910416666666666,0 77.8615277777778,11.910416666666666,0 77.86208333333335,11.910972222222222,0 77.86291666666668,11.910972222222222,0 77.86347222222223,11.911527777777778,0 77.86430555555556,11.911527777777778,0 77.86486111111113,11.912083333333333,0 77.86569444444446,11.912083333333333,0 77.86625000000001,11.912638888888889,0 77.86708333333334,11.912638888888889,0 77.86708333333334,11.912916666666668,0 77.86875,11.913472222222223,0 77.86875,11.913194444444445,0 77.86958333333334,11.912916666666668,0 77.86958333333334,11.911805555555556,0 77.87069444444445,11.910694444444445,0 77.8776388888889,11.910694444444445,0 77.87819444444446,11.911527777777778,0 77.88180555555557,11.910694444444445,0 77.88291666666667,11.909583333333334,0 77.88291666666667,11.909027777777778,0 77.88347222222224,11.908750000000001,0 77.88347222222224,11.908194444444446,0 77.88430555555557,11.90763888888889,0 77.88430555555557,11.907083333333334,0 77.88486111111112,11.907083333333334,0 77.88541666666667,11.90625,0 77.88680555555557,11.90625,0 77.88680555555557,11.905972222222223,0 77.88930555555557,11.905972222222223,0 77.88930555555557,11.90625,0 77.89069444444445,11.90625,0 77.89069444444445,11.906527777777779,0 77.89152777777778,11.906527777777779,0 77.89152777777778,11.906805555555556,0 77.89486111111113,11.906527777777779,0 77.89486111111113,11.90625,0 77.89597222222223,11.90625,0 77.89597222222223,11.905972222222223,0 77.89680555555556,11.905972222222223,0 77.89680555555556,11.905694444444444,0 77.8976388888889,11.905694444444444,0 77.89791666666667,11.905138888888889,0 77.89875,11.905138888888889,0 77.89875,11.904861111111112,0 77.9001388888889,11.904861111111112,0 77.9001388888889,11.904583333333333,0 77.90125,11.904583333333333,0 77.90125,11.904305555555556,0 77.90208333333334,11.904305555555556,0 77.90208333333334,11.904027777777777,0 77.90319444444445,11.904027777777777,0 77.90319444444445,11.90375,0 77.90486111111112,11.903194444444445,0 77.90569444444445,11.902361111111112,0 77.90847222222223,11.902361111111112,0 77.90847222222223,11.902083333333334,0 77.9101388888889,11.901805555555557,0 77.91069444444446,11.901250000000001,0 77.91152777777779,11.901250000000001,0 77.91152777777779,11.901527777777778,0 77.91180555555556,11.901250000000001,0 77.9151388888889,11.901250000000001,0 77.91541666666667,11.900694444444445,0 77.91958333333335,11.900694444444445,0 77.9201388888889,11.901250000000001,0 77.92152777777778,11.901250000000001,0 77.92180555555557,11.900694444444445,0 77.9226388888889,11.900694444444445,0 77.9226388888889,11.900416666666667,0 77.92708333333334,11.900416666666667,0 77.92708333333334,11.900694444444445,0 77.9276388888889,11.900694444444445,0 77.92791666666668,11.899861111111111,0 77.93569444444445,11.90013888888889,0 77.93569444444445,11.903194444444445,0 77.93486111111112,11.904027777777777,0 77.93041666666667,11.904027777777777,0 77.92986111111112,11.903472222222222,0 77.92958333333334,11.904027777777777,0 77.92541666666668,11.904027777777777,0 77.92541666666668,11.90375,0 77.92458333333335,11.90375,0 77.92430555555556,11.904305555555556,0 77.9226388888889,11.904305555555556,0 77.9226388888889,11.904583333333333,0 77.91736111111112,11.904583333333333,0 77.91680555555557,11.905138888888889,0 77.91347222222224,11.905138888888889,0 77.91291666666667,11.904583333333333,0 77.91291666666667,11.904861111111112,0 77.91125000000001,11.905138888888889,0 77.91069444444446,11.905694444444444,0 77.90680555555556,11.905694444444444,0 77.90680555555556,11.905972222222223,0 77.90597222222223,11.905972222222223,0 77.90541666666668,11.906527777777779,0 77.90458333333335,11.906527777777779,0 77.90458333333335,11.906805555555556,0 77.90347222222223,11.906805555555556,0 77.90347222222223,11.907083333333334,0 77.90236111111112,11.907083333333334,0 77.90236111111112,11.907361111111111,0 77.90097222222224,11.907361111111111,0 77.90097222222224,11.90763888888889,0 77.90041666666667,11.90763888888889,0 77.89986111111112,11.908194444444446,0 77.89819444444446,11.908472222222223,0 77.89819444444446,11.908750000000001,0 77.89708333333334,11.908750000000001,0 77.89708333333334,11.909027777777778,0 77.89541666666668,11.909027777777778,0 77.89541666666668,11.909305555555555,0 77.88930555555557,11.909305555555555,0 77.88930555555557,11.909027777777778,0 77.8876388888889,11.908750000000001,0 77.88597222222224,11.910416666666666,0 77.88597222222224,11.910972222222222,0 77.88541666666667,11.91125,0 77.8851388888889,11.912361111111112,0 77.88458333333334,11.912361111111112,0 77.88458333333334,11.912916666666668,0 77.88319444444446,11.913194444444445,0 77.88319444444446,11.913472222222223,0 77.88097222222223,11.91375,0 77.88097222222223,11.914027777777779,0 77.87597222222223,11.914027777777779,0 77.87569444444445,11.913472222222223,0 77.8726388888889,11.913472222222223,0 77.87236111111112,11.914305555555556,0 77.87208333333335,11.914305555555556,0 77.87208333333335,11.915138888888889,0 77.87152777777779,11.915694444444444,0 77.87097222222224,11.915694444444444,0 77.87097222222224,11.915972222222223,0 77.86597222222223,11.915972222222223,0</coordinates>
      </LinearRing></outerBoundaryIs></Polygon>
    </Placemark>
  </Document>
</kml>