<?xml version="1.0" encoding="UTF-8"?>
<kml xmlns="http://www.opengis.net/kml/2.2">
  <Document>
    <name>tehri Dam Break Inundation Extent</name>
    <description>Simulated Area: 41.98 km2. Max Depth: 197.89 m.</description>
    
    <Placemark>
      <name>Inundation Zone 1</name>
      <Style>
        <LineStyle><color>ff0000ff</color><width>2</width></LineStyle>
        <PolyStyle><color>7f0000ff</color></PolyStyle>
      </Style>
      <Polygon><outerBoundaryIs><LinearRing>
        <coordinates>78.49430555555557,30.311527777777776,0 78.49486111111112,30.311527777777776,0 78.49486111111112,30.311249999999998,0 78.49430555555557,30.311249999999998,0 78.49430555555557,30.311527777777776,0</coordinates>
      </LinearRing></outerBoundaryIs></Polygon>
    </Placemark>
    <Placemark>
      <name>Inundation Zone 2</name>
      <Style>
        <LineStyle><color>ff0000ff</color><width>2</width></LineStyle>
        <PolyStyle><color>7f0000ff</color></PolyStyle>
      </Style>
      <Polygon><outerBoundaryIs><LinearRing>
        <coordinates>78.4851388888889,30.350138888888885,0 78.48486111111112,30.34986111111111,0 78.48486111111112,30.350138888888885,0 78.4851388888889,30.350138888888885,0</coordinates>
      </LinearRing></outerBoundaryIs></Polygon>
    </Placemark>
    <Placemark>
      <name>Inundation Zone 3</name>
      <Style>
        <LineStyle><color>ff0000ff</color><width>2</width></LineStyle>
        <PolyStyle><color>7f0000ff</color></PolyStyle>
      </Style>
      <Polygon><outerBoundaryIs><LinearRing>
        <coordinates>78.47652777777779,30.379583333333333,0 78.47597222222224,30.380138888888887,0 78.47541666666667,30.380138888888887,0 78.47513888888889,30.380694444444444,0 78.47458333333334,30.380694444444444,0 78.47430555555556,30.381249999999998,0 78.47375000000001,30.381249999999998,0 78.47347222222223,30.381805555555555,0 78.47291666666668,30.381805555555555,0 78.4726388888889,30.38236111111111,0 78.47208333333334,30.38236111111111,0 78.4715277777778,30.382916666666663,0 78.47125000000001,30.38486111111111,0 78.47097222222223,30.385138888888886,0 78.47041666666668,30.385138888888886,0 78.47041666666668,30.385416666666664,0 78.46958333333335,30.385416666666664,0 78.46958333333335,30.385138888888886,0 78.46819444444445,30.385416666666664,0 78.46736111111112,30.386527777777776,0 78.46652777777778,30.386527777777776,0 78.46652777777778,30.386805555555554,0 78.46541666666668,30.387083333333333,0 78.46569444444445,30.387916666666666,0 78.46458333333334,30.387916666666666,0 78.46402777777779,30.38847222222222,0 78.46291666666667,30.38847222222222,0 78.4626388888889,30.389027777777777,0 78.46208333333334,30.389027777777777,0 78.46180555555557,30.38958333333333,0 78.46125,30.38958333333333,0 78.46097222222224,30.390138888888888,0 78.46041666666667,30.390138888888888,0 78.46041666666667,30.390694444444442,0 78.46208333333334,30.39125,0 78.46208333333334,30.391805555555553,0 78.46097222222224,30.39236111111111,0 78.46125,30.392916666666665,0 78.46097222222224,30.392916666666665,0 78.46097222222224,30.393749999999997,0 78.46069444444446,30.394027777777776,0 78.45986111111112,30.394027777777776,0 78.45958333333334,30.393194444444443,0 78.45847222222223,30.39347222222222,0 78.45875000000001,30.393749999999997,0 78.45875000000001,30.394305555555555,0 78.45819444444446,30.39458333333333,0 78.45819444444446,30.39625,0 78.45847222222223,30.39625,0 78.45847222222223,30.396805555555552,0 78.4576388888889,30.39708333333333,0 78.4576388888889,30.39763888888889,0 78.45791666666668,30.39763888888889,0 78.45791666666668,30.39847222222222,0 78.4576388888889,30.39875,0 78.4565277777778,30.399027777777775,0 78.4565277777778,30.399305555555554,0 78.4551388888889,30.399305555555554,0 78.4551388888889,30.399583333333332,0 78.45291666666668,30.399305555555554,0 78.45319444444445,30.400138888888886,0 78.45402777777778,30.400694444444444,0 78.45402777777778,30.401249999999997,0 78.45347222222223,30.401805555555555,0 78.45347222222223,30.402638888888887,0 78.45291666666668,30.402638888888887,0 78.4526388888889,30.40319444444444,0 78.45180555555557,30.40319444444444,0 78.45180555555557,30.40375,0 78.45125000000002,30.404027777777777,0 78.45152777777778,30.40486111111111,0 78.45208333333335,30.40486111111111,0 78.45208333333335,30.405138888888885,0 78.45069444444445,30.405138888888885,0 78.45069444444445,30.40458333333333,0 78.4501388888889,30.40458333333333,0 78.44958333333335,30.404027777777777,0 78.44986111111112,30.40375,0 78.44986111111112,30.402916666666666,0 78.44902777777779,30.402638888888887,0 78.44902777777779,30.401805555555555,0 78.44736111111112,30.401805555555555,0 78.44736111111112,30.401527777777776,0 78.44652777777779,30.401527777777776,0 78.44652777777779,30.401249999999997,0 78.4451388888889,30.40097222222222,0 78.4451388888889,30.400694444444444,0 78.44458333333334,30.400694444444444,0 78.44430555555557,30.401249999999997,0 78.44375000000001,30.401249999999997,0 78.4426388888889,30.40236111111111,0 78.44125000000001,30.40208333333333,0 78.44125000000001,30.401805555555555,0 78.44041666666668,30.401805555555555,0 78.44069444444446,30.40208333333333,0 78.44041666666668,30.40319444444444,0 78.43958333333335,30.40319444444444,0 78.43930555555556,30.402916666666666,0 78.43847222222223,30.40375,0 78.43791666666668,30.40375,0 78.43791666666668,30.404027777777777,0 78.43708333333335,30.404027777777777,0 78.43708333333335,30.402916666666666,0 78.43652777777778,30.402638888888887,0 78.43652777777778,30.40208333333333,0 78.43597222222223,30.401527777777776,0 78.43486111111112,30.401249999999997,0 78.43486111111112,30.40097222222222,0 78.43402777777779,30.40097222222222,0 78.43347222222224,30.401527777777776,0 78.4326388888889,30.401249999999997,0 78.4326388888889,30.401805555555555,0 78.43347222222224,30.40208333333333,0 78.43347222222224,30.40236111111111,0 78.43430555555557,30.40236111111111,0 78.43430555555557,30.402638888888887,0 78.43541666666668,30.40236111111111,0 78.43569444444445,30.40319444444444,0 78.43597222222223,30.40319444444444,0 78.43597222222223,30.40458333333333,0 78.43652777777778,30.405138888888885,0 78.43791666666668,30.405138888888885,0 78.4376388888889,30.405694444444443,0 78.43708333333335,30.405694444444443,0 78.43597222222223,30.406805555555554,0 78.43541666666668,30.406805555555554,0 78.43486111111112,30.407361111111108,0 78.43486111111112,30.407916666666665,0 78.43736111111112,30.407638888888886,0 78.43736111111112,30.407361111111108,0 78.4415277777778,30.407083333333333,0 78.4415277777778,30.407361111111108,0 78.4426388888889,30.407361111111108,0 78.4426388888889,30.407638888888886,0 78.44347222222223,30.407638888888886,0 78.44347222222223,30.407916666666665,0 78.4451388888889,30.408194444444444,0 78.4451388888889,30.408749999999998,0 78.44541666666667,30.408749999999998,0 78.44569444444446,30.40958333333333,0 78.44402777777779,30.410138888888888,0 78.44402777777779,30.41097222222222,0 78.44319444444446,30.41125,0 78.44319444444446,30.412916666666664,0 78.4426388888889,30.412916666666664,0 78.44208333333334,30.41347222222222,0 78.44180555555556,30.413194444444443,0 78.44097222222223,30.413194444444443,0 78.44069444444446,30.41347222222222,0 78.44097222222223,30.414305555555554,0 78.43930555555556,30.415694444444444,0 78.43930555555556,30.416249999999998,0 78.43958333333335,30.416249999999998,0 78.43930555555556,30.41708333333333,0 78.43847222222223,30.416805555555552,0 78.43819444444445,30.41597222222222,0 78.4376388888889,30.41597222222222,0 78.43736111111112,30.415416666666665,0 78.43680555555557,30.415416666666665,0 78.43680555555557,30.415694444444444,0 78.43625000000002,30.415694444444444,0 78.43625000000002,30.415416666666665,0 78.43402777777779,30.415416666666665,0 78.43375000000002,30.41597222222222,0 78.43625000000002,30.41847222222222,0 78.43680555555557,30.41847222222222,0 78.43680555555557,30.419027777777774,0 78.43652777777778,30.419305555555553,0 78.43486111111112,30.419305555555553,0 78.43486111111112,30.419583333333332,0 78.43430555555557,30.419583333333332,0 78.43375000000002,30.420138888888886,0 78.43375000000002,30.420694444444443,0 78.43319444444445,30.421249999999997,0 78.43125,30.421805555555554,0 78.43069444444446,30.42236111111111,0 78.43069444444446,30.422916666666666,0 78.4301388888889,30.42319444444444,0 78.4301388888889,30.424027777777777,0 78.42986111111112,30.424305555555552,0 78.42847222222223,30.422916666666666,0 78.42736111111113,30.42319444444444,0 78.42708333333334,30.422638888888887,0 78.42486111111113,30.422638888888887,0 78.42347222222223,30.421249999999997,0 78.42236111111112,30.42208333333333,0 78.42236111111112,30.42236111111111,0 78.42291666666668,30.42236111111111,0 78.42291666666668,30.42375,0 78.42375000000001,30.42458333333333,0 78.42458333333335,30.42458333333333,0 78.42486111111113,30.42486111111111,0 78.42458333333335,30.42513888888889,0 78.42486111111113,30.42625,0 78.42430555555556,30.426527777777775,0 78.42430555555556,30.427083333333332,0 78.42458333333335,30.427083333333332,0 78.42458333333335,30.427638888888886,0 78.42569444444446,30.427916666666665,0 78.42625000000001,30.42847222222222,0 78.42625000000001,30.429027777777776,0 78.42569444444446,30.429305555555555,0 78.42569444444446,30.430416666666666,0 78.42430555555556,30.43069444444444,0 78.4240277777778,30.43125,0 78.42069444444445,30.43125,0 78.42041666666668,30.431805555555552,0 78.41986111111112,30.431805555555552,0 78.41986111111112,30.43347222222222,0 78.42069444444445,30.433749999999996,0 78.42041666666668,30.434027777777775,0 78.42069444444445,30.434305555555554,0 78.42041666666668,30.434583333333332,0 78.42041666666668,30.435694444444444,0 78.42319444444445,30.436249999999998,0 78.42347222222223,30.437638888888888,0 78.42430555555556,30.437916666666666,0 78.4240277777778,30.43875,0 78.42458333333335,30.439305555555553,0 78.42319444444445,30.43958333333333,0 78.4226388888889,30.441249999999997,0 78.42236111111112,30.44097222222222,0 78.42069444444445,30.44097222222222,0 78.42069444444445,30.441249999999997,0 78.41986111111112,30.441249999999997,0 78.41986111111112,30.441527777777775,0 78.41958333333335,30.441249999999997,0 78.41875000000002,30.441249999999997,0 78.41875000000002,30.442083333333333,0 78.41847222222223,30.442361111111108,0 78.4176388888889,30.442083333333333,0 78.4176388888889,30.442916666666665,0 78.41819444444445,30.442916666666665,0 78.41819444444445,30.443194444444444,0 78.41986111111112,30.443194444444444,0 78.41986111111112,30.44347222222222,0 78.42097222222223,30.443749999999998,0 78.42097222222223,30.444305555555555,0 78.42069444444445,30.44458333333333,0 78.41875000000002,30.444305555555555,0 78.41875000000002,30.445138888888888,0 78.41819444444445,30.44569444444444,0 78.41680555555557,30.44569444444444,0 78.41652777777779,30.44597222222222,0 78.41680555555557,30.44625,0 78.41680555555557,30.44736111111111,0 78.41625,30.44736111111111,0 78.41597222222224,30.446805555555553,0 78.41486111111112,30.446805555555553,0 78.41430555555557,30.44625,0 78.41291666666667,30.44625,0 78.41236111111112,30.447638888888886,0 78.41208333333334,30.44736111111111,0 78.41125000000001,30.44736111111111,0 78.41125000000001,30.447638888888886,0 78.41041666666668,30.447638888888886,0 78.4101388888889,30.44736111111111,0 78.4101388888889,30.447638888888886,0 78.40958333333334,30.447638888888886,0 78.40819444444446,30.44625,0 78.40708333333335,30.44597222222222,0 78.40736111111111,30.44708333333333,0 78.40791666666668,30.44736111111111,0 78.40791666666668,30.447916666666664,0 78.40847222222223,30.448194444444443,0 78.40847222222223,30.448749999999997,0 78.40958333333334,30.449305555555554,0 78.40986111111113,30.450138888888887,0 78.44569444444446,30.450138888888887,0 78.44569444444446,30.449305555555554,0 78.44486111111112,30.448749999999997,0 78.44486111111112,30.448194444444443,0 78.44569444444446,30.447638888888886,0 78.44569444444446,30.446527777777774,0 78.44541666666667,30.446527777777774,0 78.4451388888889,30.445138888888888,0 78.44375000000001,30.44486111111111,0 78.44375000000001,30.444305555555555,0 78.44458333333334,30.444027777777777,0 78.44458333333334,30.443749999999998,0 78.44541666666667,30.443749999999998,0 78.44541666666667,30.44347222222222,0 78.44597222222224,30.44347222222222,0 78.44625,30.444027777777777,0 78.44680555555557,30.444027777777777,0 78.44680555555557,30.443749999999998,0 78.44819444444445,30.444027777777777,0 78.44819444444445,30.443194444444444,0 78.44847222222224,30.443194444444444,0 78.44875,30.442361111111108,0 78.44930555555557,30.442361111111108,0 78.44986111111112,30.443194444444444,0 78.45180555555557,30.443194444444444,0 78.45180555555557,30.44347222222222,0 78.45347222222223,30.443749999999998,0 78.45319444444445,30.442916666666665,0 78.4526388888889,30.442638888888887,0 78.4526388888889,30.441805555555554,0 78.45208333333335,30.441805555555554,0 78.45208333333335,30.441249999999997,0 78.45180555555557,30.441249999999997,0 78.45208333333335,30.439305555555553,0 78.4526388888889,30.439305555555553,0 78.4526388888889,30.43875,0 78.45375000000001,30.43819444444444,0 78.45375000000001,30.43708333333333,0 78.4551388888889,30.43708333333333,0 78.45597222222223,30.437916666666666,0 78.4576388888889,30.437916666666666,0 78.4576388888889,30.43819444444444,0 78.45847222222223,30.43847222222222,0 78.45875000000001,30.434583333333332,0 78.45958333333334,30.434305555555554,0 78.45958333333334,30.434027777777775,0 78.4601388888889,30.434027777777775,0 78.46041666666667,30.433749999999996,0 78.46041666666667,30.432916666666664,0 78.46208333333334,30.433194444444442,0 78.4626388888889,30.43263888888889,0 78.4626388888889,30.430138888888887,0 78.46319444444445,30.42958333333333,0 78.46347222222224,30.42986111111111,0 78.46819444444445,30.42986111111111,0 78.46819444444445,30.42958333333333,0 78.46930555555556,30.42958333333333,0 78.4701388888889,30.430416666666666,0 78.47180555555556,30.43069444444444,0 78.47236111111113,30.431527777777777,0 78.47319444444446,30.431527777777777,0 78.47375000000001,30.43208333333333,0 78.47347222222223,30.430416666666666,0 78.47180555555556,30.429305555555555,0 78.4715277777778,30.428194444444443,0 78.47069444444446,30.42736111111111,0 78.4701388888889,30.42736111111111,0 78.4701388888889,30.427083333333332,0 78.46930555555556,30.426805555555553,0 78.46930555555556,30.425416666666663,0 78.46958333333335,30.425416666666663,0 78.46958333333335,30.42486111111111,0 78.47097222222223,30.42486111111111,0 78.4715277777778,30.424305555555552,0 78.47208333333334,30.42375,0 78.47208333333334,30.42319444444444,0 78.4726388888889,30.42319444444444,0 78.47291666666668,30.421805555555554,0 78.47430555555556,30.420416666666664,0 78.47569444444446,30.420416666666664,0 78.47597222222224,30.420694444444443,0 78.47597222222224,30.420416666666664,0 78.47680555555557,30.420416666666664,0 78.47680555555557,30.420138888888886,0 78.47875,30.420138888888886,0 78.47875,30.420416666666664,0 78.48069444444445,30.420694444444443,0 78.4801388888889,30.420138888888886,0 78.4801388888889,30.419583333333332,0 78.47986111111112,30.419583333333332,0 78.47986111111112,30.41875,0 78.47958333333334,30.41875,0 78.47958333333334,30.41736111111111,0 78.47986111111112,30.41736111111111,0 78.47986111111112,30.416805555555552,0 78.47958333333334,30.416805555555552,0 78.47958333333334,30.415138888888887,0 78.47986111111112,30.415138888888887,0 78.47986111111112,30.413749999999997,0 78.4801388888889,30.413749999999997,0 78.4801388888889,30.412916666666664,0 78.48041666666667,30.412916666666664,0 78.48041666666667,30.411527777777774,0 78.48097222222223,30.41125,0 78.48180555555557,30.41208333333333,0 78.48319444444445,30.41208333333333,0 78.48319444444445,30.411805555555553,0 78.48541666666668,30.411805555555553,0 78.48541666666668,30.41208333333333,0 78.48597222222223,30.41208333333333,0 78.48625000000001,30.411805555555553,0 78.4865277777778,30.410416666666663,0 78.48569444444445,30.410416666666663,0 78.48569444444445,30.409305555555555,0 78.48625000000001,30.409027777777776,0 78.48625000000001,30.408194444444444,0 78.48541666666668,30.407361111111108,0 78.48402777777778,30.407083333333333,0 78.48375000000001,30.406249999999996,0 78.48458333333335,30.405416666666664,0 78.48458333333335,30.40486111111111,0 78.48541666666668,30.40486111111111,0 78.48541666666668,30.40375,0 78.4865277777778,30.402638888888887,0 78.48708333333335,30.402638888888887,0 78.48708333333335,30.40236111111111,0 78.48847222222223,30.40236111111111,0 78.48847222222223,30.402916666666666,0 78.48902777777779,30.402916666666666,0 78.48930555555556,30.40347222222222,0 78.48986111111113,30.40347222222222,0 78.4901388888889,30.404027777777777,0 78.49069444444446,30.404027777777777,0 78.49069444444446,30.402916666666666,0 78.49097222222223,30.402916666666666,0 78.49069444444446,30.402638888888887,0 78.49069444444446,30.401805555555555,0 78.49125000000001,30.401249999999997,0 78.49125000000001,30.400694444444444,0 78.49152777777779,30.400694444444444,0 78.49152777777779,30.400138888888886,0 78.49180555555557,30.400138888888886,0 78.49180555555557,30.399027777777775,0 78.49208333333334,30.399027777777775,0 78.49125000000001,30.396805555555552,0 78.49180555555557,30.396805555555552,0 78.49236111111112,30.39736111111111,0 78.4926388888889,30.399305555555554,0 78.49375,30.400416666666665,0 78.49375,30.401527777777776,0 78.49458333333334,30.401805555555555,0 78.49458333333334,30.402638888888887,0 78.49569444444445,30.402638888888887,0 78.49625000000002,30.40347222222222,0 78.49708333333335,30.40319444444444,0 78.49708333333335,30.402916666666666,0 78.49791666666668,30.402916666666666,0 78.49791666666668,30.40347222222222,0 78.49847222222223,30.404027777777777,0 78.49958333333335,30.404305555555553,0 78.50097222222223,30.405694444444443,0 78.5026388888889,30.40597222222222,0 78.5026388888889,30.405416666666664,0 78.50208333333335,30.40486111111111,0 78.50097222222223,30.40486111111111,0 78.50069444444445,30.40458333333333,0 78.50069444444445,30.40347222222222,0 78.50041666666668,30.40347222222222,0 78.50069444444445,30.402638888888887,0 78.5001388888889,30.40208333333333,0 78.5001388888889,30.401249999999997,0 78.49986111111112,30.401249999999997,0 78.49986111111112,30.399305555555554,0 78.5001388888889,30.399027777777775,0 78.49958333333335,30.39875,0 78.49958333333335,30.397916666666664,0 78.49986111111112,30.397916666666664,0 78.49986111111112,30.395138888888887,0 78.50041666666668,30.395138888888887,0 78.50041666666668,30.392916666666665,0 78.50180555555556,30.393194444444443,0 78.5015277777778,30.393749999999997,0 78.50208333333335,30.394027777777776,0 78.50208333333335,30.39486111111111,0 78.50236111111113,30.39486111111111,0 78.50236111111113,30.396805555555552,0 78.5026388888889,30.39708333333333,0 78.5040277777778,30.39708333333333,0 78.50458333333334,30.397916666666664,0 78.50569444444446,30.397916666666664,0 78.50597222222223,30.39847222222222,0 78.50680555555557,30.39847222222222,0 78.50680555555557,30.39875,0 78.50819444444446,30.399027777777775,0 78.50819444444446,30.398194444444442,0 78.5076388888889,30.397916666666664,0 78.5076388888889,30.39708333333333,0 78.50680555555557,30.396527777777777,0 78.50680555555557,30.39625,0 78.50736111111112,30.39625,0 78.50791666666667,30.39569444444444,0 78.50736111111112,30.394027777777776,0 78.5076388888889,30.393749999999997,0 78.50791666666667,30.394027777777776,0 78.50819444444446,30.393749999999997,0 78.50902777777779,30.393749999999997,0 78.5101388888889,30.392638888888886,0 78.51152777777779,30.392638888888886,0 78.51152777777779,30.39236111111111,0 78.51180555555557,30.392638888888886,0 78.51291666666668,30.392638888888886,0 78.51319444444445,30.390694444444442,0 78.5126388888889,30.390138888888888,0 78.51236111111112,30.38819444444444,0 78.51319444444445,30.387916666666666,0 78.51347222222223,30.387361111111108,0 78.5176388888889,30.387638888888887,0 78.5176388888889,30.387916666666666,0 78.5190277777778,30.387638888888887,0 78.5190277777778,30.387916666666666,0 78.5201388888889,30.387916666666666,0 78.5201388888889,30.38819444444444,0 78.52041666666668,30.387916666666666,0 78.52069444444446,30.38819444444444,0 78.52152777777779,30.38819444444444,0 78.52152777777779,30.38847222222222,0 78.5226388888889,30.38847222222222,0 78.5226388888889,30.38819444444444,0 78.52347222222224,30.387916666666666,0 78.52375,30.388749999999998,0 78.52458333333334,30.388749999999998,0 78.52458333333334,30.38958333333333,0 78.52486111111112,30.38986111111111,0 78.52569444444445,30.38986111111111,0 78.52569444444445,30.390416666666663,0 78.52625,30.39097222222222,0 78.52708333333334,30.39097222222222,0 78.52708333333334,30.390138888888888,0 78.52819444444445,30.389027777777777,0 78.52791666666668,30.387361111111108,0 78.52875000000002,30.387083333333333,0 78.52986111111112,30.385694444444443,0 78.53041666666668,30.385694444444443,0 78.53152777777778,30.38458333333333,0 78.53125000000001,30.384027777777774,0 78.53041666666668,30.384027777777774,0 78.53041666666668,30.38375,0 78.52930555555557,30.38375,0 78.52930555555557,30.38347222222222,0 78.52819444444445,30.38347222222222,0 78.52819444444445,30.38319444444444,0 78.52680555555557,30.38319444444444,0 78.52819444444445,30.381527777777777,0 78.52902777777778,30.381527777777777,0 78.52930555555557,30.381249999999998,0 78.52930555555557,30.380416666666665,0 78.52958333333335,30.380138888888887,0 78.53041666666668,30.380138888888887,0 78.53041666666668,30.379861111111108,0 78.53152777777778,30.379583333333333,0 78.53180555555556,30.379027777777775,0 78.53319444444446,30.379027777777775,0 78.53319444444446,30.378749999999997,0 78.53541666666668,30.379027777777775,0 78.53569444444446,30.379583333333333,0 78.53652777777779,30.379583333333333,0 78.53708333333334,30.378749999999997,0 78.53902777777779,30.378749999999997,0 78.53902777777779,30.378194444444443,0 78.53875000000001,30.378194444444443,0 78.53902777777779,30.37708333333333,0 78.5401388888889,30.37708333333333,0 78.5401388888889,30.376527777777774,0 78.54097222222224,30.37625,0 78.54236111111112,30.37458333333333,0 78.54291666666667,30.37458333333333,0 78.54319444444445,30.374027777777776,0 78.54375000000002,30.374027777777776,0 78.54375000000002,30.373749999999998,0 78.54430555555557,30.373749999999998,0 78.54486111111112,30.373194444444444,0 78.54569444444445,30.373194444444444,0 78.54569444444445,30.372916666666665,0 78.54680555555557,30.372638888888886,0 78.54708333333335,30.372083333333332,0 78.54930555555556,30.371805555555554,0 78.54930555555556,30.371527777777775,0 78.55041666666668,30.371249999999996,0 78.55069444444446,30.370694444444442,0 78.55180555555556,30.370694444444442,0 78.55236111111113,30.371249999999996,0 78.55236111111113,30.371805555555554,0 78.55430555555557,30.37347222222222,0 78.55430555555557,30.37486111111111,0 78.55347222222223,30.37569444444444,0 78.55347222222223,30.377916666666664,0 78.55402777777779,30.378194444444443,0 78.55430555555557,30.377916666666664,0 78.55430555555557,30.37708333333333,0 78.55541666666667,30.37597222222222,0 78.55597222222224,30.37597222222222,0 78.55652777777779,30.375416666666666,0 78.55791666666667,30.375416666666666,0 78.55875000000002,30.37625,0 78.55958333333335,30.37625,0 78.55986111111112,30.37597222222222,0 78.55986111111112,30.371805555555554,0 78.55708333333334,30.371805555555554,0 78.55708333333334,30.372083333333332,0 78.55652777777779,30.371805555555554,0 78.55652777777779,30.371249999999996,0 78.55680555555557,30.371249999999996,0 78.55652777777779,30.37097222222222,0 78.55652777777779,30.37013888888889,0 78.55541666666667,30.36958333333333,0 78.55486111111112,30.367916666666666,0 78.55402777777779,30.367638888888887,0 78.55402777777779,30.36597222222222,0 78.55486111111112,30.365416666666665,0 78.55486111111112,30.364583333333332,0 78.55430555555557,30.364583333333332,0 78.55375000000001,30.364027777777775,0 78.55375000000001,30.362916666666663,0 78.55319444444446,30.36263888888889,0 78.55319444444446,30.361805555555552,0 78.5526388888889,30.36125,0 78.5526388888889,30.360138888888887,0 78.55236111111113,30.360138888888887,0 78.55236111111113,30.364027777777775,0 78.55208333333334,30.364027777777775,0 78.55208333333334,30.364583333333332,0 78.55041666666668,30.364583333333332,0 78.55041666666668,30.364305555555553,0 78.54958333333335,30.364305555555553,0 78.54958333333335,30.364027777777775,0 78.54930555555556,30.364305555555553,0 78.54791666666668,30.364027777777775,0 78.5476388888889,30.364583333333332,0 78.54680555555557,30.364583333333332,0 78.54680555555557,30.364305555555553,0 78.54569444444445,30.364305555555553,0 78.54541666666668,30.364583333333332,0 78.54486111111112,30.364027777777775,0 78.54458333333335,30.36486111111111,0 78.54375000000002,30.364583333333332,0 78.54208333333334,30.366527777777776,0 78.54152777777779,30.366527777777776,0 78.54125,30.36708333333333,0 78.54069444444445,30.36708333333333,0 78.53986111111112,30.367916666666666,0 78.53986111111112,30.36847222222222,0 78.53930555555557,30.36847222222222,0 78.53930555555557,30.36875,0 78.53847222222224,30.36875,0 78.53847222222224,30.369027777777777,0 78.53736111111112,30.369305555555552,0 78.53708333333334,30.369027777777777,0 78.53708333333334,30.36819444444444,0 78.53652777777779,30.36819444444444,0 78.53625000000001,30.36958333333333,0 78.53763888888889,30.37097222222222,0 78.53736111111112,30.371527777777775,0 78.53236111111111,30.372083333333332,0 78.53236111111111,30.372361111111108,0 78.53097222222223,30.372638888888886,0 78.53097222222223,30.372916666666665,0 78.5301388888889,30.372916666666665,0 78.5301388888889,30.373194444444444,0 78.5276388888889,30.372916666666665,0 78.5276388888889,30.374305555555555,0 78.52652777777779,30.375416666666666,0 78.52486111111112,30.375416666666666,0 78.52458333333334,30.37569444444444,0 78.52458333333334,30.378194444444443,0 78.52430555555557,30.378194444444443,0 78.52430555555557,30.378749999999997,0 78.52347222222224,30.379027777777775,0 78.52347222222224,30.379305555555554,0 78.52236111111112,30.379305555555554,0 78.52236111111112,30.379583333333333,0 78.51958333333334,30.379583333333333,0 78.51958333333334,30.379305555555554,0 78.51930555555556,30.379583333333333,0 78.51791666666668,30.379583333333333,0 78.5176388888889,30.379027777777775,0 78.51486111111112,30.379027777777775,0 78.51486111111112,30.37847222222222,0 78.5151388888889,30.37847222222222,0 78.51486111111112,30.377638888888885,0 78.51402777777778,30.377638888888885,0 78.51402777777778,30.377916666666664,0 78.51236111111112,30.377638888888885,0 78.51208333333335,30.37736111111111,0 78.51208333333335,30.376527777777774,0 78.51152777777779,30.37597222222222,0 78.51069444444445,30.37597222222222,0 78.51041666666667,30.376805555555553,0 78.50875,30.376527777777774,0 78.50875,30.37625,0 78.5076388888889,30.37625,0 78.5076388888889,30.377638888888885,0 78.50736111111112,30.377638888888885,0 78.5076388888889,30.378194444444443,0 78.50736111111112,30.37847222222222,0 78.50541666666668,30.37847222222222,0 78.50541666666668,30.378194444444443,0 78.5026388888889,30.377916666666664,0 78.5026388888889,30.377638888888885,0 78.50125000000001,30.377638888888885,0 78.50125000000001,30.37736111111111,0 78.50041666666668,30.37736111111111,0 78.50041666666668,30.377638888888885,0 78.5001388888889,30.37736111111111,0 78.49791666666668,30.37736111111111,0 78.4976388888889,30.376805555555553,0 78.49680555555557,30.376805555555553,0 78.49680555555557,30.37708333333333,0 78.49486111111112,30.376805555555553,0 78.49486111111112,30.37736111111111,0 78.49402777777779,30.377638888888885,0 78.49430555555557,30.378749999999997,0 78.49402777777779,30.37847222222222,0 78.49291666666667,30.37847222222222,0 78.49291666666667,30.378194444444443,0 78.49125000000001,30.378194444444443,0 78.49125000000001,30.377916666666664,0 78.49041666666668,30.377916666666664,0 78.49041666666668,30.377638888888885,0 78.48791666666668,30.377916666666664,0 78.48791666666668,30.378194444444443,0 78.48708333333335,30.378194444444443,0 78.48708333333335,30.37847222222222,0 78.48569444444445,30.37847222222222,0 78.4851388888889,30.377638888888885,0 78.48597222222223,30.37708333333333,0 78.48569444444445,30.376805555555553,0 78.48569444444445,30.37625,0 78.48625000000001,30.37597222222222,0 78.48625000000001,30.375138888888888,0 78.48597222222223,30.37486111111111,0 78.48486111111112,30.37486111111111,0 78.48486111111112,30.375138888888888,0 78.48402777777778,30.375138888888888,0 78.48402777777778,30.375416666666666,0 78.48291666666668,30.37569444444444,0 78.4826388888889,30.37736111111111,0 78.48152777777779,30.37736111111111,0 78.48152777777779,30.37708333333333,0 78.4776388888889,30.37736111111111,0 78.47819444444445,30.376527777777774,0 78.47736111111112,30.376527777777774,0 78.47736111111112,30.37625,0 78.47819444444445,30.37625,0 78.47819444444445,30.37597222222222,0 78.47791666666667,30.37569444444444,0 78.47708333333334,30.37569444444444,0 78.47708333333334,30.375416666666666,0 78.4776388888889,30.375416666666666,0 78.4776388888889,30.375138888888888,0 78.47708333333334,30.375138888888888,0 78.47736111111112,30.37486111111111,0 78.47708333333334,30.37458333333333,0 78.47736111111112,30.374305555555555,0 78.47708333333334,30.37347222222222,0 78.47736111111112,30.373194444444444,0 78.47819444444445,30.373194444444444,0 78.47819444444445,30.372361111111108,0 78.47736111111112,30.371527777777775,0 78.47847222222224,30.371249999999996,0 78.47847222222224,30.37097222222222,0 78.48041666666667,30.371249999999996,0 78.48125000000002,30.370416666666664,0 78.48069444444445,30.369305555555552,0 78.48152777777779,30.369027777777777,0 78.48180555555557,30.36847222222222,0 78.48236111111112,30.36847222222222,0 78.48291666666668,30.367638888888887,0 78.48347222222223,30.367638888888887,0 78.48402777777778,30.36708333333333,0 78.48402777777778,30.365694444444443,0 78.4851388888889,30.365694444444443,0 78.4851388888889,30.365138888888886,0 78.48430555555557,30.365138888888886,0 78.48430555555557,30.364305555555553,0 78.48402777777778,30.364305555555553,0 78.48402777777778,30.36347222222222,0 78.48486111111112,30.362916666666663,0 78.48402777777778,30.36208333333333,0 78.48402777777778,30.361527777777777,0 78.48430555555557,30.361527777777777,0 78.48402777777778,30.35958333333333,0 78.48486111111112,30.359305555555554,0 78.4851388888889,30.358749999999997,0 78.48625000000001,30.358749999999997,0 78.48625000000001,30.35958333333333,0 78.4865277777778,30.359305555555554,0 78.48736111111113,30.359305555555554,0 78.48736111111113,30.359027777777776,0 78.48847222222223,30.359027777777776,0 78.48847222222223,30.358749999999997,0 78.48902777777779,30.359027777777776,0 78.48902777777779,30.358194444444443,0 78.4876388888889,30.357083333333332,0 78.4876388888889,30.356527777777774,0 78.48791666666668,30.356527777777774,0 78.4876388888889,30.35597222222222,0 78.48791666666668,30.355694444444442,0 78.48875000000001,30.355694444444442,0 78.48875000000001,30.35486111111111,0 78.48847222222223,30.35486111111111,0 78.48819444444446,30.353749999999998,0 78.4876388888889,30.353749999999998,0 78.48736111111113,30.352916666666665,0 78.48680555555556,30.352638888888887,0 78.48708333333335,30.352083333333333,0 78.48680555555556,30.351805555555554,0 78.48597222222223,30.351805555555554,0 78.48486111111112,30.350694444444443,0 78.48458333333335,30.349305555555553,0 78.48402777777778,30.34875,0 78.48402777777778,30.34819444444444,0 78.48430555555557,30.34819444444444,0 78.48430555555557,30.34736111111111,0 78.48402777777778,30.34708333333333,0 78.48541666666668,30.34708333333333,0 78.48541666666668,30.34736111111111,0 78.48597222222223,30.34736111111111,0 78.48597222222223,30.34708333333333,0 78.48625000000001,30.34736111111111,0 78.48902777777779,30.34736111111111,0 78.48819444444446,30.346527777777776,0 78.48680555555556,30.346527777777776,0 78.48597222222223,30.345694444444444,0 78.48597222222223,30.345138888888886,0 78.4865277777778,30.344861111111108,0 78.4865277777778,30.344305555555554,0 78.48708333333335,30.344305555555554,0 78.4876388888889,30.344861111111108,0 78.4876388888889,30.344305555555554,0 78.48708333333335,30.343749999999996,0 78.4876388888889,30.343749999999996,0 78.48791666666668,30.343194444444443,0 78.48847222222223,30.343194444444443,0 78.48875000000001,30.34236111111111,0 78.48930555555556,30.34236111111111,0 78.48958333333334,30.341527777777777,0 78.49041666666668,30.34097222222222,0 78.49041666666668,30.340416666666666,0 78.49125000000001,30.340138888888887,0 78.49125000000001,30.33958333333333,0 78.49041666666668,30.339305555555555,0 78.49041666666668,30.338194444444444,0 78.49069444444446,30.337916666666665,0 78.49041666666668,30.337916666666665,0 78.4901388888889,30.337083333333332,0 78.48958333333334,30.337083333333332,0 78.48930555555556,30.335416666666664,0 78.48986111111113,30.33513888888889,0 78.48958333333334,30.33486111111111,0 78.48986111111113,30.33347222222222,0 78.49069444444446,30.33347222222222,0 78.49097222222223,30.33319444444444,0 78.49097222222223,30.332638888888887,0 78.49041666666668,30.33208333333333,0 78.49152777777779,30.33097222222222,0 78.49152777777779,30.330416666666665,0 78.49180555555557,30.330416666666665,0 78.49180555555557,30.329305555555553,0 78.49152777777779,30.329305555555553,0 78.49152777777779,30.32847222222222,0 78.49180555555557,30.328194444444442,0 78.49152777777779,30.327916666666663,0 78.49236111111112,30.327916666666663,0 78.49208333333334,30.327638888888888,0 78.49208333333334,30.32597222222222,0 78.49125000000001,30.32597222222222,0 78.49097222222223,30.326249999999998,0 78.49097222222223,30.32569444444444,0 78.49069444444446,30.32569444444444,0 78.49097222222223,30.324861111111108,0 78.49180555555557,30.324583333333333,0 78.49125000000001,30.324027777777776,0 78.49152777777779,30.324027777777776,0 78.49152777777779,30.32347222222222,0 78.49208333333334,30.322916666666664,0 78.49208333333334,30.32208333333333,0 78.49236111111112,30.32208333333333,0 78.49236111111112,30.32069444444444,0 78.49208333333334,30.32069444444444,0 78.49152777777779,30.319027777777777,0 78.49041666666668,30.318749999999998,0 78.4901388888889,30.318194444444444,0 78.49152777777779,30.317916666666665,0 78.49152777777779,30.317638888888887,0 78.49097222222223,30.317638888888887,0 78.49152777777779,30.317083333333333,0 78.49180555555557,30.317361111111108,0 78.4926388888889,30.317361111111108,0 78.4926388888889,30.317083333333333,0 78.49041666666668,30.315138888888885,0 78.4901388888889,30.314305555555553,0 78.49125000000001,30.314305555555553,0 78.49291666666667,30.31597222222222,0 78.49291666666667,30.316527777777775,0 78.49375,30.317083333333333,0 78.49375,30.317638888888887,0 78.49569444444445,30.318194444444444,0 78.49541666666667,30.317638888888887,0 78.49486111111112,30.317638888888887,0 78.49430555555557,30.317083333333333,0 78.49430555555557,30.315694444444443,0 78.49486111111112,30.315138888888885,0 78.49541666666667,30.315138888888885,0 78.49541666666667,30.31458333333333,0 78.49375,30.314027777777774,0 78.49375,30.31375,0 78.49430555555557,30.31375,0 78.49430555555557,30.31319444444444,0 78.4951388888889,30.312916666666666,0 78.4951388888889,30.31208333333333,0 78.49319444444446,30.311805555555555,0 78.49347222222224,30.311249999999998,0 78.49430555555557,30.311249999999998,0 78.49402777777779,30.31097222222222,0 78.49458333333334,30.310416666666665,0 78.49430555555557,30.310138888888886,0 78.49430555555557,30.308194444444442,0 78.49486111111112,30.308194444444442,0 78.49486111111112,30.30708333333333,0 78.4951388888889,30.30708333333333,0 78.4951388888889,30.30625,0 78.49569444444445,30.30569444444444,0 78.49569444444445,30.304027777777776,0 78.49486111111112,30.303194444444443,0 78.49486111111112,30.302916666666665,0 78.49541666666667,30.302916666666665,0 78.49541666666667,30.302638888888886,0 78.49486111111112,30.302638888888886,0 78.49486111111112,30.300416666666663,0 78.49430555555557,30.300416666666663,0 78.49430555555557,30.29986111111111,0 78.49319444444446,30.29986111111111,0 78.49291666666667,30.300416666666663,0 78.4926388888889,30.300416666666663,0 78.4926388888889,30.29986111111111,0 78.48680555555556,30.29986111111111,0 78.48680555555556,30.300416666666663,0 78.48708333333335,30.300694444444442,0 78.48791666666668,30.300694444444442,0 78.48847222222223,30.30125,0 78.48847222222223,30.302083333333332,0 78.48930555555556,30.302638888888886,0 78.48930555555556,30.303194444444443,0 78.48958333333334,30.303194444444443,0 78.48958333333334,30.30569444444444,0 78.49069444444446,30.30569444444444,0 78.49069444444446,30.306805555555552,0 78.49041666666668,30.306805555555552,0 78.4901388888889,30.308194444444442,0 78.48930555555556,30.307916666666664,0 78.48930555555556,30.30763888888889,0 78.48875000000001,30.30763888888889,0 78.48875000000001,30.30736111111111,0 78.48708333333335,30.30763888888889,0 78.4876388888889,30.308194444444442,0 78.48875000000001,30.30847222222222,0 78.48875000000001,30.308749999999996,0 78.48680555555556,30.308749999999996,0 78.48680555555556,30.309027777777775,0 78.4876388888889,30.309305555555554,0 78.4876388888889,30.310138888888886,0 78.48791666666668,30.310138888888886,0 78.48791666666668,30.310694444444444,0 78.48847222222223,30.311249999999998,0 78.48902777777779,30.311249999999998,0 78.48902777777779,30.311805555555555,0 78.48930555555556,30.311805555555555,0 78.48902777777779,30.312916666666666,0 78.48791666666668,30.311805555555555,0 78.48736111111113,30.311805555555555,0 78.48708333333335,30.312916666666666,0 78.48597222222223,30.314027777777774,0 78.48597222222223,30.31458333333333,0 78.48486111111112,30.31458333333333,0 78.48458333333335,30.314305555555553,0 78.48430555555557,30.31486111111111,0 78.48347222222223,30.31486111111111,0 78.48291666666668,30.315416666666664,0 78.48347222222223,30.31597222222222,0 78.48430555555557,30.31597222222222,0 78.48458333333335,30.316249999999997,0 78.48458333333335,30.317361111111108,0 78.48430555555557,30.317361111111108,0 78.48458333333335,30.317916666666665,0 78.48375000000001,30.317916666666665,0 78.48375000000001,30.31986111111111,0 78.48458333333335,30.31986111111111,0 78.48458333333335,30.31958333333333,0 78.48486111111112,30.31986111111111,0 78.48569444444445,30.31986111111111,0 78.48625000000001,30.320416666666663,0 78.48625000000001,30.32097222222222,0 78.48541666666668,30.321805555555553,0 78.48236111111112,30.321805555555553,0 78.48236111111112,30.32208333333333,0 78.48375000000001,30.32236111111111,0 78.48375000000001,30.322638888888886,0 78.48430555555557,30.322638888888886,0 78.48430555555557,30.323194444444443,0 78.4851388888889,30.323194444444443,0 78.48569444444445,30.323749999999997,0 78.48569444444445,30.324583333333333,0 78.48597222222223,30.324583333333333,0 78.48597222222223,30.325138888888887,0 78.48569444444445,30.325138888888887,0 78.48569444444445,30.32569444444444,0 78.48597222222223,30.32569444444444,0 78.48569444444445,30.326805555555552,0 78.48625000000001,30.32736111111111,0 78.48625000000001,30.328194444444442,0 78.48458333333335,30.327916666666663,0 78.48458333333335,30.32847222222222,0 78.48430555555557,30.32847222222222,0 78.48458333333335,30.329027777777775,0 78.48347222222223,30.329027777777775,0 78.48347222222223,30.329305555555553,0 78.48236111111112,30.329305555555553,0 78.48236111111112,30.329027777777775,0 78.48125000000002,30.32875,0 78.48125000000002,30.32847222222222,0 78.47902777777779,30.32847222222222,0 78.47875,30.329027777777775,0 78.47791666666667,30.329305555555553,0 78.47791666666667,30.32986111111111,0 78.47847222222224,30.32986111111111,0 78.47875,30.329305555555553,0 78.47986111111112,30.329305555555553,0 78.4801388888889,30.32986111111111,0 78.48097222222223,30.32986111111111,0 78.48097222222223,30.330138888888886,0 78.48291666666668,30.330138888888886,0 78.48291666666668,30.330416666666665,0 78.48375000000001,30.330416666666665,0 78.48375000000001,30.330694444444443,0 78.48430555555557,30.330694444444443,0 78.48486111111112,30.331249999999997,0 78.48458333333335,30.33319444444444,0 78.48347222222223,30.33319444444444,0 78.48319444444445,30.33347222222222,0 78.48319444444445,30.33486111111111,0 78.48458333333335,30.33458333333333,0 78.48402777777778,30.33513888888889,0 78.48458333333335,30.336805555555554,0 78.48430555555557,30.336805555555554,0 78.48430555555557,30.337361111111107,0 78.48347222222223,30.337083333333332,0 78.48347222222223,30.336805555555554,0 78.48291666666668,30.336805555555554,0 78.48291666666668,30.337361111111107,0 78.4826388888889,30.337361111111107,0 78.48291666666668,30.337916666666665,0 78.48347222222223,30.337916666666665,0 78.48375000000001,30.33847222222222,0 78.48430555555557,30.33847222222222,0 78.48402777777778,30.33958333333333,0 78.48291666666668,30.34069444444444,0 78.48236111111112,30.34069444444444,0 78.48125000000002,30.34236111111111,0 78.48069444444445,30.341805555555553,0 78.47986111111112,30.34208333333333,0 78.47986111111112,30.342916666666664,0 78.47902777777779,30.343194444444443,0 78.47902777777779,30.344583333333333,0 78.47986111111112,30.344583333333333,0 78.47958333333334,30.345138888888886,0 78.47708333333334,30.345138888888886,0 78.47708333333334,30.345416666666665,0 78.47625000000001,30.345416666666665,0 78.47652777777779,30.34597222222222,0 78.47791666666667,30.34597222222222,0 78.47791666666667,30.346249999999998,0 78.47847222222224,30.346249999999998,0 78.47847222222224,30.346527777777776,0 78.47902777777779,30.346527777777776,0 78.47958333333334,30.34708333333333,0 78.47930555555557,30.347916666666663,0 78.47902777777779,30.347916666666663,0 78.47930555555557,30.34847222222222,0 78.47847222222224,30.34875,0 78.47819444444445,30.34958333333333,0 78.47930555555557,30.34986111111111,0 78.47958333333334,30.350138888888885,0 78.47930555555557,30.350694444444443,0 78.47986111111112,30.350694444444443,0 78.48041666666667,30.34986111111111,0 78.48097222222223,30.34986111111111,0 78.48097222222223,30.350416666666664,0 78.48069444444445,30.350416666666664,0 78.48097222222223,30.35097222222222,0 78.48041666666667,30.351527777777775,0 78.47986111111112,30.351527777777775,0 78.47986111111112,30.351805555555554,0 78.48041666666667,30.351805555555554,0 78.48041666666667,30.352638888888887,0 78.48180555555557,30.352361111111108,0 78.48319444444445,30.354027777777777,0 78.48375000000001,30.354027777777777,0 78.48430555555557,30.35458333333333,0 78.48402777777778,30.35458333333333,0 78.48402777777778,30.355416666666663,0 78.48347222222223,30.355416666666663,0 78.48347222222223,30.355694444444442,0 78.48152777777779,30.355416666666663,0 78.47875,30.358194444444443,0 78.4801388888889,30.35958333333333,0 78.4801388888889,30.360138888888887,0 78.47902777777779,30.360416666666666,0 78.47930555555557,30.36069444444444,0 78.47930555555557,30.361805555555552,0 78.47986111111112,30.361805555555552,0 78.47986111111112,30.36236111111111,0 78.47958333333334,30.36236111111111,0 78.47958333333334,30.364305555555553,0 78.47930555555557,30.364305555555553,0 78.47930555555557,30.364583333333332,0 78.47986111111112,30.364583333333332,0 78.47958333333334,30.36486111111111,0 78.47986111111112,30.365416666666665,0 78.47902777777779,30.366249999999997,0 78.47819444444445,30.365416666666665,0 78.47791666666667,30.36597222222222,0 78.47625000000001,30.366527777777776,0 78.47597222222224,30.36708333333333,0 78.47430555555556,30.36708333333333,0 78.47375000000001,30.367638888888887,0 78.47375000000001,30.36819444444444,0 78.47430555555556,30.36875,0 78.47486111111112,30.36875,0 78.47486111111112,30.37097222222222,0 78.47430555555556,30.371527777777775,0 78.47541666666667,30.371527777777775,0 78.47569444444446,30.371805555555554,0 78.47569444444446,30.372638888888886,0 78.47597222222224,30.372638888888886,0 78.47569444444446,30.373194444444444,0 78.47652777777779,30.374027777777776,0 78.47625000000001,30.374305555555555,0 78.47625000000001,30.375138888888888,0 78.47652777777779,30.375138888888888,0 78.47652777777779,30.379583333333333,0</coordinates>
      </LinearRing></outerBoundaryIs></Polygon>
    </Placemark>
  </Document>
</kml>