{
  "type": "FeatureCollection",
  "features": [
    {
      "type": "Feature",
      "id": 227085150,
      "properties": {
        "natural": "water",
        "source": "Bing",
        "water": "reservoir"
      },
      "geometry": {
        "type": "Polygon",
        "coordinates": [
          [
            [
              78.4794997,
              30.2998302
            ],
            [
              78.4797751,
              30.299866
            ],
            [
              78.4801279,
              30.3000105
            ],
            [
              78.4801981,
              30.3002452
            ],
            [
              78.4802334,
              30.3004185
            ],
            [
              78.4800487,
              30.3004327
            ],
            [
              78.4799857,
              30.3002172
            ],
            [
              78.4796455,
              30.3000152
            ],
            [
              78.4794565,
              30.2999157
            ],
            [
              78.4794997,
              30.2998302
            ]
          ]
        ]
      }
    },
    {
      "type": "Feature",
      "id": 323341841,
      "properties": {
        "natural": "water",
        "water": "river"
      },
      "geometry": {
        "type": "Polygon",
        "coordinates": [
          [
            [
              78.4831695,
              30.2867947
            ],
            [
              78.4833082,
              30.28696
            ],
            [
              78.4837439,
              30.2872708
            ],
            [
              78.4845349,
              30.287643
            ],
            [
              78.485449,
              30.2879988
            ],
            [
              78.4862542,
              30.2884773
            ],
            [
              78.4866663,
              30.2887186
            ],
            [
              78.4871162,
              30.289009
            ],
            [
              78.4878109,
              30.2890416
            ],
            [
              78.4883881,
              30.289187
            ],
            [
              78.4890319,
              30.2892793
            ],
            [
              78.4896223,
              30.2892266
            ],
            [
              78.4900514,
              30.2894198
            ],
            [
              78.4903714,
              30.2896765
            ],
            [
              78.4907097,
              30.289913
            ],
            [
              78.4912454,
              30.290012
            ],
            [
              78.4913975,
              30.2900214
            ],
            [
              78.4914458,
              30.2900214
            ],
            [
              78.4916416,
              30.2900561
            ],
            [
              78.4918883,
              30.2901534
            ],
            [
              78.4920707,
              30.2902136
            ],
            [
              78.4922826,
              30.2903109
            ],
            [
              78.4926152,
              30.2904267
            ],
            [
              78.4927601,
              30.2904962
            ],
            [
              78.4928352,
              30.2906259
            ],
            [
              78.4930336,
              30.2908644
            ],
            [
              78.4931839,
              30.2910273
            ],
            [
              78.4936649,
              30.2913571
            ],
            [
              78.4943302,
              30.2916884
            ],
            [
              78.4947007,
              30.2918057
            ],
            [
              78.4951097,
              30.2923582
            ],
            [
              78.4953779,
              30.2922841
            ],
            [
              78.4958017,
              30.2923953
            ],
            [
              78.4965205,
              30.2926361
            ],
            [
              78.4969497,
              30.2928677
            ],
            [
              78.4973574,
              30.2929604
            ],
            [
              78.4976739,
              30.2931735
            ],
            [
              78.4977168,
              30.2934051
            ],
            [
              78.4978938,
              30.2933912
            ],
            [
              78.4980708,
              30.2931966
            ],
            [
              78.4983605,
              30.2930854
            ],
            [
              78.4986663,
              30.2930669
            ],
            [
              78.4989881,
              30.2931225
            ],
            [
              78.4992027,
              30.2932059
            ],
            [
              78.4994709,
              30.29328
            ],
            [
              78.4999484,
              30.2938219
            ],
            [
              78.50012,
              30.293859
            ],
            [
              78.5003507,
              30.2940628
            ],
            [
              78.5004795,
              30.2941925
            ],
            [
              78.5004902,
              30.2943314
            ],
            [
              78.5011178,
              30.2948687
            ],
            [
              78.5014558,
              30.2948734
            ],
            [
              78.5015255,
              30.294915
            ],
            [
              78.5015362,
              30.2950725
            ],
            [
              78.5013324,
              30.2951652
            ],
            [
              78.5008335,
              30.2951744
            ],
            [
              78.5004687,
              30.2951652
            ],
            [
              78.5003936,
              30.2946649
            ],
            [
              78.5001093,
              30.294299
            ],
            [
              78.5000396,
              30.2943036
            ],
            [
              78.5000074,
              30.2942203
            ],
            [
              78.4999698,
              30.2940582
            ],
            [
              78.4997177,
              30.293683
            ],
            [
              78.4993207,
              30.2934884
            ],
            [
              78.4991544,
              30.2934236
            ],
            [
              78.4988004,
              30.2934792
            ],
            [
              78.4984302,
              30.2938034
            ],
            [
              78.498559,
              30.2940535
            ],
            [
              78.4986556,
              30.2945491
            ],
            [
              78.4986126,
              30.2948595
            ],
            [
              78.498527,
              30.2950838
            ],
            [
              78.498527,
              30.2953254
            ],
            [
              78.4985513,
              30.2955977
            ],
            [
              78.4984608,
              30.2959468
            ],
            [
              78.4982504,
              30.2963491
            ],
            [
              78.4979607,
              30.2968073
            ],
            [
              78.4977235,
              30.2971565
            ],
            [
              78.4973685,
              30.297478
            ],
            [
              78.4971673,
              30.2975734
            ],
            [
              78.4970878,
              30.2976502
            ],
            [
              78.4968651,
              30.2977456
            ],
            [
              78.4965642,
              30.2978672
            ],
            [
              78.4962961,
              30.2979091
            ],
            [
              78.4959084,
              30.2979498
            ],
            [
              78.4957262,
              30.2979153
            ],
            [
              78.4954644,
              30.2980132
            ],
            [
              78.4951275,
              30.2980743
            ],
            [
              78.494796,
              30.2980069
            ],
            [
              78.4945793,
              30.2978662
            ],
            [
              78.4940675,
              30.2980383
            ],
            [
              78.4937555,
              30.2979875
            ],
            [
              78.4934592,
              30.297812
            ],
            [
              78.493259,
              30.2977743
            ],
            [
              78.4927835,
              30.2975847
            ],
            [
              78.4925775,
              30.2974778
            ],
            [
              78.4923947,
              30.2975576
            ],
            [
              78.4920844,
              30.2975693
            ],
            [
              78.4919265,
              30.2976011
            ],
            [
              78.491757,
              30.2975466
            ],
            [
              78.4915504,
              30.2975775
            ],
            [
              78.4914438,
              30.2976121
            ],
            [
              78.4913083,
              30.2977644
            ],
            [
              78.4912374,
              30.2979668
            ],
            [
              78.4912201,
              30.2982029
            ],
            [
              78.4911345,
              30.298521
            ],
            [
              78.4911084,
              30.2987775
            ],
            [
              78.4911166,
              30.2989223
            ],
            [
              78.4910892,
              30.2991455
            ],
            [
              78.4912736,
              30.299285
            ],
            [
              78.4914082,
              30.2995306
            ],
            [
              78.491594,
              30.2997248
            ],
            [
              78.4917618,
              30.3000223
            ],
            [
              78.4919822,
              30.3001628
            ],
            [
              78.4923309,
              30.3002415
            ],
            [
              78.4926152,
              30.3006769
            ],
            [
              78.4927869,
              30.3007881
            ],
            [
              78.4930068,
              30.3009548
            ],
            [
              78.4932697,
              30.301242
            ],
            [
              78.4935003,
              30.3016079
            ],
            [
              78.4939402,
              30.3019274
            ],
            [
              78.4942353,
              30.3021729
            ],
            [
              78.4944338,
              30.3023859
            ],
            [
              78.4944767,
              30.3027009
            ],
            [
              78.4945786,
              30.3030158
            ],
            [
              78.4945732,
              30.3033539
            ],
            [
              78.4945196,
              30.3035207
            ],
            [
              78.4943694,
              30.3037569
            ],
            [
              78.4943479,
              30.3039051
            ],
            [
              78.4944177,
              30.3040996
            ],
            [
              78.4945142,
              30.3042385
            ],
            [
              78.4945679,
              30.3044238
            ],
            [
              78.4945571,
              30.3045627
            ],
            [
              78.4947503,
              30.3048638
            ],
            [
              78.4946644,
              30.305049
            ],
            [
              78.4945518,
              30.3052482
            ],
            [
              78.4944498,
              30.3055261
            ],
            [
              78.4943211,
              30.3058039
            ],
            [
              78.4942672,
              30.3062367
            ],
            [
              78.493951,
              30.3066329
            ],
            [
              78.4939671,
              30.30711
            ],
            [
              78.4938812,
              30.3075036
            ],
            [
              78.4937042,
              30.3078
            ],
            [
              78.493495,
              30.3081103
            ],
            [
              78.4934252,
              30.3082539
            ],
            [
              78.4932766,
              30.308415
            ],
            [
              78.4931656,
              30.3086873
            ],
            [
              78.4929079,
              30.3093086
            ],
            [
              78.4926503,
              30.3098148
            ],
            [
              78.4923793,
              30.3103709
            ],
            [
              78.4922016,
              30.3107889
            ],
            [
              78.4920994,
              30.3110152
            ],
            [
              78.4918995,
              30.3115137
            ],
            [
              78.4918729,
              30.3117668
            ],
            [
              78.4918595,
              30.3119663
            ],
            [
              78.4919662,
              30.3121235
            ],
            [
              78.4921127,
              30.3122539
            ],
            [
              78.4922105,
              30.3123881
            ],
            [
              78.4920861,
              30.3126412
            ],
            [
              78.4919973,
              30.3128675
            ],
            [
              78.4917529,
              30.31304
            ],
            [
              78.4914597,
              30.3132011
            ],
            [
              78.4913009,
              30.3133157
            ],
            [
              78.4911507,
              30.3134546
            ],
            [
              78.4908718,
              30.3135796
            ],
            [
              78.4905491,
              30.3137303
            ],
            [
              78.490389,
              30.3139084
            ],
            [
              78.4899272,
              30.3142519
            ],
            [
              78.4896562,
              30.3146047
            ],
            [
              78.4892608,
              30.3149191
            ],
            [
              78.4890609,
              30.3150917
            ],
            [
              78.4889499,
              30.3152796
            ],
            [
              78.4888521,
              30.3154752
            ],
            [
              78.4888255,
              30.3156899
            ],
            [
              78.4886567,
              30.3160926
            ],
            [
              78.4885412,
              30.3163457
            ],
            [
              78.488519,
              30.3165604
            ],
            [
              78.4884568,
              30.3168327
            ],
            [
              78.4885372,
              30.3170571
            ],
            [
              78.4885445,
              30.317433
            ],
            [
              78.4884401,
              30.3177839
            ],
            [
              78.488389,
              30.3180523
            ],
            [
              78.4884735,
              30.318276
            ],
            [
              78.488691,
              30.3185601
            ],
            [
              78.4890088,
              30.3188596
            ],
            [
              78.4890654,
              30.3193329
            ],
            [
              78.4891409,
              30.3196512
            ],
            [
              78.4893852,
              30.3199235
            ],
            [
              78.4896402,
              30.3202794
            ],
            [
              78.4898272,
              30.3205959
            ],
            [
              78.4898843,
              30.3207054
            ],
            [
              78.4899329,
              30.320894
            ],
            [
              78.4900618,
              30.3211836
            ],
            [
              78.4900261,
              30.3214137
            ],
            [
              78.4900666,
              30.3217994
            ],
            [
              78.4896955,
              30.3220792
            ],
            [
              78.4890977,
              30.3222809
            ],
            [
              78.4888461,
              30.3225271
            ],
            [
              78.4887683,
              30.3229078
            ],
            [
              78.4890037,
              30.3233514
            ],
            [
              78.4892411,
              30.32362
            ],
            [
              78.4894309,
              30.3241885
            ],
            [
              78.4892387,
              30.3249693
            ],
            [
              78.4890991,
              30.3255004
            ],
            [
              78.4890732,
              30.3259931
            ],
            [
              78.4892094,
              30.326553
            ],
            [
              78.4893392,
              30.3273593
            ],
            [
              78.4893651,
              30.3276953
            ],
            [
              78.4893456,
              30.3280928
            ],
            [
              78.4895013,
              30.3286024
            ],
            [
              78.4896311,
              30.3291063
            ],
            [
              78.4895597,
              30.3294926
            ],
            [
              78.4896998,
              30.3297408
            ],
            [
              78.4898507,
              30.3300373
            ],
            [
              78.4896112,
              30.330263
            ],
            [
              78.4891912,
              30.3303819
            ],
            [
              78.4886818,
              30.3305581
            ],
            [
              78.488324,
              30.3310393
            ],
            [
              78.4879868,
              30.3315392
            ],
            [
              78.4876396,
              30.331721
            ],
            [
              78.4874709,
              30.331861
            ],
            [
              78.4873477,
              30.3320682
            ],
            [
              78.4872828,
              30.3323425
            ],
            [
              78.4872633,
              30.3326505
            ],
            [
              78.4872114,
              30.333076
            ],
            [
              78.4873866,
              30.333871
            ],
            [
              78.4874774,
              30.3341901
            ],
            [
              78.4874904,
              30.3345205
            ],
            [
              78.4875812,
              30.3348004
            ],
            [
              78.4877693,
              30.335086
            ],
            [
              78.4880028,
              30.3353211
            ],
            [
              78.4880742,
              30.3356066
            ],
            [
              78.4881001,
              30.3359426
            ],
            [
              78.4880677,
              30.3362001
            ],
            [
              78.4881066,
              30.3365416
            ],
            [
              78.488178,
              30.336816
            ],
            [
              78.4881001,
              30.3370847
            ],
            [
              78.4879704,
              30.3373814
            ],
            [
              78.4878536,
              30.3377285
            ],
            [
              78.4877174,
              30.3379973
            ],
            [
              78.4875552,
              30.3382324
            ],
            [
              78.4873801,
              30.338378
            ],
            [
              78.4873023,
              30.3386411
            ],
            [
              78.4872828,
              30.3388931
            ],
            [
              78.4870752,
              30.3391674
            ],
            [
              78.4868936,
              30.3393074
            ],
            [
              78.4866665,
              30.3394697
            ],
            [
              78.4862838,
              30.3400464
            ],
            [
              78.4858881,
              30.3404886
            ],
            [
              78.4856286,
              30.3409029
            ],
            [
              78.4853756,
              30.3412892
            ],
            [
              78.4849734,
              30.3417203
            ],
            [
              78.484761,
              30.3420843
            ],
            [
              78.4846118,
              30.3422355
            ],
            [
              78.4843442,
              30.3424808
            ],
            [
              78.4841832,
              30.3426177
            ],
            [
              78.4840411,
              30.3427873
            ],
            [
              78.483809,
              30.3429733
            ],
            [
              78.4835414,
              30.3432145
            ],
            [
              78.4833638,
              30.3434025
            ],
            [
              78.4833046,
              30.3434761
            ],
            [
              78.4832099,
              30.3435926
            ],
            [
              78.4831435,
              30.3436866
            ],
            [
              78.4829967,
              30.343846
            ],
            [
              78.4829612,
              30.3439339
            ],
            [
              78.4827765,
              30.3441301
            ],
            [
              78.482696,
              30.3442445
            ],
            [
              78.4825823,
              30.3443794
            ],
            [
              78.482497,
              30.3445184
            ],
            [
              78.4824355,
              30.3447841
            ],
            [
              78.4824402,
              30.3450048
            ],
            [
              78.4824118,
              30.3452133
            ],
            [
              78.4823597,
              30.3455484
            ],
            [
              78.4825769,
              30.345744
            ],
            [
              78.4824414,
              30.3462112
            ],
            [
              78.4821534,
              30.3465045
            ],
            [
              78.481905,
              30.3465213
            ],
            [
              78.4818671,
              30.3466643
            ],
            [
              78.4818481,
              30.3467951
            ],
            [
              78.4818387,
              30.3469586
            ],
            [
              78.4818576,
              30.3472815
            ],
            [
              78.4820234,
              30.3475962
            ],
            [
              78.482156,
              30.3478292
            ],
            [
              78.4823502,
              30.3480581
            ],
            [
              78.4825112,
              30.3482993
            ],
            [
              78.4828475,
              30.3487039
            ],
            [
              78.4831128,
              30.3491208
            ],
            [
              78.4833354,
              30.3495582
            ],
            [
              78.4836527,
              30.3500813
            ],
            [
              78.4839132,
              30.350674
            ],
            [
              78.4841548,
              30.3511522
            ],
            [
              78.4846047,
              30.3517285
            ],
            [
              78.4848273,
              30.3520187
            ],
            [
              78.4851873,
              30.3524969
            ],
            [
              78.485372,
              30.3527462
            ],
            [
              78.4857556,
              30.3530446
            ],
            [
              78.4860493,
              30.3535105
            ],
            [
              78.4863287,
              30.3539274
            ],
            [
              78.4864803,
              30.3541726
            ],
            [
              78.4866929,
              30.3543398
            ],
            [
              78.4868871,
              30.3545687
            ],
            [
              78.4870529,
              30.3548425
            ],
            [
              78.487086,
              30.355006
            ],
            [
              78.4870908,
              30.3552145
            ],
            [
              78.487105,
              30.3554106
            ],
            [
              78.4868539,
              30.3558234
            ],
            [
              78.4867213,
              30.3559624
            ],
            [
              78.4865319,
              30.356228
            ],
            [
              78.4863708,
              30.3563793
            ],
            [
              78.4862003,
              30.356555
            ],
            [
              78.485973,
              30.3567226
            ],
            [
              78.4857646,
              30.3568084
            ],
            [
              78.4853478,
              30.3569147
            ],
            [
              78.4849878,
              30.3569555
            ],
            [
              78.4844621,
              30.3570168
            ],
            [
              78.4841258,
              30.3570373
            ],
            [
              78.4837753,
              30.3570945
            ],
            [
              78.4831169,
              30.3571476
            ],
            [
              78.4828849,
              30.3571599
            ],
            [
              78.4827144,
              30.3572048
            ],
            [
              78.4825566,
              30.3572848
            ],
            [
              78.4824192,
              30.357391
            ],
            [
              78.4823339,
              30.3574441
            ],
            [
              78.4823055,
              30.3575545
            ],
            [
              78.4823008,
              30.3576771
            ],
            [
              78.4823482,
              30.3578528
            ],
            [
              78.4824192,
              30.3580817
            ],
            [
              78.4824997,
              30.3583188
            ],
            [
              78.482675,
              30.3588541
            ],
            [
              78.4829165,
              30.3591443
            ],
            [
              78.4830349,
              30.3592015
            ],
            [
              78.4831154,
              30.359365
            ],
            [
              78.4831391,
              30.3595407
            ],
            [
              78.4831297,
              30.3596633
            ],
            [
              78.4831675,
              30.3599004
            ],
            [
              78.4832386,
              30.3600434
            ],
            [
              78.4834991,
              30.3603377
            ],
            [
              78.4838496,
              30.3605584
            ],
            [
              78.4839396,
              30.3606687
            ],
            [
              78.4839112,
              30.3608158
            ],
            [
              78.4838496,
              30.3610406
            ],
            [
              78.4837691,
              30.3611346
            ],
            [
              78.4835986,
              30.3612899
            ],
            [
              78.4834944,
              30.3614125
            ],
            [
              78.4834707,
              30.3615147
            ],
            [
              78.4831675,
              30.3617517
            ],
            [
              78.4830065,
              30.3618866
            ],
            [
              78.4826229,
              30.3623075
            ],
            [
              78.4825423,
              30.3625037
            ],
            [
              78.4823434,
              30.362945
            ],
            [
              78.4821729,
              30.3634355
            ],
            [
              78.4820971,
              30.3638768
            ],
            [
              78.482064,
              30.364355
            ],
            [
              78.4820592,
              30.3647105
            ],
            [
              78.4821019,
              30.3649802
            ],
            [
              78.4820356,
              30.3650252
            ],
            [
              78.4820071,
              30.3651273
            ],
            [
              78.4820545,
              30.3653235
            ],
            [
              78.4819977,
              30.3655319
            ],
            [
              78.4819266,
              30.3656627
            ],
            [
              78.4818082,
              30.3658752
            ],
            [
              78.481704,
              30.3660591
            ],
            [
              78.4815288,
              30.3662144
            ],
            [
              78.4813251,
              30.3663411
            ],
            [
              78.4811688,
              30.3664064
            ],
            [
              78.4810883,
              30.3665045
            ],
            [
              78.4809036,
              30.3667334
            ],
            [
              78.4800605,
              30.3673504
            ],
            [
              78.4797953,
              30.3675466
            ],
            [
              78.4792743,
              30.3678327
            ],
            [
              78.4790469,
              30.3680206
            ],
            [
              78.4789474,
              30.368086
            ],
            [
              78.4789806,
              30.3682495
            ],
            [
              78.4788811,
              30.3682903
            ],
            [
              78.4788006,
              30.368131
            ],
            [
              78.4787059,
              30.3681882
            ],
            [
              78.4786538,
              30.3682617
            ],
            [
              78.478668,
              30.3683598
            ],
            [
              78.4786301,
              30.3685192
            ],
            [
              78.4786585,
              30.3685927
            ],
            [
              78.4785591,
              30.36865
            ],
            [
              78.4785164,
              30.368462
            ],
            [
              78.4784312,
              30.3685478
            ],
            [
              78.4784075,
              30.3686295
            ],
            [
              78.4784264,
              30.3687072
            ],
            [
              78.4784454,
              30.3689156
            ],
            [
              78.4783317,
              30.3689278
            ],
            [
              78.4782512,
              30.3686622
            ],
            [
              78.4781091,
              30.3687521
            ],
            [
              78.4779954,
              30.3688216
            ],
            [
              78.4779812,
              30.3690382
            ],
            [
              78.477877,
              30.3691158
            ],
            [
              78.4778297,
              30.3688992
            ],
            [
              78.4776828,
              30.3689319
            ],
            [
              78.4775502,
              30.3690096
            ],
            [
              78.4772708,
              30.3693038
            ],
            [
              78.4768966,
              30.3697247
            ],
            [
              78.4765461,
              30.3700761
            ],
            [
              78.4764751,
              30.3702273
            ],
            [
              78.4765035,
              30.3703785
            ],
            [
              78.4764656,
              30.3705788
            ],
            [
              78.4765103,
              30.3710551
            ],
            [
              78.4760437,
              30.3711142
            ],
            [
              78.4758185,
              30.3707632
            ],
            [
              78.4757776,
              30.3704684
            ],
            [
              78.4758735,
              30.3701742
            ],
            [
              78.4760677,
              30.3699004
            ],
            [
              78.4762051,
              30.3696634
            ],
            [
              78.4766499,
              30.3695268
            ],
            [
              78.4765834,
              30.3694561
            ],
            [
              78.4766171,
              30.3693487
            ],
            [
              78.4766977,
              30.3692752
            ],
            [
              78.4769116,
              30.369219
            ],
            [
              78.4770116,
              30.3691627
            ],
            [
              78.4771097,
              30.3690605
            ],
            [
              78.477104,
              30.3688623
            ],
            [
              78.4771666,
              30.368748
            ],
            [
              78.4773134,
              30.3686908
            ],
            [
              78.4773939,
              30.368605
            ],
            [
              78.4774555,
              30.368511
            ],
            [
              78.4775739,
              30.3684497
            ],
            [
              78.4776544,
              30.3683353
            ],
            [
              78.4777397,
              30.3682781
            ],
            [
              78.4778486,
              30.3681269
            ],
            [
              78.4780475,
              30.3680492
            ],
            [
              78.4782038,
              30.3679839
            ],
            [
              78.4783128,
              30.3678531
            ],
            [
              78.4784738,
              30.3677468
            ],
            [
              78.4785164,
              30.3676324
            ],
            [
              78.478668,
              30.3675384
            ],
            [
              78.4788906,
              30.3675016
            ],
            [
              78.4791085,
              30.3674485
            ],
            [
              78.4795774,
              30.3672565
            ],
            [
              78.4799089,
              30.366954
            ],
            [
              78.4802073,
              30.3667007
            ],
            [
              78.4808515,
              30.3662225
            ],
            [
              78.4810835,
              30.3659038
            ],
            [
              78.4811262,
              30.3658057
            ],
            [
              78.4812635,
              30.3657485
            ],
            [
              78.4813725,
              30.3656218
            ],
            [
              78.4813677,
              30.3653562
            ],
            [
              78.4814056,
              30.3652458
            ],
            [
              78.4814672,
              30.3651886
            ],
            [
              78.481543,
              30.3651151
            ],
            [
              78.4814861,
              30.3647963
            ],
            [
              78.4814198,
              30.3646533
            ],
            [
              78.4813488,
              30.3645062
            ],
            [
              78.4813204,
              30.3643468
            ],
            [
              78.4813393,
              30.3641833
            ],
            [
              78.4814293,
              30.3639831
            ],
            [
              78.4815619,
              30.3637665
            ],
            [
              78.4818414,
              30.3632924
            ],
            [
              78.4818793,
              30.3631003
            ],
            [
              78.4819266,
              30.3629655
            ],
            [
              78.4818035,
              30.3628429
            ],
            [
              78.4817798,
              30.3626958
            ],
            [
              78.4817608,
              30.3624873
            ],
            [
              78.4818556,
              30.3623116
            ],
            [
              78.4822724,
              30.3620092
            ],
            [
              78.4824855,
              30.3618334
            ],
            [
              78.4825755,
              30.3617354
            ],
            [
              78.4826229,
              30.3616209
            ],
            [
              78.4825992,
              30.361531
            ],
            [
              78.4826513,
              30.3614289
            ],
            [
              78.4828028,
              30.3613594
            ],
            [
              78.4831012,
              30.3611591
            ],
            [
              78.483267,
              30.3609957
            ],
            [
              78.4832339,
              30.3607872
            ],
            [
              78.4830586,
              30.3605584
            ],
            [
              78.4828692,
              30.3601905
            ],
            [
              78.4827507,
              30.3600802
            ],
            [
              78.4825755,
              30.3599494
            ],
            [
              78.4824666,
              30.3598391
            ],
            [
              78.4824192,
              30.3597328
            ],
            [
              78.4824381,
              30.3596143
            ],
            [
              78.4823908,
              30.3594263
            ],
            [
              78.4822818,
              30.3592097
            ],
            [
              78.4821776,
              30.358989
            ],
            [
              78.4819171,
              30.3584373
            ],
            [
              78.4817987,
              30.3581144
            ],
            [
              78.4817893,
              30.3579305
            ],
            [
              78.4817466,
              30.3576321
            ],
            [
              78.4816898,
              30.3571908
            ],
            [
              78.4817499,
              30.3570127
            ],
            [
              78.4818018,
              30.3567353
            ],
            [
              78.4820502,
              30.3565996
            ],
            [
              78.4827321,
              30.3565483
            ],
            [
              78.4834138,
              30.3565491
            ],
            [
              78.4836696,
              30.3565246
            ],
            [
              78.4840911,
              30.3565532
            ],
            [
              78.4845932,
              30.3565001
            ],
            [
              78.4849674,
              30.3564428
            ],
            [
              78.4852705,
              30.3563938
            ],
            [
              78.4854836,
              30.3563284
            ],
            [
              78.4857868,
              30.3562058
            ],
            [
              78.4859573,
              30.3559606
            ],
            [
              78.4860425,
              30.3557685
            ],
            [
              78.4860946,
              30.3556173
            ],
            [
              78.4861515,
              30.3554987
            ],
            [
              78.4861515,
              30.3552903
            ],
            [
              78.4861704,
              30.355135
            ],
            [
              78.4861941,
              30.3549879
            ],
            [
              78.4861183,
              30.3548693
            ],
            [
              78.4860283,
              30.354808
            ],
            [
              78.4859383,
              30.3546772
            ],
            [
              78.4858673,
              30.3543257
            ],
            [
              78.4858152,
              30.3541541
            ],
            [
              78.4857015,
              30.3540478
            ],
            [
              78.4856399,
              30.3539538
            ],
            [
              78.485602,
              30.3538353
            ],
            [
              78.4855784,
              30.3536636
            ],
            [
              78.4855357,
              30.3535124
            ],
            [
              78.4853889,
              30.3533203
            ],
            [
              78.4850289,
              30.3529606
            ],
            [
              78.4846879,
              30.352744
            ],
            [
              78.4842853,
              30.3522944
            ],
            [
              78.4839822,
              30.3520533
            ],
            [
              78.4837549,
              30.351853
            ],
            [
              78.483627,
              30.3516119
            ],
            [
              78.4835275,
              30.3513707
            ],
            [
              78.4834659,
              30.3512808
            ],
            [
              78.4834375,
              30.3511132
            ],
            [
              78.4834233,
              30.3510233
            ],
            [
              78.4832575,
              30.3508353
            ],
            [
              78.4831012,
              30.35068
            ],
            [
              78.4830207,
              30.350541
            ],
            [
              78.4829686,
              30.3503694
            ],
            [
              78.482907,
              30.3502181
            ],
            [
              78.4827744,
              30.3499157
            ],
            [
              78.4826465,
              30.3497113
            ],
            [
              78.4825329,
              30.3494456
            ],
            [
              78.4824713,
              30.3492903
            ],
            [
              78.4822818,
              30.3490573
            ],
            [
              78.4821255,
              30.3488244
            ],
            [
              78.4820356,
              30.3486772
            ],
            [
              78.4818224,
              30.3484933
            ],
            [
              78.4816472,
              30.348244
            ],
            [
              78.4815524,
              30.348154
            ],
            [
              78.4814861,
              30.3480028
            ],
            [
              78.4814151,
              30.3478434
            ],
            [
              78.481344,
              30.34759
            ],
            [
              78.4812114,
              30.3472017
            ],
            [
              78.4811072,
              30.3470464
            ],
            [
              78.4811072,
              30.346842
            ],
            [
              78.4811641,
              30.346654
            ],
            [
              78.4812588,
              30.3464292
            ],
            [
              78.4813819,
              30.3462984
            ],
            [
              78.4814151,
              30.346188
            ],
            [
              78.4816093,
              30.3456934
            ],
            [
              78.4817135,
              30.3453583
            ],
            [
              78.4817987,
              30.3449577
            ],
            [
              78.4818366,
              30.3447492
            ],
            [
              78.4818224,
              30.3445571
            ],
            [
              78.4818366,
              30.3444508
            ],
            [
              78.4819598,
              30.3441606
            ],
            [
              78.482045,
              30.3440748
            ],
            [
              78.4821824,
              30.343993
            ],
            [
              78.4824239,
              30.3438091
            ],
            [
              78.4825944,
              30.3436333
            ],
            [
              78.4826892,
              30.3435352
            ],
            [
              78.4827555,
              30.343384
            ],
            [
              78.4828834,
              30.3432491
            ],
            [
              78.4829544,
              30.3432082
            ],
            [
              78.4830397,
              30.3430692
            ],
            [
              78.4831012,
              30.3429507
            ],
            [
              78.4832339,
              30.3429098
            ],
            [
              78.4833665,
              30.3428567
            ],
            [
              78.4835038,
              30.3427177
            ],
            [
              78.4836128,
              30.3426073
            ],
            [
              78.4835986,
              30.342497
            ],
            [
              78.4835938,
              30.3424357
            ],
            [
              78.4836412,
              30.3424234
            ],
            [
              78.4838259,
              30.3424316
            ],
            [
              78.4839443,
              30.3423539
            ],
            [
              78.4840343,
              30.3422844
            ],
            [
              78.4840485,
              30.3420719
            ],
            [
              78.4842096,
              30.3418471
            ],
            [
              78.4843801,
              30.3416672
            ],
            [
              78.4844843,
              30.3414342
            ],
            [
              78.4845506,
              30.341238
            ],
            [
              78.4846406,
              30.3411113
            ],
            [
              78.4848869,
              30.340772
            ],
            [
              78.4849863,
              30.3406371
            ],
            [
              78.4851663,
              30.3403183
            ],
            [
              78.4854884,
              30.339979
            ],
            [
              78.4859952,
              30.3392391
            ],
            [
              78.4861657,
              30.3390838
            ],
            [
              78.4862983,
              30.3388099
            ],
            [
              78.4864735,
              30.3385728
            ],
            [
              78.4865304,
              30.3384052
            ],
            [
              78.4867009,
              30.338115
            ],
            [
              78.4868382,
              30.3378493
            ],
            [
              78.4868761,
              30.3374691
            ],
            [
              78.4869377,
              30.3372361
            ],
            [
              78.486914,
              30.3370767
            ],
            [
              78.4868761,
              30.3369377
            ],
            [
              78.4869472,
              30.336811
            ],
            [
              78.4870419,
              30.3366516
            ],
            [
              78.4871177,
              30.3364717
            ],
            [
              78.4871319,
              30.3362591
            ],
            [
              78.487023,
              30.3360384
            ],
            [
              78.4869898,
              30.3356991
            ],
            [
              78.4869756,
              30.3354947
            ],
            [
              78.4868761,
              30.3353394
            ],
            [
              78.4868193,
              30.3352494
            ],
            [
              78.4868477,
              30.3351186
            ],
            [
              78.4868524,
              30.3350041
            ],
            [
              78.4867719,
              30.3349183
            ],
            [
              78.4867009,
              30.3347466
            ],
            [
              78.4867293,
              30.3346526
            ],
            [
              78.4867056,
              30.3345422
            ],
            [
              78.4866819,
              30.334346
            ],
            [
              78.4866156,
              30.3342765
            ],
            [
              78.4865919,
              30.3341579
            ],
            [
              78.4866014,
              30.3339903
            ],
            [
              78.4865493,
              30.3337246
            ],
            [
              78.4864735,
              30.3334957
            ],
            [
              78.4864025,
              30.3327926
            ],
            [
              78.4863978,
              30.3325596
            ],
            [
              78.4865919,
              30.3319586
            ],
            [
              78.4867814,
              30.3316479
            ],
            [
              78.4868193,
              30.3314517
            ],
            [
              78.4868477,
              30.3312923
            ],
            [
              78.4871177,
              30.3309039
            ],
            [
              78.4874161,
              30.3307077
            ],
            [
              78.4877334,
              30.3303397
            ],
            [
              78.4879608,
              30.3301353
            ],
            [
              78.488297,
              30.3298982
            ],
            [
              78.4884391,
              30.329657
            ],
            [
              78.4885812,
              30.3294199
            ],
            [
              78.488657,
              30.3291337
            ],
            [
              78.4886428,
              30.3289253
            ],
            [
              78.4886191,
              30.3283979
            ],
            [
              78.4884418,
              30.3270704
            ],
            [
              78.4882808,
              30.3264898
            ],
            [
              78.4881962,
              30.3260591
            ],
            [
              78.4881895,
              30.3257295
            ],
            [
              78.4882699,
              30.3256081
            ],
            [
              78.4883101,
              30.3253942
            ],
            [
              78.4883369,
              30.3251629
            ],
            [
              78.4883771,
              30.3248796
            ],
            [
              78.4883838,
              30.3246368
            ],
            [
              78.4883503,
              30.3242552
            ],
            [
              78.4883235,
              30.3240702
            ],
            [
              78.4882699,
              30.3239141
            ],
            [
              78.4881887,
              30.3236589
            ],
            [
              78.4880982,
              30.3235172
            ],
            [
              78.4880715,
              30.3234478
            ],
            [
              78.4880681,
              30.3233091
            ],
            [
              78.488038,
              30.3231559
            ],
            [
              78.4880212,
              30.3229333
            ],
            [
              78.4880112,
              30.3227771
            ],
            [
              78.4879978,
              30.3226095
            ],
            [
              78.4879207,
              30.3224794
            ],
            [
              78.4878638,
              30.3224158
            ],
            [
              78.4877767,
              30.3223233
            ],
            [
              78.4877365,
              30.3222163
            ],
            [
              78.4878504,
              30.3221267
            ],
            [
              78.4879509,
              30.3220602
            ],
            [
              78.4880078,
              30.3219532
            ],
            [
              78.487971,
              30.3218491
            ],
            [
              78.4879442,
              30.3217653
            ],
            [
              78.4879375,
              30.3216583
            ],
            [
              78.4879609,
              30.321508
            ],
            [
              78.4879609,
              30.3214791
            ],
            [
              78.4879676,
              30.3211727
            ],
            [
              78.4880112,
              30.3210339
            ],
            [
              78.4880648,
              30.3208026
            ],
            [
              78.4881384,
              30.32058
            ],
            [
              78.4882356,
              30.3203025
            ],
            [
              78.4882858,
              30.319944
            ],
            [
              78.4882925,
              30.3198717
            ],
            [
              78.4882624,
              30.3197445
            ],
            [
              78.4881954,
              30.3196635
            ],
            [
              78.4880648,
              30.3195248
            ],
            [
              78.4879241,
              30.3193773
            ],
            [
              78.487837,
              30.319227
            ],
            [
              78.487559,
              30.3187297
            ],
            [
              78.4873782,
              30.3185418
            ],
            [
              78.4872744,
              30.318403
            ],
            [
              78.4871404,
              30.3182325
            ],
            [
              78.4870466,
              30.3180995
            ],
            [
              78.4870064,
              30.3179463
            ],
            [
              78.48706,
              30.3177988
            ],
            [
              78.4870835,
              30.3176427
            ],
            [
              78.4870232,
              30.3175502
            ],
            [
              78.4869729,
              30.3172813
            ],
            [
              78.4869897,
              30.3169546
            ],
            [
              78.4870567,
              30.3167493
            ],
            [
              78.4872509,
              30.3164689
            ],
            [
              78.4873782,
              30.316174
            ],
            [
              78.4874552,
              30.3160005
            ],
            [
              78.4875523,
              30.315775
            ],
            [
              78.487616,
              30.315642
            ],
            [
              78.4878136,
              30.3152546
            ],
            [
              78.4879944,
              30.3149568
            ],
            [
              78.4880949,
              30.3148094
            ],
            [
              78.4881753,
              30.3145752
            ],
            [
              78.488259,
              30.3144567
            ],
            [
              78.4883528,
              30.314367
            ],
            [
              78.4886073,
              30.314049
            ],
            [
              78.4888819,
              30.3138032
            ],
            [
              78.489113,
              30.3134708
            ],
            [
              78.4894546,
              30.3131238
            ],
            [
              78.4897058,
              30.3129648
            ],
            [
              78.4897695,
              30.3128636
            ],
            [
              78.4897795,
              30.3127884
            ],
            [
              78.4896004,
              30.3124451
            ],
            [
              78.4896809,
              30.3121996
            ],
            [
              78.4897453,
              30.3120097
            ],
            [
              78.4899384,
              30.3118893
            ],
            [
              78.4900135,
              30.3120977
            ],
            [
              78.490051,
              30.3122552
            ],
            [
              78.4902281,
              30.3124451
            ],
            [
              78.4906067,
              30.3121437
            ],
            [
              78.4908412,
              30.311895
            ],
            [
              78.4909818,
              30.311629
            ],
            [
              78.4910354,
              30.3114006
            ],
            [
              78.4910823,
              30.3110855
            ],
            [
              78.491223,
              30.3103424
            ],
            [
              78.4913301,
              30.3101371
            ],
            [
              78.4914407,
              30.3099376
            ],
            [
              78.4915914,
              30.309608
            ],
            [
              78.4918995,
              30.3090558
            ],
            [
              78.4919765,
              30.3086654
            ],
            [
              78.492067,
              30.308463
            ],
            [
              78.4922378,
              30.3081941
            ],
            [
              78.4925157,
              30.3075754
            ],
            [
              78.4927468,
              30.3070781
            ],
            [
              78.4928875,
              30.3065316
            ],
            [
              78.4930081,
              30.3060892
            ],
            [
              78.4931253,
              30.3058521
            ],
            [
              78.4931655,
              30.3056989
            ],
            [
              78.4930215,
              30.3051148
            ],
            [
              78.4928138,
              30.3046521
            ],
            [
              78.4926832,
              30.3043196
            ],
            [
              78.4925928,
              30.3038714
            ],
            [
              78.4925425,
              30.3035476
            ],
            [
              78.4926062,
              30.303111
            ],
            [
              78.4925459,
              30.3029519
            ],
            [
              78.4924421,
              30.3027438
            ],
            [
              78.492422,
              30.3026744
            ],
            [
              78.492365,
              30.3023592
            ],
            [
              78.4921875,
              30.3020238
            ],
            [
              78.4920402,
              30.3017548
            ],
            [
              78.4917622,
              30.3016103
            ],
            [
              78.491434,
              30.301457
            ],
            [
              78.4912766,
              30.3013009
            ],
            [
              78.4911828,
              30.3010869
            ],
            [
              78.4910656,
              30.3008903
            ],
            [
              78.4907708,
              30.3005404
            ],
            [
              78.4903388,
              30.30015
            ],
            [
              78.4902618,
              30.3000459
            ],
            [
              78.4902149,
              30.2997857
            ],
            [
              78.4901479,
              30.2996353
            ],
            [
              78.4899671,
              30.2992623
            ],
            [
              78.4897912,
              30.2990362
            ],
            [
              78.4894288,
              30.2989817
            ],
            [
              78.4891498,
              30.2988891
            ],
            [
              78.4891927,
              30.2987131
            ],
            [
              78.4895092,
              30.2986066
            ],
            [
              78.4897023,
              30.2986158
            ],
            [
              78.4898257,
              30.2986158
            ],
            [
              78.4900725,
              30.2986066
            ],
            [
              78.4899867,
              30.2984722
            ],
            [
              78.4896572,
              30.298001
            ],
            [
              78.4896809,
              30.2976988
            ],
            [
              78.4898525,
              30.2975042
            ],
            [
              78.4898955,
              30.2972309
            ],
            [
              78.4901798,
              30.297004
            ],
            [
              78.490682,
              30.296532
            ],
            [
              78.4915852,
              30.2962768
            ],
            [
              78.49217,
              30.2962722
            ],
            [
              78.4927332,
              30.2961054
            ],
            [
              78.4928942,
              30.2960498
            ],
            [
              78.4932944,
              30.2960173
            ],
            [
              78.4937565,
              30.2959132
            ],
            [
              78.4948575,
              30.2957997
            ],
            [
              78.495174,
              30.2957905
            ],
            [
              78.4957928,
              30.2956414
            ],
            [
              78.4959134,
              30.2954621
            ],
            [
              78.4958196,
              30.2951614
            ],
            [
              78.495766,
              30.2949011
            ],
            [
              78.4957995,
              30.294664
            ],
            [
              78.4958397,
              30.294583
            ],
            [
              78.4957526,
              30.2941261
            ],
            [
              78.4954244,
              30.2940278
            ],
            [
              78.4951364,
              30.2939815
            ],
            [
              78.4948416,
              30.2939063
            ],
            [
              78.4946005,
              30.2937791
            ],
            [
              78.4944063,
              30.2935593
            ],
            [
              78.4941919,
              30.293461
            ],
            [
              78.4939039,
              30.29338
            ],
            [
              78.4935489,
              30.2931949
            ],
            [
              78.4930733,
              30.2928768
            ],
            [
              78.4928322,
              30.2927207
            ],
            [
              78.4925575,
              30.292472
            ],
            [
              78.4921624,
              30.2921308
            ],
            [
              78.4915595,
              30.2918994
            ],
            [
              78.4904321,
              30.2913396
            ],
            [
              78.4900295,
              30.2910943
            ],
            [
              78.4893001,
              30.2908857
            ],
            [
              78.4890348,
              30.2906526
            ],
            [
              78.4887506,
              30.2904195
            ],
            [
              78.4883859,
              30.2903622
            ],
            [
              78.4880923,
              30.2903377
            ],
            [
              78.4877702,
              30.2902477
            ],
            [
              78.4869224,
              30.2899778
            ],
            [
              78.4864393,
              30.2899328
            ],
            [
              78.4861456,
              30.2899164
            ],
            [
              78.4856246,
              30.289806
            ],
            [
              78.485331,
              30.2897692
            ],
            [
              78.4850137,
              30.2896956
            ],
            [
              78.4848621,
              30.2895565
            ],
            [
              78.4846679,
              30.2895647
            ],
            [
              78.4844027,
              30.2895483
            ],
            [
              78.4843742,
              30.2894747
            ],
            [
              78.4842179,
              30.2894502
            ],
            [
              78.4839717,
              30.2894829
            ],
            [
              78.4836685,
              30.2894379
            ],
            [
              78.4830859,
              30.2891884
            ],
            [
              78.4829817,
              30.2889471
            ],
            [
              78.4828965,
              30.2888367
            ],
            [
              78.4823565,
              30.2882191
            ],
            [
              78.4819918,
              30.2877611
            ],
            [
              78.4817219,
              30.2873562
            ],
            [
              78.4816366,
              30.2872089
            ],
            [
              78.4814603,
              30.286646
            ],
            [
              78.4811924,
              30.2860214
            ],
            [
              78.4811321,
              30.2856396
            ],
            [
              78.4812058,
              30.2853215
            ],
            [
              78.4813062,
              30.285067
            ],
            [
              78.4813799,
              30.2848067
            ],
            [
              78.4814402,
              30.2846158
            ],
            [
              78.4813652,
              30.2843775
            ],
            [
              78.4811321,
              30.2841936
            ],
            [
              78.4810147,
              30.2841825
            ],
            [
              78.4811005,
              30.2840458
            ],
            [
              78.481384,
              30.2839564
            ],
            [
              78.4815005,
              30.2836556
            ],
            [
              78.481755,
              30.283297
            ],
            [
              78.4820631,
              30.2828227
            ],
            [
              78.4822038,
              30.2826897
            ],
            [
              78.4826258,
              30.282198
            ],
            [
              78.4833961,
              30.2818799
            ],
            [
              78.4837377,
              30.2818567
            ],
            [
              78.4842803,
              30.2817931
            ],
            [
              78.4846085,
              30.2817989
            ],
            [
              78.4850104,
              30.2818278
            ],
            [
              78.4854926,
              30.2818047
            ],
            [
              78.4860218,
              30.2817931
            ],
            [
              78.4867586,
              30.2817237
            ],
            [
              78.4874284,
              30.281689
            ],
            [
              78.4879241,
              30.281527
            ],
            [
              78.4889355,
              30.2814056
            ],
            [
              78.4897393,
              30.2812957
            ],
            [
              78.4901546,
              30.2813419
            ],
            [
              78.4907039,
              30.2817237
            ],
            [
              78.4911192,
              30.2819146
            ],
            [
              78.4916282,
              30.2819377
            ],
            [
              78.492211,
              30.2817873
            ],
            [
              78.4926865,
              30.2814981
            ],
            [
              78.4932492,
              30.2812899
            ],
            [
              78.493497,
              30.2813188
            ],
            [
              78.4941401,
              30.2815502
            ],
            [
              78.4947965,
              30.2815386
            ],
            [
              78.495051,
              30.2813651
            ],
            [
              78.4949639,
              30.2812263
            ],
            [
              78.4945487,
              30.2810759
            ],
            [
              78.4941468,
              30.2807404
            ],
            [
              78.4936779,
              30.2805321
            ],
            [
              78.4933287,
              30.280546
            ],
            [
              78.492862,
              30.2804997
            ],
            [
              78.4924918,
              30.2801754
            ],
            [
              78.4923181,
              30.2799074
            ],
            [
              78.4920971,
              30.2794157
            ],
            [
              78.4918091,
              30.279005
            ],
            [
              78.4912598,
              30.2784266
            ],
            [
              78.4910589,
              30.2782588
            ],
            [
              78.4908981,
              30.277987
            ],
            [
              78.4908378,
              30.2777845
            ],
            [
              78.4907039,
              30.2774837
            ],
            [
              78.4905699,
              30.277287
            ],
            [
              78.4903757,
              30.2770383
            ],
            [
              78.4903221,
              30.2767549
            ],
            [
              78.4904895,
              30.2763152
            ],
            [
              78.4906168,
              30.2760607
            ],
            [
              78.4906436,
              30.2758756
            ],
            [
              78.4904694,
              30.2755285
            ],
            [
              78.4902886,
              30.2752335
            ],
            [
              78.4900206,
              30.2742038
            ],
            [
              78.4899604,
              30.2736832
            ],
            [
              78.4898499,
              30.2733746
            ],
            [
              78.4896924,
              30.2732725
            ],
            [
              78.4895763,
              30.2731151
            ],
            [
              78.4894448,
              30.2730364
            ],
            [
              78.4893268,
              30.2729506
            ],
            [
              78.4892598,
              30.2728719
            ],
            [
              78.4892571,
              30.2728117
            ],
            [
              78.4894312,
              30.2726998
            ],
            [
              78.4895736,
              30.2726426
            ],
            [
              78.4895575,
              30.2725499
            ],
            [
              78.4894931,
              30.2724688
            ],
            [
              78.4893885,
              30.2722742
            ],
            [
              78.4893107,
              30.2721121
            ],
            [
              78.4890695,
              30.2718899
            ],
            [
              78.4889567,
              30.2717438
            ],
            [
              78.4891015,
              30.2712666
            ],
            [
              78.4890479,
              30.2711276
            ],
            [
              78.4889623,
              30.2708544
            ],
            [
              78.4890211,
              30.2705207
            ],
            [
              78.4888886,
              30.2703106
            ],
            [
              78.4888217,
              30.2699924
            ],
            [
              78.4888217,
              30.2695123
            ],
            [
              78.4888886,
              30.2692404
            ],
            [
              78.4891231,
              30.268228
            ],
            [
              78.4894446,
              30.2674586
            ],
            [
              78.489458,
              30.2670999
            ],
            [
              78.4896255,
              30.2667817
            ],
            [
              78.4898532,
              30.2661974
            ],
            [
              78.4900675,
              30.265804
            ],
            [
              78.4906168,
              30.2648263
            ],
            [
              78.490878,
              30.2646759
            ],
            [
              78.4914474,
              30.2644618
            ],
            [
              78.4916416,
              30.2641663
            ],
            [
              78.4917247,
              30.264069
            ],
            [
              78.4917757,
              30.2639532
            ],
            [
              78.4915679,
              30.2638646
            ],
            [
              78.4915066,
              30.2638366
            ],
            [
              78.4912871,
              30.2639383
            ],
            [
              78.4912444,
              30.2638765
            ],
            [
              78.4912772,
              30.2637878
            ],
            [
              78.4912584,
              30.2637063
            ],
            [
              78.4912665,
              30.2634031
            ],
            [
              78.4910754,
              30.2633913
            ],
            [
              78.4910345,
              30.2633193
            ],
            [
              78.4911171,
              30.2630837
            ],
            [
              78.491178,
              30.2630547
            ],
            [
              78.4914072,
              30.2630502
            ],
            [
              78.4916709,
              30.2629686
            ],
            [
              78.4917622,
              30.2629403
            ],
            [
              78.492077,
              30.2629981
            ],
            [
              78.492499,
              30.2628361
            ],
            [
              78.4926263,
              30.2624485
            ],
            [
              78.4924588,
              30.2619915
            ],
            [
              78.4921306,
              30.2614997
            ],
            [
              78.4918292,
              30.2610831
            ],
            [
              78.4916215,
              30.2608344
            ],
            [
              78.4916215,
              30.260574
            ],
            [
              78.4916952,
              30.2603137
            ],
            [
              78.4916349,
              30.2600359
            ],
            [
              78.4916081,
              30.2596136
            ],
            [
              78.4919497,
              30.2595268
            ],
            [
              78.4922847,
              30.2593417
            ],
            [
              78.4926987,
              30.2590767
            ],
            [
              78.4928968,
              30.2589274
            ],
            [
              78.4930952,
              30.2588418
            ],
            [
              78.4934635,
              30.258659
            ],
            [
              78.4942472,
              30.2584275
            ],
            [
              78.4947563,
              30.2584796
            ],
            [
              78.4952252,
              30.2585028
            ],
            [
              78.4956539,
              30.2584854
            ],
            [
              78.4972146,
              30.2584912
            ],
            [
              78.4976229,
              30.2584973
            ],
            [
              78.4979327,
              30.2589958
            ],
            [
              78.497988,
              30.2591276
            ],
            [
              78.4985022,
              30.2592148
            ],
            [
              78.497827,
              30.2601446
            ],
            [
              78.4975467,
              30.2605311
            ],
            [
              78.4972528,
              30.2608332
            ],
            [
              78.4967935,
              30.2611451
            ],
            [
              78.4966329,
              30.26096
            ],
            [
              78.4963516,
              30.2608443
            ],
            [
              78.4961239,
              30.2607517
            ],
            [
              78.4958626,
              30.260769
            ],
            [
              78.4957019,
              30.2608385
            ],
            [
              78.495588,
              30.2611104
            ],
            [
              78.4954875,
              30.2613823
            ],
            [
              78.4954339,
              30.2616311
            ],
            [
              78.4953737,
              30.2620129
            ],
            [
              78.4952598,
              30.2622848
            ],
            [
              78.495233,
              30.2625394
            ],
            [
              78.4951526,
              30.2627477
            ],
            [
              78.495032,
              30.2629212
            ],
            [
              78.4949383,
              30.2631469
            ],
            [
              78.4948847,
              30.2633841
            ],
            [
              78.4947909,
              30.2635923
            ],
            [
              78.4946435,
              30.2638238
            ],
            [
              78.4944761,
              30.2640089
            ],
            [
              78.494322,
              30.2641477
            ],
            [
              78.4940742,
              30.264275
            ],
            [
              78.493679,
              30.2646221
            ],
            [
              78.4934044,
              30.2648883
            ],
            [
              78.4931632,
              30.2651139
            ],
            [
              78.4929757,
              30.2653684
            ],
            [
              78.492768,
              30.2656924
            ],
            [
              78.4926274,
              30.2660337
            ],
            [
              78.4924599,
              30.266404
            ],
            [
              78.4922858,
              30.2667395
            ],
            [
              78.4917298,
              30.2672891
            ],
            [
              78.4914552,
              30.2676652
            ],
            [
              78.4911002,
              30.2680181
            ],
            [
              78.4908791,
              30.2684404
            ],
            [
              78.490705,
              30.2688916
            ],
            [
              78.4906849,
              30.2693139
            ],
            [
              78.4906246,
              30.269823
            ],
            [
              78.4906246,
              30.270361
            ],
            [
              78.4905442,
              30.27098
            ],
            [
              78.4905911,
              30.2713155
            ],
            [
              78.4908055,
              30.2716453
            ],
            [
              78.4911203,
              30.2724667
            ],
            [
              78.4912877,
              30.2728774
            ],
            [
              78.4914485,
              30.2732592
            ],
            [
              78.4916695,
              30.273589
            ],
            [
              78.4918504,
              30.2739592
            ],
            [
              78.4921116,
              30.2745492
            ],
            [
              78.4924934,
              30.2750988
            ],
            [
              78.4926207,
              30.2754632
            ],
            [
              78.4925537,
              30.2757177
            ],
            [
              78.4927011,
              30.2760012
            ],
            [
              78.4930427,
              30.2763078
            ],
            [
              78.4934848,
              30.2765739
            ],
            [
              78.4937795,
              30.2767532
            ],
            [
              78.4943823,
              30.2772044
            ],
            [
              78.4949852,
              30.2776382
            ],
            [
              78.4954138,
              30.2780894
            ],
            [
              78.4956952,
              30.2782572
            ],
            [
              78.4964253,
              30.2782225
            ],
            [
              78.4967334,
              30.2781473
            ],
            [
              78.4969477,
              30.2782977
            ],
            [
              78.4970415,
              30.278639
            ],
            [
              78.4971219,
              30.2788009
            ],
            [
              78.497209,
              30.2791769
            ],
            [
              78.4975506,
              30.2799983
            ],
            [
              78.4975171,
              30.2804206
            ],
            [
              78.497647,
              30.2807452
            ],
            [
              78.4975719,
              30.2808564
            ],
            [
              78.4975841,
              30.2811957
            ],
            [
              78.497564,
              30.2817452
            ],
            [
              78.4975854,
              30.2821789
            ],
            [
              78.4975558,
              30.2825078
            ],
            [
              78.4973896,
              30.2828113
            ],
            [
              78.4969765,
              30.2832305
            ],
            [
              78.4965393,
              30.283432
            ],
            [
              78.4963033,
              30.2835108
            ],
            [
              78.4961021,
              30.2834297
            ],
            [
              78.4960082,
              30.283381
            ],
            [
              78.4959229,
              30.2831565
            ],
            [
              78.4958178,
              30.2830475
            ],
            [
              78.4957051,
              30.2830058
            ],
            [
              78.495655,
              30.2830466
            ],
            [
              78.4954986,
              30.2830313
            ],
            [
              78.4952866,
              30.2832259
            ],
            [
              78.4951325,
              30.2834226
            ],
            [
              78.4951901,
              30.2836219
            ],
            [
              78.4950614,
              30.2838721
            ],
            [
              78.4950265,
              30.2839925
            ],
            [
              78.4948871,
              30.2840898
            ],
            [
              78.4947449,
              30.2841384
            ],
            [
              78.4945491,
              30.2841593
            ],
            [
              78.4943694,
              30.2840898
            ],
            [
              78.4941092,
              30.2841245
            ],
            [
              78.4937192,
              30.2839837
            ],
            [
              78.4934977,
              30.2837887
            ],
            [
              78.4930963,
              30.2837176
            ],
            [
              78.4922925,
              30.2836887
            ],
            [
              78.4915825,
              30.2836713
            ],
            [
              78.4912877,
              30.2840068
            ],
            [
              78.4908925,
              30.2843654
            ],
            [
              78.4904772,
              30.2846604
            ],
            [
              78.4903902,
              30.2846951
            ],
            [
              78.4900954,
              30.2848166
            ],
            [
              78.4895931,
              30.2849785
            ],
            [
              78.4891577,
              30.2849901
            ],
            [
              78.4887156,
              30.2849901
            ],
            [
              78.4882132,
              30.2851
            ],
            [
              78.4876841,
              30.2851579
            ],
            [
              78.4868267,
              30.2850942
            ],
            [
              78.486331,
              30.2850133
            ],
            [
              78.4857684,
              30.2849149
            ],
            [
              78.4853933,
              30.2847588
            ],
            [
              78.4851588,
              30.284458
            ],
            [
              78.4849914,
              30.2841514
            ],
            [
              78.4848105,
              30.2839895
            ],
            [
              78.4840402,
              30.2839721
            ],
            [
              78.4837388,
              30.2841688
            ],
            [
              78.483558,
              30.2843423
            ],
            [
              78.4832431,
              30.2845852
            ],
            [
              78.483069,
              30.2848513
            ],
            [
              78.4830958,
              30.2851983
            ],
            [
              78.4830824,
              30.2856032
            ],
            [
              78.4829752,
              30.2858751
            ],
            [
              78.4830489,
              30.2862279
            ],
            [
              78.483069,
              30.2866154
            ],
            [
              78.4831695,
              30.2867947
            ]
          ]
        ]
      }
    },
    {
      "type": "Feature",
      "id": 1001773805,
      "properties": {
        "intermittent": "yes",
        "natural": "water",
        "water": "basin"
      },
      "geometry": {
        "type": "Polygon",
        "coordinates": [
          [
            [
              78.4765093,
              30.3729024
            ],
            [
              78.476821,
              30.3728803
            ],
            [
              78.4767841,
              30.3726971
            ],
            [
              78.476686,
              30.3720605
            ],
            [
              78.476588,
              30.3712426
            ],
            [
              78.4761677,
              30.371291
            ],
            [
              78.4764245,
              30.3729026
            ],
            [
              78.4765093,
              30.3729024
            ]
          ]
        ]
      }
    }
  ]
}