{
  "type": "FeatureCollection",
  "features": [
    {
      "type": "Feature",
      "id": "flood_perimeter",
      "properties": {
        "total_area_sqkm": 13.59,
        "polygon_area_sqkm": 13.6,
        "peak_flood_depth_m": 3.32,
        "peak_flow_velocity_ms": 3.73
      },
      "geometry": {
        "type": "Polygon",
        "coordinates": [
          [
            [
              70.88427777777778,
              22.727
            ],
            [
              70.88499999999999,
              22.727
            ],
            [
              70.88572222222221,
              22.738666666666667
            ],
            [
              70.88644444444444,
              22.738666666666667
            ],
            [
              70.88644444444444,
              22.744888888888887
            ],
            [
              70.88716666666666,
              22.744888888888887
            ],
            [
              70.88788888888888,
              22.756555555555554
            ],
            [
              70.8886111111111,
              22.756555555555554
            ],
            [
              70.89005555555555,
              22.775222222222222
            ],
            [
              70.90738888888889,
              22.775222222222222
            ],
            [
              70.90738888888889,
              22.769
            ],
            [
              70.90811111111111,
              22.769
            ],
            [
              70.90811111111111,
              22.762777777777778
            ],
            [
              70.90883333333333,
              22.762777777777778
            ],
            [
              70.90883333333333,
              22.755777777777777
            ],
            [
              70.90811111111111,
              22.755777777777777
            ],
            [
              70.90811111111111,
              22.739444444444445
            ],
            [
              70.90883333333333,
              22.739444444444445
            ],
            [
              70.90883333333333,
              22.738666666666667
            ],
            [
              70.90811111111111,
              22.738666666666667
            ],
            [
              70.90811111111111,
              22.73711111111111
            ],
            [
              70.90883333333333,
              22.73711111111111
            ],
            [
              70.90955555555556,
              22.728555555555555
            ],
            [
              70.91027777777778,
              22.728555555555555
            ],
            [
              70.911,
              22.72
            ],
            [
              70.88355555555556,
              22.72
            ],
            [
              70.88355555555556,
              22.720777777777776
            ],
            [
              70.88427777777778,
              22.720777777777776
            ],
            [
              70.88427777777778,
              22.727
            ]
          ]
        ]
      }
    }
  ]
}