{
"type": "FeatureCollection",
"name": "buildings",
"crs": { "type": "name", "properties": { "name": "urn:ogc:def:crs:OGC:1.3:CRS84" } },
"features": [
{ "type": "Feature", "properties": { "building": "yes", "name": null }, "geometry": { "type": "MultiPolygon", "coordinates": [ [ [ [ 78.4671299, 30.3748411 ], [ 78.4671212, 30.3748133 ], [ 78.4670976, 30.3747929 ], [ 78.4670653, 30.3747854 ], [ 78.4670331, 30.3747929 ], [ 78.4670094, 30.3748133 ], [ 78.4670008, 30.3748411 ], [ 78.4670094, 30.374869 ], [ 78.4670331, 30.3748894 ], [ 78.4670653, 30.3748968 ], [ 78.4670976, 30.3748894 ], [ 78.4671212, 30.374869 ], [ 78.4671299, 30.3748411 ] ] ] ] } },
{ "type": "Feature", "properties": { "building": "yes", "name": null }, "geometry": { "type": "MultiPolygon", "coordinates": [ [ [ [ 78.4660769, 30.3899836 ], [ 78.4661913, 30.389967 ], [ 78.4660757, 30.3893738 ], [ 78.4659613, 30.3893904 ], [ 78.4660769, 30.3899836 ] ] ] ] } },
{ "type": "Feature", "properties": { "building": "yes", "name": null }, "geometry": { "type": "MultiPolygon", "coordinates": [ [ [ [ 78.4657057, 30.3894351 ], [ 78.4658244, 30.3900282 ], [ 78.4659368, 30.3900115 ], [ 78.4658182, 30.3894183 ], [ 78.4657057, 30.3894351 ] ] ] ] } },
{ "type": "Feature", "properties": { "building": "yes", "name": null }, "geometry": { "type": "MultiPolygon", "coordinates": [ [ [ [ 78.4669808, 30.3748555 ], [ 78.4669721, 30.3748277 ], [ 78.4669485, 30.3748073 ], [ 78.4669162, 30.3747998 ], [ 78.466884, 30.3748073 ], [ 78.4668603, 30.3748277 ], [ 78.4668517, 30.3748555 ], [ 78.4668603, 30.3748834 ], [ 78.466884, 30.3749038 ], [ 78.4669162, 30.3749112 ], [ 78.4669485, 30.3749038 ], [ 78.4669721, 30.3748834 ], [ 78.4669808, 30.3748555 ] ] ] ] } },
{ "type": "Feature", "properties": { "building": "yes", "name": "Satyeshwar Mandir" }, "geometry": { "type": "MultiPolygon", "coordinates": [ [ [ [ 78.4448648, 30.3831523 ], [ 78.4450359, 30.3831675 ], [ 78.445204, 30.3831853 ], [ 78.4453868, 30.3831745 ], [ 78.4454141, 30.3830841 ], [ 78.4452902, 30.3830335 ], [ 78.4451664, 30.3829602 ], [ 78.444935, 30.3828771 ], [ 78.4447738, 30.3829267 ], [ 78.4446617, 30.3829324 ], [ 78.4445659, 30.3828917 ], [ 78.4446217, 30.382945 ], [ 78.4446891, 30.3830024 ], [ 78.4448648, 30.3831523 ] ] ] ] } },
{ "type": "Feature", "properties": { "building": "yes", "name": null }, "geometry": { "type": "MultiPolygon", "coordinates": [ [ [ [ 78.4448984, 30.3817708 ], [ 78.4449766, 30.3818314 ], [ 78.4450516, 30.3817708 ], [ 78.4449766, 30.3817007 ], [ 78.4448984, 30.3817708 ] ] ] ] } },
{ "type": "Feature", "properties": { "building": "yes", "name": null }, "geometry": { "type": "MultiPolygon", "coordinates": [ [ [ [ 78.4449654, 30.3819538 ], [ 78.445034, 30.3819992 ], [ 78.4450994, 30.3819318 ], [ 78.4450356, 30.381885 ], [ 78.4449654, 30.3819538 ] ] ] ] } },
{ "type": "Feature", "properties": { "building": "yes", "name": null }, "geometry": { "type": "MultiPolygon", "coordinates": [ [ [ [ 78.4449112, 30.3819112 ], [ 78.4449654, 30.3819538 ], [ 78.4450356, 30.381885 ], [ 78.444983, 30.3818479 ], [ 78.4449112, 30.3819112 ] ] ] ] } },
{ "type": "Feature", "properties": { "building": "yes", "name": null }, "geometry": { "type": "MultiPolygon", "coordinates": [ [ [ [ 78.492475, 30.4005674 ], [ 78.4926304, 30.4006014 ], [ 78.4927031, 30.4003547 ], [ 78.4925459, 30.4003203 ], [ 78.49252, 30.400408 ], [ 78.4924745, 30.400398 ], [ 78.4924553, 30.4004634 ], [ 78.4925026, 30.4004738 ], [ 78.492475, 30.4005674 ] ] ] ] } },
{ "type": "Feature", "properties": { "building": "yes", "name": null }, "geometry": { "type": "MultiPolygon", "coordinates": [ [ [ [ 78.5025314, 30.3997903 ], [ 78.5025833, 30.3997657 ], [ 78.5025356, 30.399691 ], [ 78.5024838, 30.3997156 ], [ 78.5025314, 30.3997903 ] ] ] ] } },
{ "type": "Feature", "properties": { "building": "yes", "name": null }, "geometry": { "type": "MultiPolygon", "coordinates": [ [ [ [ 78.4926635, 30.4026394 ], [ 78.4928047, 30.4027244 ], [ 78.4928717, 30.4026417 ], [ 78.4926906, 30.4025326 ], [ 78.4926564, 30.4025748 ], [ 78.4926964, 30.4025988 ], [ 78.4926635, 30.4026394 ] ] ] ] } },
{ "type": "Feature", "properties": { "building": "yes", "name": null }, "geometry": { "type": "MultiPolygon", "coordinates": [ [ [ [ 78.5180112, 30.4035617 ], [ 78.5181212, 30.4035613 ], [ 78.5181209, 30.4034913 ], [ 78.5180109, 30.4034917 ], [ 78.5180112, 30.4035617 ] ] ] ] } },
{ "type": "Feature", "properties": { "building": "yes", "name": null }, "geometry": { "type": "MultiPolygon", "coordinates": [ [ [ [ 78.4707899, 30.3792523 ], [ 78.4709199, 30.3792952 ], [ 78.4709559, 30.3792142 ], [ 78.4708259, 30.3791712 ], [ 78.4707899, 30.3792523 ] ] ] ] } },
{ "type": "Feature", "properties": { "building": "yes", "name": null }, "geometry": { "type": "MultiPolygon", "coordinates": [ [ [ [ 78.4501207, 30.3695878 ], [ 78.4501866, 30.3695927 ], [ 78.450199, 30.3694684 ], [ 78.4501332, 30.3694635 ], [ 78.4501207, 30.3695878 ] ] ] ] } }
]
}
