{
"type": "FeatureCollection",
"name": "water",
"crs": { "type": "name", "properties": { "name": "urn:ogc:def:crs:OGC:1.3:CRS84" } },
"features": [
{ "type": "Feature", "properties": { "natural": "water", "name": "Tehri Reservoir" }, "geometry": { "type": "MultiPolygon", "coordinates": [ [ [ [ 78.5149691, 30.3786359 ], [ 78.5141158, 30.3776606 ], [ 78.5134399, 30.3779198 ], [ 78.5126889, 30.377494 ], [ 78.5122275, 30.3766795 ], [ 78.5116053, 30.376337 ], [ 78.5109848, 30.3762066 ], [ 78.5102856, 30.3769109 ], [ 78.5093629, 30.3764203 ], [ 78.5088909, 30.3764666 ], [ 78.5083491, 30.3763579 ], [ 78.5073781, 30.3765129 ], [ 78.5076785, 30.3776328 ], [ 78.5074103, 30.3782622 ], [ 78.5064876, 30.3784844 ], [ 78.5055649, 30.3793452 ], [ 78.5046101, 30.3802059 ], [ 78.5042453, 30.3808723 ], [ 78.5033333, 30.3809556 ], [ 78.5015309, 30.3811222 ], [ 78.500458, 30.3805114 ], [ 78.4980225, 30.3805299 ], [ 78.4971964, 30.3802892 ], [ 78.4945893, 30.3805484 ], [ 78.4928989, 30.3800216 ], [ 78.4893545, 30.3803971 ], [ 78.4880296, 30.3808531 ], [ 78.4871667, 30.3811386 ], [ 78.4860038, 30.381034 ], [ 78.4852603, 30.3813186 ], [ 78.4852863, 30.3818888 ], [ 78.4848091, 30.3821182 ], [ 78.4841999, 30.3820297 ], [ 78.4838925, 30.3817797 ], [ 78.4833652, 30.3811734 ], [ 78.4827932, 30.3804938 ], [ 78.4828169, 30.3799236 ], [ 78.4831709, 30.3784113 ], [ 78.4821498, 30.3785165 ], [ 78.4775585, 30.3779464 ], [ 78.4771961, 30.3783694 ], [ 78.4774537, 30.379134 ], [ 78.4782905, 30.3797819 ], [ 78.478151, 30.3801892 ], [ 78.4772284, 30.3808833 ], [ 78.4763379, 30.3817626 ], [ 78.4759624, 30.3824938 ], [ 78.4755547, 30.3831602 ], [ 78.4749002, 30.3832065 ], [ 78.4746642, 30.3838451 ], [ 78.4749002, 30.3842708 ], [ 78.4730484, 30.3872706 ], [ 78.4706313, 30.3881672 ], [ 78.468574, 30.3900083 ], [ 78.4689191, 30.3900776 ], [ 78.4690276, 30.3902984 ], [ 78.4664217, 30.3921536 ], [ 78.4661683, 30.3919871 ], [ 78.4653339, 30.3923196 ], [ 78.4653454, 30.3925792 ], [ 78.4646989, 30.3932943 ], [ 78.4643332, 30.3933999 ], [ 78.4641048, 30.3936149 ], [ 78.4641059, 30.3938203 ], [ 78.4637918, 30.3940416 ], [ 78.463874, 30.3942209 ], [ 78.4632506, 30.3951436 ], [ 78.462584, 30.3958411 ], [ 78.4625151, 30.3961594 ], [ 78.4622673, 30.396298 ], [ 78.4619555, 30.3967127 ], [ 78.4616836, 30.3967567 ], [ 78.4617221, 30.3968781 ], [ 78.4618833, 30.3970873 ], [ 78.4620089, 30.3972999 ], [ 78.4619868, 30.3975371 ], [ 78.4616783, 30.397909 ], [ 78.4617019, 30.3983892 ], [ 78.4615124, 30.3989558 ], [ 78.4616035, 30.399182 ], [ 78.4615335, 30.3995095 ], [ 78.4610927, 30.4000517 ], [ 78.4612035, 30.401233 ], [ 78.4614278, 30.4016202 ], [ 78.4612166, 30.4017652 ], [ 78.4608893, 30.4017402 ], [ 78.4605952, 30.4018161 ], [ 78.460443, 30.4019309 ], [ 78.4606369, 30.4022736 ], [ 78.4610113, 30.4027478 ], [ 78.4615177, 30.4026416 ], [ 78.461545, 30.4028098 ], [ 78.4618774, 30.404855 ], [ 78.4611547, 30.4057693 ], [ 78.4607003, 30.4058236 ], [ 78.4596575, 30.4067246 ], [ 78.458334, 30.4076033 ], [ 78.4587416, 30.4080845 ], [ 78.4559976, 30.4114352 ], [ 78.4560448, 30.4125743 ], [ 78.4555398, 30.4130625 ], [ 78.4554969, 30.4141913 ], [ 78.4556753, 30.4148763 ], [ 78.4551603, 30.4147283 ], [ 78.454345, 30.4144322 ], [ 78.4540231, 30.413618 ], [ 78.4536145, 30.4132748 ], [ 78.452606, 30.4126306 ], [ 78.4517048, 30.4113132 ], [ 78.4515331, 30.4106876 ], [ 78.4511164, 30.4107157 ], [ 78.4512756, 30.4099103 ], [ 78.4508679, 30.4090406 ], [ 78.4504388, 30.4085779 ], [ 78.4497092, 30.4082078 ], [ 78.4490857, 30.4064374 ], [ 78.4484205, 30.4053085 ], [ 78.447466, 30.4041169 ], [ 78.4463502, 30.404139 ], [ 78.44517, 30.4039354 ], [ 78.445406, 30.4035097 ], [ 78.4448267, 30.4032136 ], [ 78.443389, 30.4032136 ], [ 78.4418011, 30.4030471 ], [ 78.4413505, 30.4034727 ], [ 78.440342, 30.4037318 ], [ 78.4391618, 30.4039169 ], [ 78.4392262, 30.404213 ], [ 78.4414793, 30.404213 ], [ 78.4424019, 30.4035282 ], [ 78.4433461, 30.4041945 ], [ 78.4440327, 30.404176 ], [ 78.4446765, 30.4048237 ], [ 78.4454704, 30.4051383 ], [ 78.4461141, 30.4054714 ], [ 78.4468437, 30.4052494 ], [ 78.4470797, 30.405749 ], [ 78.4469939, 30.4063412 ], [ 78.4476591, 30.4080217 ], [ 78.4480882, 30.4088396 ], [ 78.4484101, 30.4098944 ], [ 78.448689, 30.4111528 ], [ 78.4475518, 30.4123371 ], [ 78.4493542, 30.4128553 ], [ 78.4495474, 30.4140396 ], [ 78.4493882, 30.4145987 ], [ 78.4491826, 30.415668 ], [ 78.4496761, 30.415631 ], [ 78.4503198, 30.4153164 ], [ 78.4505773, 30.4157605 ], [ 78.4505773, 30.415742 ], [ 78.4506202, 30.4157605 ], [ 78.4507275, 30.4160196 ], [ 78.4512854, 30.4160936 ], [ 78.4508134, 30.4162231 ], [ 78.4499765, 30.4161491 ], [ 78.4492684, 30.4163156 ], [ 78.4478093, 30.4171483 ], [ 78.4486995, 30.4173555 ], [ 78.4503842, 30.4170188 ], [ 78.4500623, 30.417833 ], [ 78.4483347, 30.4184288 ], [ 78.4470258, 30.419243 ], [ 78.4447727, 30.4199276 ], [ 78.4434638, 30.4205382 ], [ 78.4424124, 30.4197241 ], [ 78.4405455, 30.4193355 ], [ 78.440331, 30.4204087 ], [ 78.4404597, 30.4206122 ], [ 78.4409962, 30.4199276 ], [ 78.4421763, 30.4205012 ], [ 78.4414682, 30.4211488 ], [ 78.4391079, 30.4217039 ], [ 78.4357605, 30.4232952 ], [ 78.4343872, 30.425312 ], [ 78.4347672, 30.428004 ], [ 78.4339518, 30.42867 ], [ 78.4336728, 30.4289661 ], [ 78.4332651, 30.4291696 ], [ 78.432836, 30.4295026 ], [ 78.4322137, 30.4294841 ], [ 78.4318919, 30.4294471 ], [ 78.4312052, 30.4287255 ], [ 78.4294028, 30.4271714 ], [ 78.428759, 30.4271159 ], [ 78.4307117, 30.4301132 ], [ 78.4271282, 30.4327589 ], [ 78.4263129, 30.4340725 ], [ 78.4261627, 30.4351271 ], [ 78.426506, 30.4358856 ], [ 78.4273428, 30.4362741 ], [ 78.4274716, 30.4367921 ], [ 78.4275359, 30.4372361 ], [ 78.4278578, 30.4376616 ], [ 78.4279007, 30.4382167 ], [ 78.4279436, 30.4386422 ], [ 78.4272355, 30.4399557 ], [ 78.4266651, 30.4412232 ], [ 78.4265149, 30.4415331 ], [ 78.4264022, 30.4418522 ], [ 78.4258408, 30.4425641 ], [ 78.426429, 30.442902 ], [ 78.4267187, 30.442717 ], [ 78.4268689, 30.4426569 ], [ 78.4270942, 30.4427448 ], [ 78.4275574, 30.4432301 ], [ 78.4276307, 30.4434478 ], [ 78.427636, 30.4436605 ], [ 78.4277165, 30.4438224 ], [ 78.429274, 30.4442846 ], [ 78.4304756, 30.444673 ], [ 78.4313769, 30.445043 ], [ 78.4322781, 30.444673 ], [ 78.4329647, 30.444747 ], [ 78.4339431, 30.4449853 ], [ 78.4357064, 30.445157 ], [ 78.4366433, 30.4456459 ], [ 78.4375317, 30.4464655 ], [ 78.4378075, 30.4475317 ], [ 78.4379593, 30.4481692 ], [ 78.4380419, 30.448464 ], [ 78.4372937, 30.4488587 ], [ 78.4370492, 30.4488966 ], [ 78.4367851, 30.4489683 ], [ 78.4365895, 30.4489683 ], [ 78.4363792, 30.4489135 ], [ 78.4360124, 30.4487996 ], [ 78.4357238, 30.4488376 ], [ 78.4355233, 30.4488924 ], [ 78.435538, 30.4489345 ], [ 78.4355282, 30.4490315 ], [ 78.4353179, 30.449002 ], [ 78.4349462, 30.4489135 ], [ 78.4348191, 30.4487532 ], [ 78.4345794, 30.4486942 ], [ 78.4343985, 30.4486731 ], [ 78.434149, 30.4486394 ], [ 78.4340317, 30.4485509 ], [ 78.4338263, 30.4483991 ], [ 78.4334008, 30.4484581 ], [ 78.4327699, 30.4486478 ], [ 78.4322172, 30.4487111 ], [ 78.4318504, 30.4487659 ], [ 78.4316059, 30.4488376 ], [ 78.4314152, 30.4489767 ], [ 78.4312538, 30.4491706 ], [ 78.4311609, 30.4493098 ], [ 78.431019, 30.449314 ], [ 78.4308527, 30.4492508 ], [ 78.4307598, 30.4492676 ], [ 78.4305935, 30.4492423 ], [ 78.4303441, 30.4491833 ], [ 78.4300458, 30.4491538 ], [ 78.4296252, 30.4492044 ], [ 78.4293709, 30.449255 ], [ 78.4290383, 30.4493309 ], [ 78.4288085, 30.449411 ], [ 78.4286128, 30.4495164 ], [ 78.4284661, 30.4496471 ], [ 78.4283487, 30.4496977 ], [ 78.4282216, 30.4496639 ], [ 78.4281238, 30.4496513 ], [ 78.4280211, 30.4497356 ], [ 78.427801, 30.4498958 ], [ 78.4277374, 30.4500434 ], [ 78.4276592, 30.4501783 ], [ 78.4275271, 30.4503259 ], [ 78.4274146, 30.450524 ], [ 78.427263, 30.4507264 ], [ 78.4271163, 30.4508234 ], [ 78.4268962, 30.4508065 ], [ 78.4267348, 30.4507981 ], [ 78.426549, 30.4508571 ], [ 78.4263142, 30.4509035 ], [ 78.4261871, 30.4508571 ], [ 78.4261479, 30.4507559 ], [ 78.4260648, 30.4506547 ], [ 78.4258447, 30.4505915 ], [ 78.4253997, 30.4504439 ], [ 78.4252236, 30.450406 ], [ 78.425072, 30.4503216 ], [ 78.4249057, 30.4502289 ], [ 78.4247639, 30.4502078 ], [ 78.4246856, 30.4501403 ], [ 78.4247052, 30.4500223 ], [ 78.4246661, 30.449879 ], [ 78.4246221, 30.4497103 ], [ 78.4244167, 30.4494995 ], [ 78.4242944, 30.4493983 ], [ 78.424221, 30.4493266 ], [ 78.4241526, 30.4491833 ], [ 78.4240401, 30.4491116 ], [ 78.4239716, 30.4492255 ], [ 78.4239569, 30.4493309 ], [ 78.423908, 30.4494489 ], [ 78.4236244, 30.4495627 ], [ 78.4233652, 30.4495965 ], [ 78.4231304, 30.449626 ], [ 78.4227245, 30.4496934 ], [ 78.4223626, 30.4498115 ], [ 78.4222159, 30.4498241 ], [ 78.4220153, 30.449782 ], [ 78.4218295, 30.4497145 ], [ 78.4216388, 30.4496724 ], [ 78.4213845, 30.4496386 ], [ 78.4211057, 30.4496007 ], [ 78.4209785, 30.4496555 ], [ 78.4209003, 30.449723 ], [ 78.4209639, 30.449782 ], [ 78.421135, 30.4498621 ], [ 78.4218442, 30.4501446 ], [ 78.4220985, 30.4502584 ], [ 78.4224262, 30.4502921 ], [ 78.4226951, 30.4502879 ], [ 78.422793, 30.4503596 ], [ 78.4229837, 30.4504861 ], [ 78.4231793, 30.4506421 ], [ 78.4233554, 30.4507432 ], [ 78.423507, 30.4508571 ], [ 78.4236048, 30.4510342 ], [ 78.4236439, 30.4511733 ], [ 78.4236928, 30.4512323 ], [ 78.4237858, 30.451266 ], [ 78.4238982, 30.4512154 ], [ 78.4239765, 30.4511859 ], [ 78.4239912, 30.4512407 ], [ 78.4238249, 30.4513166 ], [ 78.4236684, 30.4513757 ], [ 78.4235461, 30.4514136 ], [ 78.4234385, 30.4515148 ], [ 78.4233994, 30.4516666 ], [ 78.423326, 30.4518647 ], [ 78.4232038, 30.4521177 ], [ 78.4231011, 30.4522568 ], [ 78.4229544, 30.4523285 ], [ 78.4229592, 30.4524887 ], [ 78.4229446, 30.4530918 ], [ 78.4229348, 30.4534712 ], [ 78.4228468, 30.4537664 ], [ 78.4228663, 30.4539772 ], [ 78.4229935, 30.4541711 ], [ 78.42315, 30.4542807 ], [ 78.4232576, 30.4544831 ], [ 78.4234141, 30.4547697 ], [ 78.4237173, 30.4549805 ], [ 78.4239912, 30.455166 ], [ 78.4243335, 30.4555202 ], [ 78.4245487, 30.4560429 ], [ 78.4246172, 30.4565151 ], [ 78.424578, 30.456962 ], [ 78.4244607, 30.4574847 ], [ 78.4244215, 30.4577883 ], [ 78.4242124, 30.4582847 ], [ 78.4242124, 30.4586544 ], [ 78.4242262, 30.4590598 ], [ 78.4241294, 30.4593102 ], [ 78.424157, 30.4595964 ], [ 78.4241985, 30.4597514 ], [ 78.4243922, 30.4599183 ], [ 78.4246965, 30.4600972 ], [ 78.4248764, 30.4602999 ], [ 78.4250562, 30.4604072 ], [ 78.4251668, 30.4606456 ], [ 78.4250977, 30.4610033 ], [ 78.4250977, 30.4613134 ], [ 78.4251392, 30.4615995 ], [ 78.4253605, 30.4616949 ], [ 78.4255818, 30.4619095 ], [ 78.4258032, 30.4625534 ], [ 78.426066, 30.4629111 ], [ 78.4261628, 30.4631973 ], [ 78.4260936, 30.4634596 ], [ 78.4259415, 30.4638769 ], [ 78.4256648, 30.4641273 ], [ 78.4254988, 30.4643777 ], [ 78.4255265, 30.4646519 ], [ 78.425651, 30.4650573 ], [ 78.425485, 30.4655223 ], [ 78.425402, 30.4657607 ], [ 78.4252637, 30.4656653 ], [ 78.4251668, 30.4652719 ], [ 78.4250423, 30.4650334 ], [ 78.4247104, 30.4648069 ], [ 78.4243369, 30.4646996 ], [ 78.4236176, 30.4646877 ], [ 78.4232579, 30.4646042 ], [ 78.4231887, 30.4644492 ], [ 78.4228429, 30.4641988 ], [ 78.4226216, 30.4640676 ], [ 78.4222481, 30.4639961 ], [ 78.4224003, 30.4642465 ], [ 78.4226908, 30.4645207 ], [ 78.4228568, 30.464795 ], [ 78.4229259, 30.465093 ], [ 78.4232026, 30.4652361 ], [ 78.4235899, 30.4653434 ], [ 78.4239634, 30.465415 ], [ 78.4242124, 30.4655223 ], [ 78.4242815, 30.4658442 ], [ 78.4243507, 30.4663211 ], [ 78.42424, 30.4664403 ], [ 78.4235761, 30.4665596 ], [ 78.4229951, 30.4667384 ], [ 78.4226078, 30.4668696 ], [ 78.422013, 30.4672153 ], [ 78.4217086, 30.4675134 ], [ 78.4216256, 30.4676207 ], [ 78.4211553, 30.4676326 ], [ 78.4209478, 30.4678711 ], [ 78.4204083, 30.4680141 ], [ 78.4195922, 30.4682645 ], [ 78.4191357, 30.468503 ], [ 78.4186516, 30.468646 ], [ 78.4183058, 30.468646 ], [ 78.4174896, 30.4682049 ], [ 78.4168256, 30.4679307 ], [ 78.415802, 30.4675253 ], [ 78.4149623, 30.4704593 ], [ 78.4150246, 30.4703937 ], [ 78.415156, 30.4702447 ], [ 78.4152943, 30.4702209 ], [ 78.4154811, 30.4702686 ], [ 78.4156332, 30.4703401 ], [ 78.4157854, 30.4704116 ], [ 78.4159514, 30.4704355 ], [ 78.4162557, 30.4704891 ], [ 78.4163733, 30.4705726 ], [ 78.417058, 30.4707335 ], [ 78.417307, 30.4708229 ], [ 78.4176113, 30.4709124 ], [ 78.4178672, 30.470966 ], [ 78.4182407, 30.4710793 ], [ 78.4185174, 30.4711687 ], [ 78.418794, 30.4712343 ], [ 78.4191675, 30.4712104 ], [ 78.4195272, 30.4711687 ], [ 78.4198661, 30.4710912 ], [ 78.4203572, 30.4710435 ], [ 78.4209243, 30.4710852 ], [ 78.4213739, 30.4710972 ], [ 78.4217958, 30.4710376 ], [ 78.4221762, 30.4709958 ], [ 78.4224805, 30.4709899 ], [ 78.4227848, 30.4709004 ], [ 78.4230131, 30.4708349 ], [ 78.4231998, 30.4707156 ], [ 78.4233589, 30.4705785 ], [ 78.4235041, 30.4704593 ], [ 78.4236632, 30.4703759 ], [ 78.423926, 30.4702984 ], [ 78.4243548, 30.4701732 ], [ 78.4247422, 30.4698274 ], [ 78.4248874, 30.4696903 ], [ 78.4251018, 30.4695592 ], [ 78.4253093, 30.469434 ], [ 78.4259421, 30.4691169 ], [ 78.4260112, 30.4690036 ], [ 78.4262395, 30.4688009 ], [ 78.4264262, 30.4685982 ], [ 78.4266614, 30.4684075 ], [ 78.4272147, 30.4682883 ], [ 78.4276625, 30.4681236 ], [ 78.4277212, 30.467584 ], [ 78.4278972, 30.4670613 ], [ 78.4282298, 30.466488 ], [ 78.4285037, 30.4660665 ], [ 78.4289927, 30.4657461 ], [ 78.4288754, 30.465392 ], [ 78.4289732, 30.4650211 ], [ 78.4293057, 30.4645152 ], [ 78.4295405, 30.4639756 ], [ 78.4293449, 30.463436 ], [ 78.4290905, 30.4628121 ], [ 78.4288949, 30.4625423 ], [ 78.4287189, 30.461851 ], [ 78.4286015, 30.4615475 ], [ 78.4282885, 30.4612945 ], [ 78.4280928, 30.4609236 ], [ 78.4280733, 30.4602322 ], [ 78.4280146, 30.4595071 ], [ 78.4279755, 30.4584279 ], [ 78.427995, 30.4573655 ], [ 78.4280342, 30.456691 ], [ 78.4280928, 30.4563874 ], [ 78.4282493, 30.4561176 ], [ 78.4279755, 30.4554262 ], [ 78.4277603, 30.4550384 ], [ 78.4278972, 30.4546337 ], [ 78.4282102, 30.4544313 ], [ 78.4287189, 30.4545156 ], [ 78.4293449, 30.4543976 ], [ 78.4296187, 30.4540266 ], [ 78.4303817, 30.4535881 ], [ 78.4319271, 30.4533014 ], [ 78.4330617, 30.4531159 ], [ 78.4351549, 30.4527112 ], [ 78.4355071, 30.4525257 ], [ 78.4359766, 30.452239 ], [ 78.4365439, 30.4522221 ], [ 78.4370916, 30.4522727 ], [ 78.4376785, 30.4523233 ], [ 78.4381676, 30.4523402 ], [ 78.4386762, 30.452239 ], [ 78.4393218, 30.4520366 ], [ 78.4396348, 30.4521041 ], [ 78.4399282, 30.4522896 ], [ 78.440163, 30.4524076 ], [ 78.440476, 30.4522053 ], [ 78.4406129, 30.4518849 ], [ 78.4408477, 30.451497 ], [ 78.4411607, 30.4513789 ], [ 78.4416302, 30.4511934 ], [ 78.4414737, 30.4504177 ], [ 78.4412685, 30.4497827 ], [ 78.4413153, 30.4485534 ], [ 78.4416318, 30.4482158 ], [ 78.4416264, 30.4479754 ], [ 78.4415889, 30.447462 ], [ 78.4416747, 30.4466296 ], [ 78.4416211, 30.446477 ], [ 78.4415781, 30.4461116 ], [ 78.4414172, 30.445811 ], [ 78.4412402, 30.4455567 ], [ 78.4412134, 30.4452144 ], [ 78.4412026, 30.4447705 ], [ 78.4411007, 30.4444884 ], [ 78.4409988, 30.444234 ], [ 78.4407306, 30.4439796 ], [ 78.4404409, 30.4438409 ], [ 78.4400672, 30.4436001 ], [ 78.4394324, 30.4434478 ], [ 78.4386492, 30.4420973 ], [ 78.4384614, 30.4419077 ], [ 78.4383112, 30.4415978 ], [ 78.4382844, 30.4414128 ], [ 78.4384364, 30.4411397 ], [ 78.4394879, 30.4409732 ], [ 78.4405393, 30.4403072 ], [ 78.4413332, 30.4407512 ], [ 78.4418697, 30.4406587 ], [ 78.4428353, 30.4408252 ], [ 78.4435219, 30.4406772 ], [ 78.4432644, 30.4395857 ], [ 78.4419984, 30.4389197 ], [ 78.4437794, 30.4380687 ], [ 78.4440136, 30.4374862 ], [ 78.443681, 30.4360061 ], [ 78.4442515, 30.4354786 ], [ 78.4445018, 30.4352985 ], [ 78.4449117, 30.4354716 ], [ 78.4451294, 30.436427 ], [ 78.4464138, 30.4369482 ], [ 78.447036, 30.4370222 ], [ 78.4471893, 30.4364039 ], [ 78.4473717, 30.4365427 ], [ 78.4480445, 30.4371702 ], [ 78.4488094, 30.4383418 ], [ 78.4488147, 30.4386378 ], [ 78.4488201, 30.4390495 ], [ 78.4492033, 30.4392607 ], [ 78.4492117, 30.438661 ], [ 78.4492332, 30.438402 ], [ 78.4493673, 30.4380551 ], [ 78.4498179, 30.4355483 ], [ 78.4503834, 30.4356346 ], [ 78.4517138, 30.433766 ], [ 78.4538167, 30.4328965 ], [ 78.4548466, 30.4337475 ], [ 78.4554904, 30.4347096 ], [ 78.4559195, 30.4335625 ], [ 78.4553616, 30.4325635 ], [ 78.4572928, 30.4309908 ], [ 78.4578722, 30.4306023 ], [ 78.458473, 30.4297697 ], [ 78.459975, 30.4304913 ], [ 78.459224, 30.4282896 ], [ 78.4607689, 30.427901 ], [ 78.4613483, 30.4276975 ], [ 78.4627216, 30.427568 ], [ 78.4638159, 30.4279195 ], [ 78.4644167, 30.4270869 ], [ 78.4656184, 30.4265873 ], [ 78.4639661, 30.4255697 ], [ 78.4651463, 30.4248481 ], [ 78.4665411, 30.4235159 ], [ 78.4676139, 30.4225352 ], [ 78.4690087, 30.4224242 ], [ 78.4686868, 30.42124 ], [ 78.4689014, 30.4207404 ], [ 78.4695022, 30.4205368 ], [ 78.4715622, 30.4175947 ], [ 78.4739225, 30.4172986 ], [ 78.4748666, 30.4180758 ], [ 78.4759181, 30.4174467 ], [ 78.4743302, 30.4148746 ], [ 78.4751465, 30.4143118 ], [ 78.4752324, 30.413442 ], [ 78.4763053, 30.4125168 ], [ 78.4764555, 30.4111659 ], [ 78.4776785, 30.4093153 ], [ 78.4776914, 30.4083437 ], [ 78.4778202, 30.4080938 ], [ 78.4780433, 30.4078164 ], [ 78.4788373, 30.408205 ], [ 78.4792203, 30.4082558 ], [ 78.4796956, 30.408279 ], [ 78.4804466, 30.4087232 ], [ 78.4806257, 30.4088294 ], [ 78.4809315, 30.4089081 ], [ 78.4815838, 30.4093894 ], [ 78.4816289, 30.4093892 ], [ 78.481999, 30.4092921 ], [ 78.4818596, 30.4090238 ], [ 78.4815913, 30.4088618 ], [ 78.4814465, 30.4087323 ], [ 78.4813017, 30.4085148 ], [ 78.481248, 30.4082696 ], [ 78.4811515, 30.4078903 ], [ 78.4810495, 30.4076543 ], [ 78.4809101, 30.4074646 ], [ 78.4809154, 30.4072518 ], [ 78.480835, 30.4069742 ], [ 78.4806472, 30.4068678 ], [ 78.4805399, 30.4066874 ], [ 78.4805237, 30.4066288 ], [ 78.4804594, 30.4063959 ], [ 78.4802878, 30.4061414 ], [ 78.4799713, 30.4059194 ], [ 78.4795475, 30.4057065 ], [ 78.4794295, 30.4055353 ], [ 78.4792354, 30.4047341 ], [ 78.479202, 30.4045963 ], [ 78.4790969, 30.4031942 ], [ 78.4789842, 30.4029675 ], [ 78.4788608, 30.4028565 ], [ 78.478834, 30.4023522 ], [ 78.4791291, 30.4021116 ], [ 78.479467, 30.4020376 ], [ 78.4795623, 30.4020392 ], [ 78.4797406, 30.4020422 ], [ 78.4799284, 30.4021301 ], [ 78.4801108, 30.402107 ], [ 78.4803522, 30.4018664 ], [ 78.4803897, 30.4015934 ], [ 78.4804165, 30.4013759 ], [ 78.4804809, 30.4010104 ], [ 78.4808189, 30.4008485 ], [ 78.4810549, 30.4009641 ], [ 78.4812802, 30.4010243 ], [ 78.4814733, 30.4007883 ], [ 78.4816235, 30.4005523 ], [ 78.4819186, 30.4004691 ], [ 78.4823102, 30.4005246 ], [ 78.4825247, 30.4007328 ], [ 78.4827608, 30.4010428 ], [ 78.4829485, 30.4012464 ], [ 78.4830934, 30.4013482 ], [ 78.4832972, 30.4014129 ], [ 78.4836566, 30.4013944 ], [ 78.4839946, 30.4011261 ], [ 78.4841341, 30.400904 ], [ 78.4844238, 30.4007744 ], [ 78.4847778, 30.4007143 ], [ 78.4850299, 30.4006541 ], [ 78.4856576, 30.4003534 ], [ 78.4863442, 30.3998444 ], [ 78.4864408, 30.3996779 ], [ 78.4867841, 30.3990255 ], [ 78.4868967, 30.3992476 ], [ 78.4870094, 30.3993864 ], [ 78.4870523, 30.3994465 ], [ 78.4876778, 30.3998399 ], [ 78.4877551, 30.3998491 ], [ 78.4883827, 30.4001082 ], [ 78.4885383, 30.4001868 ], [ 78.4889191, 30.4000989 ], [ 78.4889245, 30.3996686 ], [ 78.4890801, 30.3992059 ], [ 78.4890962, 30.3990023 ], [ 78.4890962, 30.3986183 ], [ 78.4890428, 30.398424 ], [ 78.488903, 30.397915 ], [ 78.488431, 30.3965315 ], [ 78.4884149, 30.3962169 ], [ 78.4882325, 30.3958513 ], [ 78.4881145, 30.3955922 ], [ 78.4879072, 30.3950739 ], [ 78.4878265, 30.3948723 ], [ 78.487798, 30.394801 ], [ 78.4876746, 30.394528 ], [ 78.4876531, 30.3943753 ], [ 78.4877282, 30.3938617 ], [ 78.4880394, 30.3937738 ], [ 78.4882379, 30.3938478 ], [ 78.48849, 30.3938709 ], [ 78.488667, 30.3938385 ], [ 78.488785, 30.3937553 ], [ 78.4891766, 30.3934082 ], [ 78.4897238, 30.3934545 ], [ 78.4899008, 30.3936211 ], [ 78.4901905, 30.3937136 ], [ 78.4903729, 30.3937321 ], [ 78.4905124, 30.3937275 ], [ 78.4911078, 30.3929871 ], [ 78.4911239, 30.3926031 ], [ 78.4908503, 30.3920386 ], [ 78.4907484, 30.391872 ], [ 78.4907216, 30.3917563 ], [ 78.4910703, 30.3914046 ], [ 78.491419, 30.391326 ], [ 78.4916443, 30.3912889 ], [ 78.4917998, 30.3913676 ], [ 78.4918266, 30.3914093 ], [ 78.4920766, 30.3913446 ], [ 78.4921324, 30.3907799 ], [ 78.4922343, 30.3904607 ], [ 78.492347, 30.3902524 ], [ 78.4925187, 30.3899285 ], [ 78.4925187, 30.3895722 ], [ 78.4923631, 30.3890771 ], [ 78.4922129, 30.3887809 ], [ 78.4920123, 30.3884756 ], [ 78.4915745, 30.3881701 ], [ 78.4915048, 30.3880405 ], [ 78.4915477, 30.3878647 ], [ 78.4916228, 30.3874528 ], [ 78.4917247, 30.3870271 ], [ 78.4917194, 30.3868281 ], [ 78.4916282, 30.3862636 ], [ 78.4919554, 30.3865505 ], [ 78.4921056, 30.3866754 ], [ 78.4928995, 30.3869577 ], [ 78.4930819, 30.3870502 ], [ 78.493275, 30.3871844 ], [ 78.4934038, 30.3873279 ], [ 78.493495, 30.3874575 ], [ 78.4935272, 30.3879156 ], [ 78.4935272, 30.3881932 ], [ 78.4935701, 30.3885218 ], [ 78.4937954, 30.3888226 ], [ 78.4940314, 30.3889891 ], [ 78.4941602, 30.3890262 ], [ 78.4942514, 30.3890586 ], [ 78.4942889, 30.3893917 ], [ 78.4944016, 30.3897434 ], [ 78.4943265, 30.3900766 ], [ 78.4943265, 30.3902015 ], [ 78.4943801, 30.3902941 ], [ 78.4945464, 30.3907938 ], [ 78.4944767, 30.3915018 ], [ 78.4943908, 30.3918627 ], [ 78.4943479, 30.3920108 ], [ 78.4945035, 30.3925661 ], [ 78.4949648, 30.3922375 ], [ 78.4955013, 30.3917887 ], [ 78.4955549, 30.3917702 ], [ 78.4959412, 30.391599 ], [ 78.496145, 30.3913954 ], [ 78.4962255, 30.391127 ], [ 78.4961772, 30.3908401 ], [ 78.4960484, 30.3906134 ], [ 78.4957641, 30.3902108 ], [ 78.4961128, 30.3896185 ], [ 78.4955549, 30.3883598 ], [ 78.4953725, 30.3881099 ], [ 78.4950721, 30.3876657 ], [ 78.4951472, 30.3874806 ], [ 78.4951687, 30.3871104 ], [ 78.4954262, 30.3866291 ], [ 78.4953296, 30.3862312 ], [ 78.496322, 30.3858471 ], [ 78.4965688, 30.385824 ], [ 78.4969497, 30.3858934 ], [ 78.4972447, 30.3861201 ], [ 78.4976685, 30.3862358 ], [ 78.497867, 30.3865042 ], [ 78.4984142, 30.3867124 ], [ 78.4989452, 30.3866477 ], [ 78.4991223, 30.3869623 ], [ 78.4993207, 30.387314 ], [ 78.4995139, 30.3879063 ], [ 78.4997499, 30.3880637 ], [ 78.5001254, 30.3880544 ], [ 78.5002595, 30.3882904 ], [ 78.5004044, 30.3887531 ], [ 78.5007477, 30.3891141 ], [ 78.5011715, 30.3892714 ], [ 78.5018206, 30.389438 ], [ 78.5022765, 30.3896046 ], [ 78.502593, 30.3897943 ], [ 78.5029417, 30.390109 ], [ 78.5027915, 30.3903265 ], [ 78.5026091, 30.3906828 ], [ 78.5032689, 30.391127 ], [ 78.5037303, 30.3920432 ], [ 78.5047549, 30.3918951 ], [ 78.5049856, 30.3916869 ], [ 78.5051089, 30.3911686 ], [ 78.5052055, 30.390618 ], [ 78.5051787, 30.3901182 ], [ 78.5054094, 30.3897665 ], [ 78.5057044, 30.3895676 ], [ 78.5069972, 30.3897758 ], [ 78.5088694, 30.3896694 ], [ 78.5087514, 30.3883367 ], [ 78.5080969, 30.3879017 ], [ 78.508628, 30.3875546 ], [ 78.5092074, 30.3870364 ], [ 78.5093414, 30.386532 ], [ 78.509776, 30.3860831 ], [ 78.5100549, 30.3857222 ], [ 78.5103071, 30.3855093 ], [ 78.5111118, 30.3852964 ], [ 78.5116964, 30.3846022 ], [ 78.5118359, 30.3842136 ], [ 78.5121846, 30.383959 ], [ 78.5126459, 30.3838063 ], [ 78.513295, 30.3836906 ], [ 78.5135579, 30.383649 ], [ 78.5142606, 30.383848 ], [ 78.5144108, 30.3839868 ], [ 78.5144538, 30.3842552 ], [ 78.5146201, 30.3842876 ], [ 78.5148346, 30.3842737 ], [ 78.5151672, 30.3841534 ], [ 78.5156393, 30.3843061 ], [ 78.5159773, 30.3845745 ], [ 78.5161275, 30.3846763 ], [ 78.5163367, 30.3847457 ], [ 78.516503, 30.3847318 ], [ 78.5167873, 30.384667 ], [ 78.5170877, 30.3845004 ], [ 78.5178119, 30.3845467 ], [ 78.5183483, 30.384954 ], [ 78.5183644, 30.3851738 ], [ 78.5185602, 30.3852293 ], [ 78.5186031, 30.3852247 ], [ 78.5189599, 30.3852825 ], [ 78.5195071, 30.385463 ], [ 78.5198772, 30.3854214 ], [ 78.5203492, 30.3856574 ], [ 78.5207141, 30.3856065 ], [ 78.5211325, 30.3854121 ], [ 78.5213363, 30.3856296 ], [ 78.5217065, 30.3858378 ], [ 78.521803, 30.3859396 ], [ 78.5220337, 30.3859535 ], [ 78.522318, 30.3858702 ], [ 78.5224897, 30.3857175 ], [ 78.5229295, 30.3853427 ], [ 78.5231066, 30.3850326 ], [ 78.5234928, 30.3849771 ], [ 78.523922, 30.3853658 ], [ 78.5239971, 30.3854121 ], [ 78.524158, 30.3855602 ], [ 78.5243404, 30.3857499 ], [ 78.5245871, 30.3858887 ], [ 78.5247964, 30.3861155 ], [ 78.524971, 30.3863922 ], [ 78.5251558, 30.3861016 ], [ 78.5254079, 30.3857638 ], [ 78.5255367, 30.3856296 ], [ 78.5255152, 30.3854537 ], [ 78.5255903, 30.3852501 ], [ 78.5256439, 30.384792 ], [ 78.5257781, 30.3844635 ], [ 78.5257781, 30.38401 ], [ 78.5258746, 30.3836952 ], [ 78.5262715, 30.383288 ], [ 78.5264808, 30.3831306 ], [ 78.5272747, 30.3827558 ], [ 78.527779, 30.3824365 ], [ 78.5283798, 30.381673 ], [ 78.5287661, 30.3814601 ], [ 78.5289484, 30.3811454 ], [ 78.5292005, 30.3808261 ], [ 78.529222, 30.3805345 ], [ 78.5295063, 30.3803216 ], [ 78.5299462, 30.3800995 ], [ 78.5305256, 30.3799468 ], [ 78.5306972, 30.3798727 ], [ 78.5309708, 30.3797432 ], [ 78.5313678, 30.3794886 ], [ 78.5319579, 30.3792433 ], [ 78.5324407, 30.379086 ], [ 78.5334492, 30.3789981 ], [ 78.5337603, 30.3790629 ], [ 78.5343987, 30.3791091 ], [ 78.5348117, 30.3791647 ], [ 78.5352033, 30.379211 ], [ 78.5355145, 30.3793822 ], [ 78.5356164, 30.3794238 ], [ 78.5358095, 30.379558 ], [ 78.5360241, 30.3797015 ], [ 78.5362387, 30.3797617 ], [ 78.5364103, 30.3796413 ], [ 78.5365123, 30.3794655 ], [ 78.5367161, 30.3792202 ], [ 78.536979, 30.3790674 ], [ 78.5372579, 30.3788453 ], [ 78.5374724, 30.3788453 ], [ 78.5378641, 30.3789934 ], [ 78.5382342, 30.3790721 ], [ 78.5384649, 30.378961 ], [ 78.5386741, 30.3788777 ], [ 78.5387975, 30.3788222 ], [ 78.5389101, 30.3786556 ], [ 78.5389316, 30.3784335 ], [ 78.5389316, 30.3783131 ], [ 78.538835, 30.3782437 ], [ 78.5386473, 30.378054 ], [ 78.5386366, 30.377929 ], [ 78.5387975, 30.3776745 ], [ 78.5388994, 30.3775449 ], [ 78.5390013, 30.3773459 ], [ 78.5393393, 30.3772441 ], [ 78.5394626, 30.3770636 ], [ 78.5397846, 30.3770312 ], [ 78.540278, 30.377059 ], [ 78.5403317, 30.3769433 ], [ 78.5402405, 30.3767165 ], [ 78.5408628, 30.376263 ], [ 78.5413778, 30.3758742 ], [ 78.5423863, 30.3750134 ], [ 78.5430407, 30.3745969 ], [ 78.5435343, 30.3742822 ], [ 78.5443818, 30.373662 ], [ 78.5448056, 30.373463 ], [ 78.5457444, 30.373338 ], [ 78.5463989, 30.3728845 ], [ 78.5466322, 30.3727248 ], [ 78.5467073, 30.3726137 ], [ 78.5470131, 30.3723591 ], [ 78.5473511, 30.3723985 ], [ 78.5476649, 30.3725142 ], [ 78.5484266, 30.3721625 ], [ 78.5485661, 30.3719542 ], [ 78.5487109, 30.3718686 ], [ 78.5488585, 30.3718153 ], [ 78.549175, 30.3718732 ], [ 78.5492179, 30.3719426 ], [ 78.5493252, 30.3719704 ], [ 78.5496175, 30.3718755 ], [ 78.5496041, 30.3717181 ], [ 78.5498965, 30.37157 ], [ 78.5503364, 30.3713479 ], [ 78.5506904, 30.3711257 ], [ 78.5515273, 30.3708758 ], [ 78.5519135, 30.3712322 ], [ 78.5521119, 30.3715608 ], [ 78.5524124, 30.3718084 ], [ 78.5527825, 30.3719333 ], [ 78.5529542, 30.3723869 ], [ 78.5531849, 30.3728011 ], [ 78.553268, 30.3731251 ], [ 78.5537696, 30.3735833 ], [ 78.5542228, 30.3738217 ], [ 78.5543811, 30.3741942 ], [ 78.554424, 30.3746755 ], [ 78.5539037, 30.3750874 ], [ 78.5535496, 30.3754068 ], [ 78.5533082, 30.3758742 ], [ 78.5532761, 30.3760593 ], [ 78.5533833, 30.3763185 ], [ 78.5535121, 30.3766795 ], [ 78.5535228, 30.3769386 ], [ 78.5535067, 30.3771654 ], [ 78.5535926, 30.377568 ], [ 78.5536194, 30.3778642 ], [ 78.5537749, 30.3780864 ], [ 78.5538876, 30.3782622 ], [ 78.5540719, 30.3783284 ], [ 78.5541452, 30.3783547 ], [ 78.5539149, 30.3777551 ], [ 78.5540538, 30.3774229 ], [ 78.5541418, 30.3772242 ], [ 78.5543543, 30.3770914 ], [ 78.5542008, 30.3768875 ], [ 78.5545012, 30.3766083 ], [ 78.5543504, 30.3764177 ], [ 78.5543596, 30.376381 ], [ 78.5543377, 30.3760903 ], [ 78.5558226, 30.3753288 ], [ 78.5562238, 30.3754332 ], [ 78.5566614, 30.3752348 ], [ 78.556906, 30.3754345 ], [ 78.557867, 30.375446 ], [ 78.558119, 30.3753607 ], [ 78.5581214, 30.3754796 ], [ 78.5583584, 30.375567 ], [ 78.5583952, 30.3756863 ], [ 78.5586554, 30.3757066 ], [ 78.5587475, 30.3758364 ], [ 78.5587362, 30.3761606 ], [ 78.5606131, 30.37568 ], [ 78.5608856, 30.3757432 ], [ 78.561204, 30.3760793 ], [ 78.5613137, 30.3757281 ], [ 78.5623998, 30.3750474 ], [ 78.5626839, 30.3751832 ], [ 78.5628914, 30.3751559 ], [ 78.5629136, 30.3752585 ], [ 78.5637358, 30.3750629 ], [ 78.5641322, 30.3751224 ], [ 78.5643613, 30.3748892 ], [ 78.5649452, 30.3751327 ], [ 78.5652571, 30.3749522 ], [ 78.5653955, 30.3753947 ], [ 78.5657087, 30.3753546 ], [ 78.565464, 30.3762018 ], [ 78.5658885, 30.3764706 ], [ 78.5663428, 30.3765245 ], [ 78.5667783, 30.3763205 ], [ 78.5668392, 30.376516 ], [ 78.5672731, 30.3765584 ], [ 78.5673835, 30.3767799 ], [ 78.5677282, 30.3766285 ], [ 78.5682157, 30.3768167 ], [ 78.5696949, 30.3767306 ], [ 78.5704023, 30.3770676 ], [ 78.5711547, 30.3769149 ], [ 78.5717196, 30.3770141 ], [ 78.5727146, 30.3767632 ], [ 78.5736058, 30.376213 ], [ 78.5741133, 30.3759983 ], [ 78.574653, 30.3759655 ], [ 78.574842, 30.3759555 ], [ 78.5751639, 30.3759158 ], [ 78.5753688, 30.3759694 ], [ 78.5757993, 30.3758557 ], [ 78.5771202, 30.3757212 ], [ 78.5771498, 30.3759164 ], [ 78.5773921, 30.3759824 ], [ 78.5773861, 30.3761362 ], [ 78.5776044, 30.3764366 ], [ 78.5777278, 30.3769847 ], [ 78.577653, 30.3775111 ], [ 78.5774409, 30.3779888 ], [ 78.5773888, 30.3781934 ], [ 78.577481, 30.3785562 ], [ 78.5776774, 30.3787277 ], [ 78.5776016, 30.3787691 ], [ 78.5778703, 30.3789554 ], [ 78.5776956, 30.3791427 ], [ 78.5776084, 30.3795421 ], [ 78.576799, 30.3797894 ], [ 78.5766488, 30.380081 ], [ 78.5765523, 30.3802985 ], [ 78.5767186, 30.3803679 ], [ 78.5769707, 30.3802337 ], [ 78.5771048, 30.3803633 ], [ 78.5768849, 30.3806086 ], [ 78.5770565, 30.3806456 ], [ 78.577255, 30.3805438 ], [ 78.5777539, 30.3804882 ], [ 78.5780221, 30.3805438 ], [ 78.5783333, 30.3805067 ], [ 78.578639, 30.3803772 ], [ 78.5788643, 30.380243 ], [ 78.5791701, 30.3801504 ], [ 78.57961, 30.3799098 ], [ 78.5798889, 30.3797339 ], [ 78.580302, 30.3799144 ], [ 78.5805005, 30.3800393 ], [ 78.5807419, 30.380155 ], [ 78.5808653, 30.3801735 ], [ 78.5817718, 30.3802846 ], [ 78.5823619, 30.3802985 ], [ 78.5826838, 30.3804096 ], [ 78.5830164, 30.3805206 ], [ 78.5834187, 30.3805669 ], [ 78.5835367, 30.38059 ], [ 78.5840732, 30.3807243 ], [ 78.5845023, 30.3808076 ], [ 78.5848403, 30.3808585 ], [ 78.5851514, 30.3808677 ], [ 78.5855377, 30.3807752 ], [ 78.585704, 30.3807243 ], [ 78.5859722, 30.3806872 ], [ 78.5862485, 30.3807172 ], [ 78.5864684, 30.3809857 ], [ 78.5866293, 30.3811454 ], [ 78.5869566, 30.3813374 ], [ 78.5873482, 30.3815364 ], [ 78.5876566, 30.3817979 ], [ 78.5879409, 30.3820061 ], [ 78.5880831, 30.3822051 ], [ 78.588244, 30.3823949 ], [ 78.5884532, 30.3826216 ], [ 78.5885149, 30.3827419 ], [ 78.5886356, 30.3829641 ], [ 78.5883701, 30.3831885 ], [ 78.588126, 30.3833875 ], [ 78.5878658, 30.3835078 ], [ 78.5876352, 30.3835934 ], [ 78.5874635, 30.3838225 ], [ 78.5873052, 30.3840932 ], [ 78.5871389, 30.3842459 ], [ 78.587029, 30.3843778 ], [ 78.5868466, 30.3846555 ], [ 78.5867017, 30.3848545 ], [ 78.5866052, 30.3850697 ], [ 78.5865757, 30.3852501 ], [ 78.5865784, 30.3854075 ], [ 78.5866964, 30.3856574 ], [ 78.586573, 30.3858841 ], [ 78.5865006, 30.3860044 ], [ 78.586463, 30.3861155 ], [ 78.5865355, 30.3862242 ], [ 78.5866749, 30.3866106 ], [ 78.586691, 30.3868628 ], [ 78.5866722, 30.3871173 ], [ 78.5867071, 30.3872215 ], [ 78.5868171, 30.3873279 ], [ 78.58697, 30.3874135 ], [ 78.5871282, 30.3877328 ], [ 78.5871443, 30.3879549 ], [ 78.5870317, 30.3882141 ], [ 78.5869834, 30.3883598 ], [ 78.5869136, 30.388531 ], [ 78.5869431, 30.3887046 ], [ 78.586978, 30.388929 ], [ 78.5869673, 30.3890609 ], [ 78.5870934, 30.3892066 ], [ 78.5872382, 30.3893038 ], [ 78.5874045, 30.3894982 ], [ 78.5874125, 30.3896231 ], [ 78.5875708, 30.3898707 ], [ 78.5876566, 30.3900049 ], [ 78.5879222, 30.390264 ], [ 78.5880643, 30.3903889 ], [ 78.5882547, 30.3905509 ], [ 78.5884666, 30.3908031 ], [ 78.5886222, 30.3909257 ], [ 78.5887, 30.3910784 ], [ 78.5887858, 30.3911779 ], [ 78.5889441, 30.3912565 ], [ 78.5891345, 30.3913213 ], [ 78.5894161, 30.3914416 ], [ 78.5899821, 30.3916152 ], [ 78.5902128, 30.3918026 ], [ 78.590371, 30.3920131 ], [ 78.5906178, 30.3922375 ], [ 78.5907438, 30.3923902 ], [ 78.5909343, 30.3925614 ], [ 78.5911247, 30.3926702 ], [ 78.5913017, 30.3927465 ], [ 78.5914198, 30.3929802 ], [ 78.5913902, 30.3931676 ], [ 78.5911408, 30.3933851 ], [ 78.5909396, 30.3935008 ], [ 78.5907921, 30.3935332 ], [ 78.5905105, 30.3936118 ], [ 78.5902074, 30.3937529 ], [ 78.5899311, 30.3939496 ], [ 78.589856, 30.3940421 ], [ 78.5900223, 30.3940144 ], [ 78.5903764, 30.3939218 ], [ 78.5907653, 30.3938085 ], [ 78.5911193, 30.3937136 ], [ 78.59135, 30.3937275 ], [ 78.5913983, 30.3937483 ], [ 78.5915512, 30.3941486 ], [ 78.5915726, 30.3944031 ], [ 78.5915136, 30.3947177 ], [ 78.5915217, 30.3950809 ], [ 78.5915163, 30.3952336 ], [ 78.591519, 30.3953933 ], [ 78.5915244, 30.3955344 ], [ 78.5912749, 30.3955668 ], [ 78.5909826, 30.395576 ], [ 78.5907787, 30.3956801 ], [ 78.5907841, 30.3958352 ], [ 78.590827, 30.3961197 ], [ 78.590768, 30.3962955 ], [ 78.5905507, 30.396439 ], [ 78.5903093, 30.3965223 ], [ 78.5901216, 30.396786 ], [ 78.5901725, 30.3970821 ], [ 78.5904402, 30.3974975 ], [ 78.5910872, 30.3978896 ], [ 78.5913849, 30.3980353 ], [ 78.5916585, 30.3981325 ], [ 78.5918382, 30.3982042 ], [ 78.5922566, 30.398343 ], [ 78.5929432, 30.3986322 ], [ 78.5931846, 30.3987918 ], [ 78.5933939, 30.3988288 ], [ 78.5936889, 30.3988311 ], [ 78.593992, 30.398882 ], [ 78.5941449, 30.399007 ], [ 78.5943514, 30.3991388 ], [ 78.5945982, 30.3991041 ], [ 78.5948047, 30.3991226 ], [ 78.5950059, 30.3991597 ], [ 78.5950917, 30.3992036 ], [ 78.5952124, 30.3993517 ], [ 78.5954779, 30.3994118 ], [ 78.5957569, 30.3994419 ], [ 78.5959473, 30.3994234 ], [ 78.5960585, 30.3994258 ], [ 78.5965723, 30.3995483 ], [ 78.5969317, 30.3994812 ], [ 78.5971597, 30.3994095 ], [ 78.5974252, 30.3994003 ], [ 78.5977793, 30.3993979 ], [ 78.5982245, 30.3995298 ], [ 78.5983908, 30.3996547 ], [ 78.5985357, 30.399738 ], [ 78.5987207, 30.3997982 ], [ 78.5989219, 30.3999323 ], [ 78.5992035, 30.4001012 ], [ 78.5992384, 30.4001637 ], [ 78.5994717, 30.4003696 ], [ 78.5996327, 30.4005894 ], [ 78.5998017, 30.4008554 ], [ 78.6000404, 30.40117 ], [ 78.6001289, 30.4013227 ], [ 78.600263, 30.4016697 ], [ 78.6002898, 30.4018155 ], [ 78.6003166, 30.4021926 ], [ 78.6002684, 30.4023337 ], [ 78.6002228, 30.4024817 ], [ 78.6001638, 30.4027131 ], [ 78.6001745, 30.4028542 ], [ 78.6002147, 30.4029537 ], [ 78.6002496, 30.4032035 ], [ 78.6003327, 30.4034649 ], [ 78.6002603, 30.4036245 ], [ 78.6000672, 30.4037726 ], [ 78.6000055, 30.4038582 ], [ 78.5999519, 30.4040525 ], [ 78.599866, 30.4042538 ], [ 78.5998687, 30.4043949 ], [ 78.5999411, 30.4045244 ], [ 78.6001128, 30.4047766 ], [ 78.6000913, 30.4050657 ], [ 78.6001208, 30.4053341 ], [ 78.6000538, 30.4053989 ], [ 78.5997239, 30.4058962 ], [ 78.5996407, 30.4060396 ], [ 78.5996219, 30.4062316 ], [ 78.599579, 30.4069673 ], [ 78.5995817, 30.4071269 ], [ 78.5996085, 30.4072981 ], [ 78.5996917, 30.4075641 ], [ 78.5996729, 30.407881 ], [ 78.599402, 30.4081308 ], [ 78.5992679, 30.4082257 ], [ 78.5985732, 30.4085334 ], [ 78.5984203, 30.4087277 ], [ 78.5983425, 30.4089335 ], [ 78.598254, 30.4091556 ], [ 78.5982433, 30.4094309 ], [ 78.5982916, 30.4096506 ], [ 78.5982943, 30.4097663 ], [ 78.5982165, 30.4100809 ], [ 78.5982835, 30.4101457 ], [ 78.598541, 30.4100508 ], [ 78.5985759, 30.409949 ], [ 78.5986483, 30.4097524 ], [ 78.5987288, 30.4095743 ], [ 78.5988951, 30.4092666 ], [ 78.5991284, 30.4091672 ], [ 78.5993698, 30.4091163 ], [ 78.5995817, 30.4090561 ], [ 78.599968, 30.4090052 ], [ 78.6002657, 30.4088086 ], [ 78.6004132, 30.4086398 ], [ 78.6005768, 30.4083575 ], [ 78.6007699, 30.4076844 ], [ 78.6007565, 30.4075086 ], [ 78.6007833, 30.4073467 ], [ 78.6008987, 30.4071431 ], [ 78.6010542, 30.4069488 ], [ 78.6012661, 30.4065995 ], [ 78.6014432, 30.4063496 ], [ 78.6016095, 30.4062085 ], [ 78.6018831, 30.40585 ], [ 78.6019501, 30.4057297 ], [ 78.6020815, 30.4053549 ], [ 78.6021003, 30.4050773 ], [ 78.6021137, 30.404883 ], [ 78.6021754, 30.4047997 ], [ 78.6024275, 30.4047372 ], [ 78.6032134, 30.4049108 ], [ 78.603369, 30.40523 ], [ 78.6035138, 30.4054474 ], [ 78.6036801, 30.405614 ], [ 78.6038464, 30.4057574 ], [ 78.6039644, 30.4058129 ], [ 78.6045545, 30.4059702 ], [ 78.6051017, 30.405998 ], [ 78.6055469, 30.406035 ], [ 78.6060083, 30.4061507 ], [ 78.6064428, 30.4062525 ], [ 78.606652, 30.406382 ], [ 78.6073387, 30.4064745 ], [ 78.6076713, 30.4065116 ], [ 78.6078483, 30.4065393 ], [ 78.6086261, 30.406803 ], [ 78.6090982, 30.4070667 ], [ 78.609463, 30.4072703 ], [ 78.6096883, 30.4074461 ], [ 78.6098599, 30.4075803 ], [ 78.6099672, 30.4076589 ], [ 78.6102033, 30.4080152 ], [ 78.6109489, 30.4089636 ], [ 78.611244, 30.4092736 ], [ 78.6114907, 30.4093754 ], [ 78.6117375, 30.4094771 ], [ 78.6118609, 30.4096067 ], [ 78.6120808, 30.4101248 ], [ 78.6122364, 30.4103238 ], [ 78.6123919, 30.4105644 ], [ 78.612467, 30.4107263 ], [ 78.612569, 30.4109854 ], [ 78.612687, 30.4113462 ], [ 78.612746, 30.4116007 ], [ 78.6127514, 30.4118274 ], [ 78.6127996, 30.4120032 ], [ 78.6131644, 30.4128266 ], [ 78.6132556, 30.4131227 ], [ 78.6132932, 30.4133818 ], [ 78.6132932, 30.4139693 ], [ 78.6132395, 30.4141636 ], [ 78.6134756, 30.4142654 ], [ 78.6138672, 30.414381 ], [ 78.6143231, 30.4149871 ], [ 78.6144519, 30.415186 ], [ 78.6146235, 30.4155839 ], [ 78.6148059, 30.4158244 ], [ 78.6151063, 30.4161159 ], [ 78.6152619, 30.4163194 ], [ 78.6155838, 30.4164859 ], [ 78.6160022, 30.4166016 ], [ 78.6163455, 30.4167219 ], [ 78.6166084, 30.4167496 ], [ 78.6170107, 30.4167126 ], [ 78.6173272, 30.4166756 ], [ 78.6177027, 30.4166895 ], [ 78.6183143, 30.416634 ], [ 78.618679, 30.4165461 ], [ 78.6191994, 30.4163934 ], [ 78.6195213, 30.4162963 ], [ 78.6197197, 30.4162917 ], [ 78.620106, 30.4163981 ], [ 78.6201703, 30.4164767 ], [ 78.6203688, 30.416671 ], [ 78.6205459, 30.4167728 ], [ 78.6209428, 30.4167173 ], [ 78.6210823, 30.4166895 ], [ 78.6212808, 30.4166109 ], [ 78.6214846, 30.4167034 ], [ 78.6216026, 30.416893 ], [ 78.6217046, 30.4170411 ], [ 78.6216241, 30.4171706 ], [ 78.6214632, 30.4173048 ], [ 78.6214846, 30.4174112 ], [ 78.6215973, 30.4174667 ], [ 78.6217368, 30.4174574 ], [ 78.6219084, 30.4173695 ], [ 78.6220425, 30.4172076 ], [ 78.6222464, 30.4169624 ], [ 78.6224556, 30.4168422 ], [ 78.6227614, 30.4168375 ], [ 78.6231476, 30.4168375 ], [ 78.6234051, 30.4168745 ], [ 78.6236304, 30.4170503 ], [ 78.623786, 30.4171336 ], [ 78.6240542, 30.4172354 ], [ 78.6242902, 30.4172724 ], [ 78.624478, 30.4173788 ], [ 78.6248052, 30.4173233 ], [ 78.6250359, 30.4172631 ], [ 78.6253041, 30.417166 ], [ 78.6256635, 30.4171567 ], [ 78.6259371, 30.4172493 ], [ 78.6262321, 30.4173418 ], [ 78.6264896, 30.4173279 ], [ 78.6268812, 30.4172446 ], [ 78.6271548, 30.4171012 ], [ 78.627466, 30.4169347 ], [ 78.6279112, 30.4168422 ], [ 78.6283994, 30.4167774 ], [ 78.6288768, 30.4168653 ], [ 78.6296117, 30.4170457 ], [ 78.6301589, 30.417092 ], [ 78.6304808, 30.4171243 ], [ 78.631103, 30.4173788 ], [ 78.6314088, 30.417661 ], [ 78.6315858, 30.4179432 ], [ 78.6317468, 30.4181652 ], [ 78.6319184, 30.4183364 ], [ 78.6321437, 30.418762 ], [ 78.6323744, 30.4191182 ], [ 78.6325192, 30.4193263 ], [ 78.6327982, 30.4195576 ], [ 78.6331147, 30.4196779 ], [ 78.6332917, 30.419701 ], [ 78.6335063, 30.4195808 ], [ 78.6342412, 30.4194512 ], [ 78.6346275, 30.4191737 ], [ 78.6348098, 30.4189794 ], [ 78.6351532, 30.4188637 ], [ 78.6355609, 30.4187342 ], [ 78.6358291, 30.4186047 ], [ 78.6361885, 30.4186093 ], [ 78.636623, 30.4185538 ], [ 78.6367035, 30.4185445 ], [ 78.6372292, 30.4185029 ], [ 78.6375511, 30.4187111 ], [ 78.6377281, 30.4190349 ], [ 78.63783, 30.4193263 ], [ 78.6378246, 30.419516 ], [ 78.6377227, 30.4197519 ], [ 78.6375296, 30.4199971 ], [ 78.6373848, 30.4202747 ], [ 78.637374, 30.4206355 ], [ 78.6374652, 30.4209593 ], [ 78.6376047, 30.4212646 ], [ 78.6378032, 30.4215699 ], [ 78.6381841, 30.4221713 ], [ 78.6384094, 30.4224812 ], [ 78.6387366, 30.4227402 ], [ 78.6389458, 30.4229576 ], [ 78.638978, 30.4230964 ], [ 78.6389512, 30.4234341 ], [ 78.6389512, 30.4237579 ], [ 78.6386508, 30.4244471 ], [ 78.638581, 30.4246414 ], [ 78.6384737, 30.4249791 ], [ 78.6384469, 30.4253168 ], [ 78.6384469, 30.4256545 ], [ 78.6385167, 30.425932 ], [ 78.6386025, 30.4262789 ], [ 78.6389083, 30.4268062 ], [ 78.6391711, 30.427167 ], [ 78.6393052, 30.4274168 ], [ 78.6392677, 30.4276943 ], [ 78.6390585, 30.4280644 ], [ 78.6388439, 30.4283789 ], [ 78.6387312, 30.4286842 ], [ 78.6387098, 30.4288184 ], [ 78.6384952, 30.4290635 ], [ 78.6381572, 30.429304 ], [ 78.6380285, 30.4295353 ], [ 78.6379373, 30.429947 ], [ 78.6377335, 30.4304326 ], [ 78.6376637, 30.4306547 ], [ 78.6376369, 30.4309461 ], [ 78.6376959, 30.4312375 ], [ 78.63783, 30.4319082 ], [ 78.6380392, 30.4323476 ], [ 78.6382967, 30.4327453 ], [ 78.6384791, 30.4332911 ], [ 78.6386293, 30.4331292 ], [ 78.6384791, 30.4325418 ], [ 78.6384684, 30.4323337 ], [ 78.6384094, 30.4321117 ], [ 78.6382645, 30.4317879 ], [ 78.6381733, 30.4314086 ], [ 78.638168, 30.431219 ], [ 78.6381948, 30.4309137 ], [ 78.6383343, 30.4305529 ], [ 78.6384684, 30.4299979 ], [ 78.6386883, 30.4296926 ], [ 78.6387956, 30.4293642 ], [ 78.6390585, 30.4291144 ], [ 78.6393857, 30.4288554 ], [ 78.6396915, 30.4285732 ], [ 78.6397773, 30.4284853 ], [ 78.6401099, 30.4282587 ], [ 78.6404908, 30.4287443 ], [ 78.6407858, 30.429082 ], [ 78.6410862, 30.4292578 ], [ 78.6414295, 30.4294706 ], [ 78.6421752, 30.4297666 ], [ 78.6425132, 30.4300071 ], [ 78.6430228, 30.4301644 ], [ 78.6434519, 30.4302014 ], [ 78.6438328, 30.4301042 ], [ 78.644219, 30.4299701 ], [ 78.6445516, 30.4298082 ], [ 78.6449593, 30.4295353 ], [ 78.6451095, 30.4291699 ], [ 78.6452436, 30.4289201 ], [ 78.6455333, 30.4285038 ], [ 78.6455977, 30.4284206 ], [ 78.645308, 30.4282078 ], [ 78.6451793, 30.4284761 ], [ 78.6449915, 30.4287027 ], [ 78.6445677, 30.429045 ], [ 78.6441922, 30.4292763 ], [ 78.6436933, 30.4295446 ], [ 78.6433554, 30.4296001 ], [ 78.6429799, 30.4295076 ], [ 78.642776, 30.4293225 ], [ 78.6426043, 30.4291976 ], [ 78.6422878, 30.4290589 ], [ 78.6419499, 30.4288692 ], [ 78.6414403, 30.4286426 ], [ 78.6407375, 30.4282402 ], [ 78.6406356, 30.4279534 ], [ 78.6405444, 30.42781 ], [ 78.6401796, 30.4272595 ], [ 78.6400241, 30.4269681 ], [ 78.6398953, 30.4265472 ], [ 78.6399168, 30.4260661 ], [ 78.6398309, 30.4257886 ], [ 78.639788, 30.4254139 ], [ 78.6397773, 30.4250577 ], [ 78.6397237, 30.4246507 ], [ 78.639729, 30.4245258 ], [ 78.6397451, 30.4242251 ], [ 78.6398417, 30.4240262 ], [ 78.6399865, 30.423633 ], [ 78.6399543, 30.423263 ], [ 78.6398041, 30.4229206 ], [ 78.6394018, 30.4225321 ], [ 78.6394393, 30.4222453 ], [ 78.6394876, 30.4219261 ], [ 78.639552, 30.4214404 ], [ 78.639552, 30.4210148 ], [ 78.6395305, 30.420654 ], [ 78.6395413, 30.4200387 ], [ 78.6396325, 30.4195021 ], [ 78.6398309, 30.4192199 ], [ 78.6401582, 30.4191135 ], [ 78.6402065, 30.4189424 ], [ 78.6402494, 30.4186879 ], [ 78.6402494, 30.4184613 ], [ 78.6400241, 30.4185029 ], [ 78.6397451, 30.4186556 ], [ 78.6393803, 30.4187805 ], [ 78.6392355, 30.418563 ], [ 78.6391818, 30.4183826 ], [ 78.6390424, 30.4182068 ], [ 78.6386454, 30.4180264 ], [ 78.638227, 30.4177998 ], [ 78.6378515, 30.4175731 ], [ 78.637417, 30.417388 ], [ 78.6368, 30.4171799 ], [ 78.6363816, 30.4170642 ], [ 78.6357379, 30.4168699 ], [ 78.6354858, 30.4167913 ], [ 78.6351746, 30.416634 ], [ 78.6348152, 30.4164304 ], [ 78.63437, 30.4163472 ], [ 78.6341554, 30.4162454 ], [ 78.6336672, 30.4162778 ], [ 78.6332059, 30.41625 ], [ 78.632589, 30.4161159 ], [ 78.6322886, 30.4160095 ], [ 78.6319399, 30.4158522 ], [ 78.6314785, 30.4156532 ], [ 78.6309689, 30.4154451 ], [ 78.6302286, 30.4152415 ], [ 78.6291776, 30.4151188 ], [ 78.62766, 30.4153893 ], [ 78.6261859, 30.4153586 ], [ 78.6248293, 30.4153132 ], [ 78.6243492, 30.4152184 ], [ 78.6238933, 30.4150842 ], [ 78.6230081, 30.415038 ], [ 78.6220613, 30.4147257 ], [ 78.6212996, 30.4145707 ], [ 78.6203763, 30.4144998 ], [ 78.6198056, 30.4144921 ], [ 78.619355, 30.4144666 ], [ 78.619009, 30.4145476 ], [ 78.6187381, 30.4146332 ], [ 78.6185047, 30.4147141 ], [ 78.6182392, 30.4146864 ], [ 78.6177644, 30.4146031 ], [ 78.617574, 30.4146031 ], [ 78.6174318, 30.4146702 ], [ 78.6171851, 30.4147396 ], [ 78.6169678, 30.4145892 ], [ 78.6167049, 30.4144412 ], [ 78.6161873, 30.4143348 ], [ 78.6156917, 30.4140455 ], [ 78.6151332, 30.4134789 ], [ 78.6150098, 30.4132615 ], [ 78.6148435, 30.4129423 ], [ 78.6147684, 30.4126462 ], [ 78.6147523, 30.4122992 ], [ 78.614763, 30.4117533 ], [ 78.6146396, 30.4114526 ], [ 78.6145431, 30.4111473 ], [ 78.614527, 30.4108743 ], [ 78.6146343, 30.4105042 ], [ 78.6147791, 30.410185 ], [ 78.6146933, 30.4095327 ], [ 78.6143392, 30.4090793 ], [ 78.6143446, 30.4086675 ], [ 78.6143982, 30.4084594 ], [ 78.6141837, 30.4084501 ], [ 78.6139718, 30.4088179 ], [ 78.6138564, 30.4088063 ], [ 78.613371, 30.4084617 ], [ 78.6130442, 30.4082594 ], [ 78.6127782, 30.4079077 ], [ 78.6124885, 30.4075248 ], [ 78.612113, 30.4070991 ], [ 78.6113157, 30.4064501 ], [ 78.6111796, 30.4061091 ], [ 78.6109114, 30.4058592 ], [ 78.6107504, 30.4055816 ], [ 78.6097881, 30.40547 ], [ 78.6092833, 30.4051212 ], [ 78.6086583, 30.4049315 ], [ 78.6077758, 30.4048783 ], [ 78.606929, 30.4046079 ], [ 78.6059402, 30.404319 ], [ 78.6052758, 30.4039951 ], [ 78.6046296, 30.4036801 ], [ 78.604356, 30.403421 ], [ 78.6041281, 30.4031272 ], [ 78.6043426, 30.4027223 ], [ 78.6046243, 30.4025419 ], [ 78.6048335, 30.4023915 ], [ 78.6049998, 30.4021926 ], [ 78.6049649, 30.4021232 ], [ 78.6048174, 30.4021093 ], [ 78.6043856, 30.4021856 ], [ 78.6041817, 30.4022296 ], [ 78.6039323, 30.4022781 ], [ 78.6035809, 30.4023314 ], [ 78.6033663, 30.4023129 ], [ 78.603192, 30.4018016 ], [ 78.6031651, 30.4014823 ], [ 78.6031222, 30.401214 ], [ 78.6030471, 30.4009919 ], [ 78.6030364, 30.4007189 ], [ 78.6031812, 30.4004228 ], [ 78.6033583, 30.4001776 ], [ 78.6034387, 30.3999509 ], [ 78.6034334, 30.3994604 ], [ 78.6033046, 30.3990625 ], [ 78.6031061, 30.398771 ], [ 78.6029345, 30.398535 ], [ 78.6027682, 30.3984332 ], [ 78.6023927, 30.3982852 ], [ 78.602854, 30.3979289 ], [ 78.6031222, 30.3977808 ], [ 78.6031866, 30.3975772 ], [ 78.6026931, 30.3975495 ], [ 78.6023176, 30.3976281 ], [ 78.6022049, 30.3976837 ], [ 78.6016499, 30.397748 ], [ 78.6010462, 30.3973366 ], [ 78.6007565, 30.3972395 ], [ 78.6004025, 30.3969063 ], [ 78.5999036, 30.3970266 ], [ 78.5990932, 30.3971027 ], [ 78.5989219, 30.3967583 ], [ 78.5985678, 30.3965593 ], [ 78.5984069, 30.3965084 ], [ 78.5982084, 30.3965038 ], [ 78.5979187, 30.3966148 ], [ 78.5972911, 30.3965038 ], [ 78.5969263, 30.396476 ], [ 78.5963899, 30.3964344 ], [ 78.5961378, 30.3964529 ], [ 78.5957891, 30.3965454 ], [ 78.5952794, 30.3967814 ], [ 78.5948986, 30.3966657 ], [ 78.5941797, 30.3959393 ], [ 78.5938876, 30.3954686 ], [ 78.5940134, 30.3946437 ], [ 78.5942495, 30.3943198 ], [ 78.5943782, 30.3940792 ], [ 78.594448, 30.3939311 ], [ 78.5941583, 30.3935378 ], [ 78.5939276, 30.3930242 ], [ 78.5938579, 30.3927188 ], [ 78.5940027, 30.3922931 ], [ 78.5940671, 30.3920941 ], [ 78.5940671, 30.3919136 ], [ 78.5937935, 30.3914046 ], [ 78.5937238, 30.3911316 ], [ 78.5933107, 30.3909835 ], [ 78.5930425, 30.3907337 ], [ 78.5928976, 30.3905116 ], [ 78.5926294, 30.390382 ], [ 78.5923558, 30.3902894 ], [ 78.5922164, 30.3901645 ], [ 78.5917121, 30.3896416 ], [ 78.5917067, 30.3893362 ], [ 78.5916102, 30.3888642 ], [ 78.5912937, 30.3884709 ], [ 78.5911274, 30.3882117 ], [ 78.5909504, 30.3878647 ], [ 78.5908538, 30.387675 ], [ 78.590827, 30.387476 ], [ 78.5911596, 30.3868929 ], [ 78.5913956, 30.3864487 ], [ 78.5915565, 30.3862451 ], [ 78.591696, 30.3860091 ], [ 78.5918248, 30.3858702 ], [ 78.5920072, 30.3857268 ], [ 78.5921198, 30.3856342 ], [ 78.5921252, 30.3854214 ], [ 78.5920018, 30.3852131 ], [ 78.5920662, 30.3849725 ], [ 78.5925651, 30.3846763 ], [ 78.5932571, 30.3845606 ], [ 78.5935414, 30.3846254 ], [ 78.5935789, 30.3845329 ], [ 78.5935306, 30.3843801 ], [ 78.5934126, 30.3841997 ], [ 78.5932302, 30.3840608 ], [ 78.5930264, 30.3839914 ], [ 78.5926831, 30.3838618 ], [ 78.5923397, 30.3837554 ], [ 78.5926562, 30.3832279 ], [ 78.5929298, 30.3831214 ], [ 78.5929781, 30.3829456 ], [ 78.5928816, 30.38258 ], [ 78.5928708, 30.3823949 ], [ 78.5929191, 30.3822283 ], [ 78.5927957, 30.3820015 ], [ 78.5927635, 30.3816174 ], [ 78.5926562, 30.3813351 ], [ 78.59249, 30.3812935 ], [ 78.5924309, 30.3811639 ], [ 78.5923183, 30.3808399 ], [ 78.5918516, 30.3806039 ], [ 78.5917175, 30.3803633 ], [ 78.5915995, 30.3800208 ], [ 78.5914546, 30.3798403 ], [ 78.5911435, 30.3798588 ], [ 78.5909396, 30.3798727 ], [ 78.5908806, 30.3796367 ], [ 78.5906553, 30.3792387 ], [ 78.5902262, 30.3791045 ], [ 78.5900652, 30.378961 ], [ 78.5897917, 30.3785862 ], [ 78.5892391, 30.3784705 ], [ 78.588869, 30.37829 ], [ 78.5886115, 30.3781465 ], [ 78.5883164, 30.3778041 ], [ 78.5879892, 30.3775079 ], [ 78.5874581, 30.3773644 ], [ 78.587147, 30.3772672 ], [ 78.5870504, 30.3770821 ], [ 78.5870451, 30.3768738 ], [ 78.5873294, 30.3766147 ], [ 78.5875869, 30.3764573 ], [ 78.5877746, 30.376263 ], [ 78.5880482, 30.3757307 ], [ 78.5881233, 30.375615 ], [ 78.5884023, 30.3753929 ], [ 78.5884827, 30.3751939 ], [ 78.5885149, 30.3748653 ], [ 78.5884881, 30.3745506 ], [ 78.5884184, 30.3744302 ], [ 78.5883996, 30.374303 ], [ 78.5882065, 30.3744117 ], [ 78.5881877, 30.3744603 ], [ 78.5881743, 30.3745714 ], [ 78.5881984, 30.3747056 ], [ 78.5882521, 30.3748907 ], [ 78.5882494, 30.3750597 ], [ 78.5881582, 30.3751383 ], [ 78.5878551, 30.3751661 ], [ 78.5876459, 30.3752124 ], [ 78.5872436, 30.3753373 ], [ 78.5868734, 30.3754345 ], [ 78.5867278, 30.3752118 ], [ 78.5866374, 30.3750735 ], [ 78.586235, 30.375018 ], [ 78.5860044, 30.3750967 ], [ 78.5857093, 30.3750874 ], [ 78.5855108, 30.3746616 ], [ 78.5852909, 30.3744117 ], [ 78.5848027, 30.3742544 ], [ 78.5846472, 30.3740507 ], [ 78.5845828, 30.3738656 ], [ 78.5842073, 30.3737869 ], [ 78.5838801, 30.3737545 ], [ 78.5833329, 30.3736203 ], [ 78.5826945, 30.3733426 ], [ 78.5820401, 30.3731112 ], [ 78.5813856, 30.3729816 ], [ 78.5808116, 30.3727595 ], [ 78.5806185, 30.3725975 ], [ 78.5803825, 30.3726901 ], [ 78.5801089, 30.3726854 ], [ 78.5793471, 30.3723661 ], [ 78.5789555, 30.3723615 ], [ 78.5785156, 30.3724216 ], [ 78.5780489, 30.3722226 ], [ 78.5776305, 30.3720606 ], [ 78.5772872, 30.3718848 ], [ 78.5768741, 30.3718662 ], [ 78.5767347, 30.3718338 ], [ 78.5762519, 30.3714497 ], [ 78.5758066, 30.3713294 ], [ 78.5755545, 30.3712044 ], [ 78.5752165, 30.3711628 ], [ 78.5749108, 30.3711628 ], [ 78.5743797, 30.3711674 ], [ 78.5738486, 30.3711674 ], [ 78.5737467, 30.3712877 ], [ 78.5735589, 30.3714404 ], [ 78.572529, 30.3718246 ], [ 78.5723251, 30.3715099 ], [ 78.5726041, 30.3711304 ], [ 78.5726845, 30.3704685 ], [ 78.5727328, 30.3703204 ], [ 78.5729742, 30.3698298 ], [ 78.5731459, 30.3694781 ], [ 78.5728079, 30.3696632 ], [ 78.5725611, 30.3699409 ], [ 78.572191, 30.3702232 ], [ 78.5717726, 30.37045 ], [ 78.5714561, 30.370686 ], [ 78.5709572, 30.3709267 ], [ 78.5701847, 30.3711628 ], [ 78.5696858, 30.371621 ], [ 78.5694981, 30.3720421 ], [ 78.5693264, 30.3724911 ], [ 78.5692996, 30.3726021 ], [ 78.5689509, 30.3730511 ], [ 78.5683072, 30.3734167 ], [ 78.5678351, 30.373662 ], [ 78.567304, 30.3732686 ], [ 78.5668856, 30.3728613 ], [ 78.5667461, 30.372616 ], [ 78.5665476, 30.3725003 ], [ 78.5662258, 30.3725003 ], [ 78.5659522, 30.3725605 ], [ 78.5658663, 30.3726068 ], [ 78.5655445, 30.3725605 ], [ 78.5655391, 30.3722735 ], [ 78.5652977, 30.3721115 ], [ 78.5650617, 30.3720606 ], [ 78.5649276, 30.3718894 ], [ 78.5649061, 30.3716719 ], [ 78.5648578, 30.3715052 ], [ 78.5646862, 30.3714636 ], [ 78.5642624, 30.3715052 ], [ 78.5638922, 30.3715145 ], [ 78.5637528, 30.371172 ], [ 78.5631734, 30.3712831 ], [ 78.562814, 30.3712553 ], [ 78.5623312, 30.3714081 ], [ 78.5615748, 30.3715932 ], [ 78.5606843, 30.3716395 ], [ 78.5602283, 30.3715886 ], [ 78.5596061, 30.371732 ], [ 78.5590482, 30.3717552 ], [ 78.5586029, 30.3718107 ], [ 78.5579807, 30.3717968 ], [ 78.5573637, 30.3717829 ], [ 78.5568997, 30.3718801 ], [ 78.5566745, 30.3717372 ], [ 78.5566288, 30.3715909 ], [ 78.5567737, 30.3712785 ], [ 78.5569185, 30.3708851 ], [ 78.5568541, 30.3706166 ], [ 78.5566235, 30.3702464 ], [ 78.5561407, 30.3699363 ], [ 78.5557169, 30.3695845 ], [ 78.5554111, 30.3695151 ], [ 78.5552287, 30.3692837 ], [ 78.5552502, 30.3689967 ], [ 78.5550356, 30.3687931 ], [ 78.5551214, 30.3684644 ], [ 78.5550463, 30.3681497 ], [ 78.554998, 30.3679183 ], [ 78.5548264, 30.3678396 ], [ 78.5547298, 30.367835 ], [ 78.5542846, 30.3679044 ], [ 78.5539412, 30.3677193 ], [ 78.5538715, 30.3675203 ], [ 78.5540807, 30.3667103 ], [ 78.554247, 30.3663585 ], [ 78.5544777, 30.3658679 ], [ 78.5549873, 30.3652477 ], [ 78.5551161, 30.3649144 ], [ 78.5550195, 30.3646645 ], [ 78.5546654, 30.3646413 ], [ 78.554526, 30.364558 ], [ 78.5543275, 30.3644654 ], [ 78.5537803, 30.3642572 ], [ 78.5539037, 30.3638822 ], [ 78.5539788, 30.3635768 ], [ 78.5538071, 30.3631417 ], [ 78.5536838, 30.3629334 ], [ 78.5531044, 30.3624751 ], [ 78.5530615, 30.3621558 ], [ 78.5531259, 30.3618132 ], [ 78.552981, 30.3614105 ], [ 78.5528308, 30.3609292 ], [ 78.5525519, 30.3605774 ], [ 78.5524821, 30.3608227 ], [ 78.5524177, 30.3611051 ], [ 78.5522997, 30.3620539 ], [ 78.5522944, 30.3625677 ], [ 78.5524231, 30.3630028 ], [ 78.5524553, 30.3632481 ], [ 78.5524499, 30.3636184 ], [ 78.5524392, 30.3641553 ], [ 78.5523212, 30.3644192 ], [ 78.5520476, 30.3645117 ], [ 78.5517955, 30.3646552 ], [ 78.5515165, 30.3646691 ], [ 78.5513288, 30.3644423 ], [ 78.5510874, 30.3646043 ], [ 78.5505938, 30.3644284 ], [ 78.5502398, 30.3641877 ], [ 78.5498697, 30.3640581 ], [ 78.5493278, 30.3640165 ], [ 78.5488611, 30.3639656 ], [ 78.5485929, 30.3639285 ], [ 78.5480887, 30.3639702 ], [ 78.5479063, 30.3640165 ], [ 78.5477078, 30.3642016 ], [ 78.5473967, 30.3644377 ], [ 78.5468066, 30.3644145 ], [ 78.5463613, 30.3640998 ], [ 78.5459483, 30.3641785 ], [ 78.5457069, 30.3644145 ], [ 78.5453904, 30.3641414 ], [ 78.5451114, 30.3640442 ], [ 78.5448968, 30.3640211 ], [ 78.5446769, 30.3643821 ], [ 78.5444891, 30.3646136 ], [ 78.5441941, 30.3647154 ], [ 78.5437328, 30.364359 ], [ 78.543545, 30.3641877 ], [ 78.543427, 30.3642849 ], [ 78.5433412, 30.3644886 ], [ 78.543207, 30.3649075 ], [ 78.5431775, 30.3652222 ], [ 78.5428825, 30.3654236 ], [ 78.5423863, 30.3657938 ], [ 78.5420698, 30.3661387 ], [ 78.5416782, 30.3662891 ], [ 78.5412705, 30.3664835 ], [ 78.5411417, 30.3667311 ], [ 78.5410666, 30.3668376 ], [ 78.5409459, 30.3670019 ], [ 78.5408145, 30.3670852 ], [ 78.5407475, 30.3670875 ], [ 78.5403693, 30.3673721 ], [ 78.5401681, 30.3675712 ], [ 78.5400715, 30.3677146 ], [ 78.5400206, 30.367747 ], [ 78.5398167, 30.3677424 ], [ 78.5397148, 30.3679437 ], [ 78.5396719, 30.3680919 ], [ 78.5396021, 30.3683673 ], [ 78.5394788, 30.3684598 ], [ 78.5392562, 30.3685246 ], [ 78.539063, 30.3686565 ], [ 78.5386714, 30.3687676 ], [ 78.5382557, 30.3688879 ], [ 78.537966, 30.3690592 ], [ 78.5376629, 30.3692328 ], [ 78.5374457, 30.3693207 ], [ 78.5373545, 30.3691471 ], [ 78.5373867, 30.3689134 ], [ 78.5373867, 30.3687537 ], [ 78.5373759, 30.3685802 ], [ 78.5373652, 30.3683117 ], [ 78.5372472, 30.3681543 ], [ 78.5371506, 30.368034 ], [ 78.5367885, 30.3678489 ], [ 78.536649, 30.3677632 ], [ 78.5364667, 30.3675989 ], [ 78.5364532, 30.3676637 ], [ 78.5365149, 30.367798 ], [ 78.5365954, 30.3679669 ], [ 78.5366893, 30.3681497 ], [ 78.536869, 30.3684459 ], [ 78.5368824, 30.3685778 ], [ 78.5368073, 30.3686727 ], [ 78.5367215, 30.3689574 ], [ 78.536523, 30.3691772 ], [ 78.5364318, 30.369529 ], [ 78.536464, 30.3698622 ], [ 78.5364747, 30.3698807 ], [ 78.5365391, 30.3700427 ], [ 78.5367751, 30.3702325 ], [ 78.5369414, 30.3704917 ], [ 78.5369468, 30.3708665 ], [ 78.536759, 30.3711581 ], [ 78.5364586, 30.3714173 ], [ 78.5362816, 30.3715052 ], [ 78.5360241, 30.3716904 ], [ 78.5356057, 30.3716071 ], [ 78.535257, 30.3717876 ], [ 78.5347635, 30.3717413 ], [ 78.5341412, 30.371695 ], [ 78.5334545, 30.3716256 ], [ 78.5329771, 30.3719403 ], [ 78.5326311, 30.3721139 ], [ 78.5324058, 30.3722041 ], [ 78.5320947, 30.3720768 ], [ 78.5319445, 30.3720977 ], [ 78.5317755, 30.3721439 ], [ 78.5315233, 30.3724656 ], [ 78.5309332, 30.3727456 ], [ 78.5303593, 30.3727849 ], [ 78.5300213, 30.3730094 ], [ 78.5298201, 30.3731251 ], [ 78.5292971, 30.3730881 ], [ 78.5286427, 30.373021 ], [ 78.5280633, 30.3728891 ], [ 78.5279748, 30.3728844 ], [ 78.5277066, 30.3732524 ], [ 78.5275698, 30.3737962 ], [ 78.5276502, 30.3741201 ], [ 78.5271406, 30.3744395 ], [ 78.5268992, 30.3746802 ], [ 78.5265505, 30.3750319 ], [ 78.5259246, 30.3753481 ], [ 78.5250914, 30.3752587 ], [ 78.5245389, 30.3755502 ], [ 78.5243779, 30.3761149 ], [ 78.5244369, 30.3762953 ], [ 78.5244852, 30.3764897 ], [ 78.5244477, 30.3768461 ], [ 78.5243618, 30.3771238 ], [ 78.5244209, 30.377295 ], [ 78.5243082, 30.3782172 ], [ 78.5242975, 30.3784473 ], [ 78.5239327, 30.3788176 ], [ 78.5237503, 30.3789518 ], [ 78.5232514, 30.379359 ], [ 78.5226828, 30.3794192 ], [ 78.5217977, 30.3795071 ], [ 78.5211593, 30.3795627 ], [ 78.5209501, 30.3794886 ], [ 78.5206658, 30.3795025 ], [ 78.5202098, 30.3794886 ], [ 78.5196894, 30.3793266 ], [ 78.5191905, 30.3793544 ], [ 78.519094, 30.3794053 ], [ 78.5188848, 30.3796969 ], [ 78.5183322, 30.3796506 ], [ 78.5178655, 30.3793266 ], [ 78.5174847, 30.3790166 ], [ 78.5172969, 30.378924 ], [ 78.5171199, 30.3788315 ], [ 78.5169429, 30.3787898 ], [ 78.5166103, 30.3788083 ], [ 78.5163206, 30.3788824 ], [ 78.5157841, 30.3788592 ], [ 78.5149691, 30.3786359 ] ] ] ] } },
{ "type": "Feature", "properties": { "natural": "water", "name": null }, "geometry": { "type": "MultiPolygon", "coordinates": [ [ [ [ 78.4831695, 30.2867947 ], [ 78.4833082, 30.28696 ], [ 78.4837439, 30.2872708 ], [ 78.4845349, 30.287643 ], [ 78.485449, 30.2879988 ], [ 78.4862542, 30.2884773 ], [ 78.4866663, 30.2887186 ], [ 78.4871162, 30.289009 ], [ 78.4878109, 30.2890416 ], [ 78.4883881, 30.289187 ], [ 78.4890319, 30.2892793 ], [ 78.4896223, 30.2892266 ], [ 78.4900514, 30.2894198 ], [ 78.4903714, 30.2896765 ], [ 78.4907097, 30.289913 ], [ 78.4912454, 30.290012 ], [ 78.4913975, 30.2900214 ], [ 78.4914458, 30.2900214 ], [ 78.4916416, 30.2900561 ], [ 78.4918883, 30.2901534 ], [ 78.4920707, 30.2902136 ], [ 78.4922826, 30.2903109 ], [ 78.4926152, 30.2904267 ], [ 78.4927601, 30.2904962 ], [ 78.4928352, 30.2906259 ], [ 78.4930336, 30.2908644 ], [ 78.4931839, 30.2910273 ], [ 78.4936649, 30.2913571 ], [ 78.4943302, 30.2916884 ], [ 78.4947007, 30.2918057 ], [ 78.4951097, 30.2923582 ], [ 78.4953779, 30.2922841 ], [ 78.4958017, 30.2923953 ], [ 78.4965205, 30.2926361 ], [ 78.4969497, 30.2928677 ], [ 78.4973574, 30.2929604 ], [ 78.4976739, 30.2931735 ], [ 78.4977168, 30.2934051 ], [ 78.4978938, 30.2933912 ], [ 78.4980708, 30.2931966 ], [ 78.4983605, 30.2930854 ], [ 78.4986663, 30.2930669 ], [ 78.4989881, 30.2931225 ], [ 78.4992027, 30.2932059 ], [ 78.4994709, 30.29328 ], [ 78.4999484, 30.2938219 ], [ 78.50012, 30.293859 ], [ 78.5003507, 30.2940628 ], [ 78.5004795, 30.2941925 ], [ 78.5004902, 30.2943314 ], [ 78.5011178, 30.2948687 ], [ 78.5014558, 30.2948734 ], [ 78.5015255, 30.294915 ], [ 78.5015362, 30.2950725 ], [ 78.5013324, 30.2951652 ], [ 78.5008335, 30.2951744 ], [ 78.5004687, 30.2951652 ], [ 78.5003936, 30.2946649 ], [ 78.5001093, 30.294299 ], [ 78.5000396, 30.2943036 ], [ 78.5000074, 30.2942203 ], [ 78.4999698, 30.2940582 ], [ 78.4997177, 30.293683 ], [ 78.4993207, 30.2934884 ], [ 78.4991544, 30.2934236 ], [ 78.4988004, 30.2934792 ], [ 78.4984302, 30.2938034 ], [ 78.498559, 30.2940535 ], [ 78.4986556, 30.2945491 ], [ 78.4986126, 30.2948595 ], [ 78.498527, 30.2950838 ], [ 78.498527, 30.2953254 ], [ 78.4985513, 30.2955977 ], [ 78.4984608, 30.2959468 ], [ 78.4982504, 30.2963491 ], [ 78.4979607, 30.2968073 ], [ 78.4977235, 30.2971565 ], [ 78.4973685, 30.297478 ], [ 78.4971673, 30.2975734 ], [ 78.4970878, 30.2976502 ], [ 78.4968651, 30.2977456 ], [ 78.4965642, 30.2978672 ], [ 78.4962961, 30.2979091 ], [ 78.4959084, 30.2979498 ], [ 78.4957262, 30.2979153 ], [ 78.4954644, 30.2980132 ], [ 78.4951275, 30.2980743 ], [ 78.494796, 30.2980069 ], [ 78.4945793, 30.2978662 ], [ 78.4940675, 30.2980383 ], [ 78.4937555, 30.2979875 ], [ 78.4934592, 30.297812 ], [ 78.493259, 30.2977743 ], [ 78.4927835, 30.2975847 ], [ 78.4925775, 30.2974778 ], [ 78.4923947, 30.2975576 ], [ 78.4920844, 30.2975693 ], [ 78.4919265, 30.2976011 ], [ 78.491757, 30.2975466 ], [ 78.4915504, 30.2975775 ], [ 78.4914438, 30.2976121 ], [ 78.4913083, 30.2977644 ], [ 78.4912374, 30.2979668 ], [ 78.4912201, 30.2982029 ], [ 78.4911345, 30.298521 ], [ 78.4911084, 30.2987775 ], [ 78.4911166, 30.2989223 ], [ 78.4910892, 30.2991455 ], [ 78.4912736, 30.299285 ], [ 78.4914082, 30.2995306 ], [ 78.491594, 30.2997248 ], [ 78.4917618, 30.3000223 ], [ 78.4919822, 30.3001628 ], [ 78.4923309, 30.3002415 ], [ 78.4926152, 30.3006769 ], [ 78.4927869, 30.3007881 ], [ 78.4930068, 30.3009548 ], [ 78.4932697, 30.301242 ], [ 78.4935003, 30.3016079 ], [ 78.4939402, 30.3019274 ], [ 78.4942353, 30.3021729 ], [ 78.4944338, 30.3023859 ], [ 78.4944767, 30.3027009 ], [ 78.4945786, 30.3030158 ], [ 78.4945732, 30.3033539 ], [ 78.4945196, 30.3035207 ], [ 78.4943694, 30.3037569 ], [ 78.4943479, 30.3039051 ], [ 78.4944177, 30.3040996 ], [ 78.4945142, 30.3042385 ], [ 78.4945679, 30.3044238 ], [ 78.4945571, 30.3045627 ], [ 78.4947503, 30.3048638 ], [ 78.4946644, 30.305049 ], [ 78.4945518, 30.3052482 ], [ 78.4944498, 30.3055261 ], [ 78.4943211, 30.3058039 ], [ 78.4942672, 30.3062367 ], [ 78.493951, 30.3066329 ], [ 78.4939671, 30.30711 ], [ 78.4938812, 30.3075036 ], [ 78.4937042, 30.3078 ], [ 78.493495, 30.3081103 ], [ 78.4934252, 30.3082539 ], [ 78.4932766, 30.308415 ], [ 78.4931656, 30.3086873 ], [ 78.4929079, 30.3093086 ], [ 78.4926503, 30.3098148 ], [ 78.4923793, 30.3103709 ], [ 78.4922016, 30.3107889 ], [ 78.4920994, 30.3110152 ], [ 78.4918995, 30.3115137 ], [ 78.4918729, 30.3117668 ], [ 78.4918595, 30.3119663 ], [ 78.4919662, 30.3121235 ], [ 78.4921127, 30.3122539 ], [ 78.4922105, 30.3123881 ], [ 78.4920861, 30.3126412 ], [ 78.4919973, 30.3128675 ], [ 78.4917529, 30.31304 ], [ 78.4914597, 30.3132011 ], [ 78.4913009, 30.3133157 ], [ 78.4911507, 30.3134546 ], [ 78.4908718, 30.3135796 ], [ 78.4905491, 30.3137303 ], [ 78.490389, 30.3139084 ], [ 78.4899272, 30.3142519 ], [ 78.4896562, 30.3146047 ], [ 78.4892608, 30.3149191 ], [ 78.4890609, 30.3150917 ], [ 78.4889499, 30.3152796 ], [ 78.4888521, 30.3154752 ], [ 78.4888255, 30.3156899 ], [ 78.4886567, 30.3160926 ], [ 78.4885412, 30.3163457 ], [ 78.488519, 30.3165604 ], [ 78.4884568, 30.3168327 ], [ 78.4885372, 30.3170571 ], [ 78.4885445, 30.317433 ], [ 78.4884401, 30.3177839 ], [ 78.488389, 30.3180523 ], [ 78.4884735, 30.318276 ], [ 78.488691, 30.3185601 ], [ 78.4890088, 30.3188596 ], [ 78.4890654, 30.3193329 ], [ 78.4891409, 30.3196512 ], [ 78.4893852, 30.3199235 ], [ 78.4896402, 30.3202794 ], [ 78.4898272, 30.3205959 ], [ 78.4898843, 30.3207054 ], [ 78.4899329, 30.320894 ], [ 78.4900618, 30.3211836 ], [ 78.4900261, 30.3214137 ], [ 78.4900666, 30.3217994 ], [ 78.4896955, 30.3220792 ], [ 78.4890977, 30.3222809 ], [ 78.4888461, 30.3225271 ], [ 78.4887683, 30.3229078 ], [ 78.4890037, 30.3233514 ], [ 78.4892411, 30.32362 ], [ 78.4894309, 30.3241885 ], [ 78.4892387, 30.3249693 ], [ 78.4890991, 30.3255004 ], [ 78.4890732, 30.3259931 ], [ 78.4892094, 30.326553 ], [ 78.4893392, 30.3273593 ], [ 78.4893651, 30.3276953 ], [ 78.4893456, 30.3280928 ], [ 78.4895013, 30.3286024 ], [ 78.4896311, 30.3291063 ], [ 78.4895597, 30.3294926 ], [ 78.4896998, 30.3297408 ], [ 78.4898507, 30.3300373 ], [ 78.4896112, 30.330263 ], [ 78.4891912, 30.3303819 ], [ 78.4886818, 30.3305581 ], [ 78.488324, 30.3310393 ], [ 78.4879868, 30.3315392 ], [ 78.4876396, 30.331721 ], [ 78.4874709, 30.331861 ], [ 78.4873477, 30.3320682 ], [ 78.4872828, 30.3323425 ], [ 78.4872633, 30.3326505 ], [ 78.4872114, 30.333076 ], [ 78.4873866, 30.333871 ], [ 78.4874774, 30.3341901 ], [ 78.4874904, 30.3345205 ], [ 78.4875812, 30.3348004 ], [ 78.4877693, 30.335086 ], [ 78.4880028, 30.3353211 ], [ 78.4880742, 30.3356066 ], [ 78.4881001, 30.3359426 ], [ 78.4880677, 30.3362001 ], [ 78.4881066, 30.3365416 ], [ 78.488178, 30.336816 ], [ 78.4881001, 30.3370847 ], [ 78.4879704, 30.3373814 ], [ 78.4878536, 30.3377285 ], [ 78.4877174, 30.3379973 ], [ 78.4875552, 30.3382324 ], [ 78.4873801, 30.338378 ], [ 78.4873023, 30.3386411 ], [ 78.4872828, 30.3388931 ], [ 78.4870752, 30.3391674 ], [ 78.4868936, 30.3393074 ], [ 78.4866665, 30.3394697 ], [ 78.4862838, 30.3400464 ], [ 78.4858881, 30.3404886 ], [ 78.4856286, 30.3409029 ], [ 78.4853756, 30.3412892 ], [ 78.4849734, 30.3417203 ], [ 78.484761, 30.3420843 ], [ 78.4846118, 30.3422355 ], [ 78.4843442, 30.3424808 ], [ 78.4841832, 30.3426177 ], [ 78.4840411, 30.3427873 ], [ 78.483809, 30.3429733 ], [ 78.4835414, 30.3432145 ], [ 78.4833638, 30.3434025 ], [ 78.4833046, 30.3434761 ], [ 78.4832099, 30.3435926 ], [ 78.4831435, 30.3436866 ], [ 78.4829967, 30.343846 ], [ 78.4829612, 30.3439339 ], [ 78.4827765, 30.3441301 ], [ 78.482696, 30.3442445 ], [ 78.4825823, 30.3443794 ], [ 78.482497, 30.3445184 ], [ 78.4824355, 30.3447841 ], [ 78.4824402, 30.3450048 ], [ 78.4824118, 30.3452133 ], [ 78.4823597, 30.3455484 ], [ 78.4825769, 30.345744 ], [ 78.4824414, 30.3462112 ], [ 78.4821534, 30.3465045 ], [ 78.481905, 30.3465213 ], [ 78.4818671, 30.3466643 ], [ 78.4818481, 30.3467951 ], [ 78.4818387, 30.3469586 ], [ 78.4818576, 30.3472815 ], [ 78.4820234, 30.3475962 ], [ 78.482156, 30.3478292 ], [ 78.4823502, 30.3480581 ], [ 78.4825112, 30.3482993 ], [ 78.4828475, 30.3487039 ], [ 78.4831128, 30.3491208 ], [ 78.4833354, 30.3495582 ], [ 78.4836527, 30.3500813 ], [ 78.4839132, 30.350674 ], [ 78.4841548, 30.3511522 ], [ 78.4846047, 30.3517285 ], [ 78.4848273, 30.3520187 ], [ 78.4851873, 30.3524969 ], [ 78.485372, 30.3527462 ], [ 78.4857556, 30.3530446 ], [ 78.4860493, 30.3535105 ], [ 78.4863287, 30.3539274 ], [ 78.4864803, 30.3541726 ], [ 78.4866929, 30.3543398 ], [ 78.4868871, 30.3545687 ], [ 78.4870529, 30.3548425 ], [ 78.487086, 30.355006 ], [ 78.4870908, 30.3552145 ], [ 78.487105, 30.3554106 ], [ 78.4868539, 30.3558234 ], [ 78.4867213, 30.3559624 ], [ 78.4865319, 30.356228 ], [ 78.4863708, 30.3563793 ], [ 78.4862003, 30.356555 ], [ 78.485973, 30.3567226 ], [ 78.4857646, 30.3568084 ], [ 78.4853478, 30.3569147 ], [ 78.4849878, 30.3569555 ], [ 78.4844621, 30.3570168 ], [ 78.4841258, 30.3570373 ], [ 78.4837753, 30.3570945 ], [ 78.4831169, 30.3571476 ], [ 78.4828849, 30.3571599 ], [ 78.4827144, 30.3572048 ], [ 78.4825566, 30.3572848 ], [ 78.4824192, 30.357391 ], [ 78.4823339, 30.3574441 ], [ 78.4823055, 30.3575545 ], [ 78.4823008, 30.3576771 ], [ 78.4823482, 30.3578528 ], [ 78.4824192, 30.3580817 ], [ 78.4824997, 30.3583188 ], [ 78.482675, 30.3588541 ], [ 78.4829165, 30.3591443 ], [ 78.4830349, 30.3592015 ], [ 78.4831154, 30.359365 ], [ 78.4831391, 30.3595407 ], [ 78.4831297, 30.3596633 ], [ 78.4831675, 30.3599004 ], [ 78.4832386, 30.3600434 ], [ 78.4834991, 30.3603377 ], [ 78.4838496, 30.3605584 ], [ 78.4839396, 30.3606687 ], [ 78.4839112, 30.3608158 ], [ 78.4838496, 30.3610406 ], [ 78.4837691, 30.3611346 ], [ 78.4835986, 30.3612899 ], [ 78.4834944, 30.3614125 ], [ 78.4834707, 30.3615147 ], [ 78.4831675, 30.3617517 ], [ 78.4830065, 30.3618866 ], [ 78.4826229, 30.3623075 ], [ 78.4825423, 30.3625037 ], [ 78.4823434, 30.362945 ], [ 78.4821729, 30.3634355 ], [ 78.4820971, 30.3638768 ], [ 78.482064, 30.364355 ], [ 78.4820592, 30.3647105 ], [ 78.4821019, 30.3649802 ], [ 78.4820356, 30.3650252 ], [ 78.4820071, 30.3651273 ], [ 78.4820545, 30.3653235 ], [ 78.4819977, 30.3655319 ], [ 78.4819266, 30.3656627 ], [ 78.4818082, 30.3658752 ], [ 78.481704, 30.3660591 ], [ 78.4815288, 30.3662144 ], [ 78.4813251, 30.3663411 ], [ 78.4811688, 30.3664064 ], [ 78.4810883, 30.3665045 ], [ 78.4809036, 30.3667334 ], [ 78.4800605, 30.3673504 ], [ 78.4797953, 30.3675466 ], [ 78.4792743, 30.3678327 ], [ 78.4790469, 30.3680206 ], [ 78.4789474, 30.368086 ], [ 78.4789806, 30.3682495 ], [ 78.4788811, 30.3682903 ], [ 78.4788006, 30.368131 ], [ 78.4787059, 30.3681882 ], [ 78.4786538, 30.3682617 ], [ 78.478668, 30.3683598 ], [ 78.4786301, 30.3685192 ], [ 78.4786585, 30.3685927 ], [ 78.4785591, 30.36865 ], [ 78.4785164, 30.368462 ], [ 78.4784312, 30.3685478 ], [ 78.4784075, 30.3686295 ], [ 78.4784264, 30.3687072 ], [ 78.4784454, 30.3689156 ], [ 78.4783317, 30.3689278 ], [ 78.4782512, 30.3686622 ], [ 78.4781091, 30.3687521 ], [ 78.4779954, 30.3688216 ], [ 78.4779812, 30.3690382 ], [ 78.477877, 30.3691158 ], [ 78.4778297, 30.3688992 ], [ 78.4776828, 30.3689319 ], [ 78.4775502, 30.3690096 ], [ 78.4772708, 30.3693038 ], [ 78.4768966, 30.3697247 ], [ 78.4765461, 30.3700761 ], [ 78.4764751, 30.3702273 ], [ 78.4765035, 30.3703785 ], [ 78.4764656, 30.3705788 ], [ 78.4765103, 30.3710551 ], [ 78.4760437, 30.3711142 ], [ 78.4758185, 30.3707632 ], [ 78.4757776, 30.3704684 ], [ 78.4758735, 30.3701742 ], [ 78.4760677, 30.3699004 ], [ 78.4762051, 30.3696634 ], [ 78.4766499, 30.3695268 ], [ 78.4765834, 30.3694561 ], [ 78.4766171, 30.3693487 ], [ 78.4766977, 30.3692752 ], [ 78.4769116, 30.369219 ], [ 78.4770116, 30.3691627 ], [ 78.4771097, 30.3690605 ], [ 78.477104, 30.3688623 ], [ 78.4771666, 30.368748 ], [ 78.4773134, 30.3686908 ], [ 78.4773939, 30.368605 ], [ 78.4774555, 30.368511 ], [ 78.4775739, 30.3684497 ], [ 78.4776544, 30.3683353 ], [ 78.4777397, 30.3682781 ], [ 78.4778486, 30.3681269 ], [ 78.4780475, 30.3680492 ], [ 78.4782038, 30.3679839 ], [ 78.4783128, 30.3678531 ], [ 78.4784738, 30.3677468 ], [ 78.4785164, 30.3676324 ], [ 78.478668, 30.3675384 ], [ 78.4788906, 30.3675016 ], [ 78.4791085, 30.3674485 ], [ 78.4795774, 30.3672565 ], [ 78.4799089, 30.366954 ], [ 78.4802073, 30.3667007 ], [ 78.4808515, 30.3662225 ], [ 78.4810835, 30.3659038 ], [ 78.4811262, 30.3658057 ], [ 78.4812635, 30.3657485 ], [ 78.4813725, 30.3656218 ], [ 78.4813677, 30.3653562 ], [ 78.4814056, 30.3652458 ], [ 78.4814672, 30.3651886 ], [ 78.481543, 30.3651151 ], [ 78.4814861, 30.3647963 ], [ 78.4814198, 30.3646533 ], [ 78.4813488, 30.3645062 ], [ 78.4813204, 30.3643468 ], [ 78.4813393, 30.3641833 ], [ 78.4814293, 30.3639831 ], [ 78.4815619, 30.3637665 ], [ 78.4818414, 30.3632924 ], [ 78.4818793, 30.3631003 ], [ 78.4819266, 30.3629655 ], [ 78.4818035, 30.3628429 ], [ 78.4817798, 30.3626958 ], [ 78.4817608, 30.3624873 ], [ 78.4818556, 30.3623116 ], [ 78.4822724, 30.3620092 ], [ 78.4824855, 30.3618334 ], [ 78.4825755, 30.3617354 ], [ 78.4826229, 30.3616209 ], [ 78.4825992, 30.361531 ], [ 78.4826513, 30.3614289 ], [ 78.4828028, 30.3613594 ], [ 78.4831012, 30.3611591 ], [ 78.483267, 30.3609957 ], [ 78.4832339, 30.3607872 ], [ 78.4830586, 30.3605584 ], [ 78.4828692, 30.3601905 ], [ 78.4827507, 30.3600802 ], [ 78.4825755, 30.3599494 ], [ 78.4824666, 30.3598391 ], [ 78.4824192, 30.3597328 ], [ 78.4824381, 30.3596143 ], [ 78.4823908, 30.3594263 ], [ 78.4822818, 30.3592097 ], [ 78.4821776, 30.358989 ], [ 78.4819171, 30.3584373 ], [ 78.4817987, 30.3581144 ], [ 78.4817893, 30.3579305 ], [ 78.4817466, 30.3576321 ], [ 78.4816898, 30.3571908 ], [ 78.4817499, 30.3570127 ], [ 78.4818018, 30.3567353 ], [ 78.4820502, 30.3565996 ], [ 78.4827321, 30.3565483 ], [ 78.4834138, 30.3565491 ], [ 78.4836696, 30.3565246 ], [ 78.4840911, 30.3565532 ], [ 78.4845932, 30.3565001 ], [ 78.4849674, 30.3564428 ], [ 78.4852705, 30.3563938 ], [ 78.4854836, 30.3563284 ], [ 78.4857868, 30.3562058 ], [ 78.4859573, 30.3559606 ], [ 78.4860425, 30.3557685 ], [ 78.4860946, 30.3556173 ], [ 78.4861515, 30.3554987 ], [ 78.4861515, 30.3552903 ], [ 78.4861704, 30.355135 ], [ 78.4861941, 30.3549879 ], [ 78.4861183, 30.3548693 ], [ 78.4860283, 30.354808 ], [ 78.4859383, 30.3546772 ], [ 78.4858673, 30.3543257 ], [ 78.4858152, 30.3541541 ], [ 78.4857015, 30.3540478 ], [ 78.4856399, 30.3539538 ], [ 78.485602, 30.3538353 ], [ 78.4855784, 30.3536636 ], [ 78.4855357, 30.3535124 ], [ 78.4853889, 30.3533203 ], [ 78.4850289, 30.3529606 ], [ 78.4846879, 30.352744 ], [ 78.4842853, 30.3522944 ], [ 78.4839822, 30.3520533 ], [ 78.4837549, 30.351853 ], [ 78.483627, 30.3516119 ], [ 78.4835275, 30.3513707 ], [ 78.4834659, 30.3512808 ], [ 78.4834375, 30.3511132 ], [ 78.4834233, 30.3510233 ], [ 78.4832575, 30.3508353 ], [ 78.4831012, 30.35068 ], [ 78.4830207, 30.350541 ], [ 78.4829686, 30.3503694 ], [ 78.482907, 30.3502181 ], [ 78.4827744, 30.3499157 ], [ 78.4826465, 30.3497113 ], [ 78.4825329, 30.3494456 ], [ 78.4824713, 30.3492903 ], [ 78.4822818, 30.3490573 ], [ 78.4821255, 30.3488244 ], [ 78.4820356, 30.3486772 ], [ 78.4818224, 30.3484933 ], [ 78.4816472, 30.348244 ], [ 78.4815524, 30.348154 ], [ 78.4814861, 30.3480028 ], [ 78.4814151, 30.3478434 ], [ 78.481344, 30.34759 ], [ 78.4812114, 30.3472017 ], [ 78.4811072, 30.3470464 ], [ 78.4811072, 30.346842 ], [ 78.4811641, 30.346654 ], [ 78.4812588, 30.3464292 ], [ 78.4813819, 30.3462984 ], [ 78.4814151, 30.346188 ], [ 78.4816093, 30.3456934 ], [ 78.4817135, 30.3453583 ], [ 78.4817987, 30.3449577 ], [ 78.4818366, 30.3447492 ], [ 78.4818224, 30.3445571 ], [ 78.4818366, 30.3444508 ], [ 78.4819598, 30.3441606 ], [ 78.482045, 30.3440748 ], [ 78.4821824, 30.343993 ], [ 78.4824239, 30.3438091 ], [ 78.4825944, 30.3436333 ], [ 78.4826892, 30.3435352 ], [ 78.4827555, 30.343384 ], [ 78.4828834, 30.3432491 ], [ 78.4829544, 30.3432082 ], [ 78.4830397, 30.3430692 ], [ 78.4831012, 30.3429507 ], [ 78.4832339, 30.3429098 ], [ 78.4833665, 30.3428567 ], [ 78.4835038, 30.3427177 ], [ 78.4836128, 30.3426073 ], [ 78.4835986, 30.342497 ], [ 78.4835938, 30.3424357 ], [ 78.4836412, 30.3424234 ], [ 78.4838259, 30.3424316 ], [ 78.4839443, 30.3423539 ], [ 78.4840343, 30.3422844 ], [ 78.4840485, 30.3420719 ], [ 78.4842096, 30.3418471 ], [ 78.4843801, 30.3416672 ], [ 78.4844843, 30.3414342 ], [ 78.4845506, 30.341238 ], [ 78.4846406, 30.3411113 ], [ 78.4848869, 30.340772 ], [ 78.4849863, 30.3406371 ], [ 78.4851663, 30.3403183 ], [ 78.4854884, 30.339979 ], [ 78.4859952, 30.3392391 ], [ 78.4861657, 30.3390838 ], [ 78.4862983, 30.3388099 ], [ 78.4864735, 30.3385728 ], [ 78.4865304, 30.3384052 ], [ 78.4867009, 30.338115 ], [ 78.4868382, 30.3378493 ], [ 78.4868761, 30.3374691 ], [ 78.4869377, 30.3372361 ], [ 78.486914, 30.3370767 ], [ 78.4868761, 30.3369377 ], [ 78.4869472, 30.336811 ], [ 78.4870419, 30.3366516 ], [ 78.4871177, 30.3364717 ], [ 78.4871319, 30.3362591 ], [ 78.487023, 30.3360384 ], [ 78.4869898, 30.3356991 ], [ 78.4869756, 30.3354947 ], [ 78.4868761, 30.3353394 ], [ 78.4868193, 30.3352494 ], [ 78.4868477, 30.3351186 ], [ 78.4868524, 30.3350041 ], [ 78.4867719, 30.3349183 ], [ 78.4867009, 30.3347466 ], [ 78.4867293, 30.3346526 ], [ 78.4867056, 30.3345422 ], [ 78.4866819, 30.334346 ], [ 78.4866156, 30.3342765 ], [ 78.4865919, 30.3341579 ], [ 78.4866014, 30.3339903 ], [ 78.4865493, 30.3337246 ], [ 78.4864735, 30.3334957 ], [ 78.4864025, 30.3327926 ], [ 78.4863978, 30.3325596 ], [ 78.4865919, 30.3319586 ], [ 78.4867814, 30.3316479 ], [ 78.4868193, 30.3314517 ], [ 78.4868477, 30.3312923 ], [ 78.4871177, 30.3309039 ], [ 78.4874161, 30.3307077 ], [ 78.4877334, 30.3303397 ], [ 78.4879608, 30.3301353 ], [ 78.488297, 30.3298982 ], [ 78.4884391, 30.329657 ], [ 78.4885812, 30.3294199 ], [ 78.488657, 30.3291337 ], [ 78.4886428, 30.3289253 ], [ 78.4886191, 30.3283979 ], [ 78.4884418, 30.3270704 ], [ 78.4882808, 30.3264898 ], [ 78.4881962, 30.3260591 ], [ 78.4881895, 30.3257295 ], [ 78.4882699, 30.3256081 ], [ 78.4883101, 30.3253942 ], [ 78.4883369, 30.3251629 ], [ 78.4883771, 30.3248796 ], [ 78.4883838, 30.3246368 ], [ 78.4883503, 30.3242552 ], [ 78.4883235, 30.3240702 ], [ 78.4882699, 30.3239141 ], [ 78.4881887, 30.3236589 ], [ 78.4880982, 30.3235172 ], [ 78.4880715, 30.3234478 ], [ 78.4880681, 30.3233091 ], [ 78.488038, 30.3231559 ], [ 78.4880212, 30.3229333 ], [ 78.4880112, 30.3227771 ], [ 78.4879978, 30.3226095 ], [ 78.4879207, 30.3224794 ], [ 78.4878638, 30.3224158 ], [ 78.4877767, 30.3223233 ], [ 78.4877365, 30.3222163 ], [ 78.4878504, 30.3221267 ], [ 78.4879509, 30.3220602 ], [ 78.4880078, 30.3219532 ], [ 78.487971, 30.3218491 ], [ 78.4879442, 30.3217653 ], [ 78.4879375, 30.3216583 ], [ 78.4879609, 30.321508 ], [ 78.4879609, 30.3214791 ], [ 78.4879676, 30.3211727 ], [ 78.4880112, 30.3210339 ], [ 78.4880648, 30.3208026 ], [ 78.4881384, 30.32058 ], [ 78.4882356, 30.3203025 ], [ 78.4882858, 30.319944 ], [ 78.4882925, 30.3198717 ], [ 78.4882624, 30.3197445 ], [ 78.4881954, 30.3196635 ], [ 78.4880648, 30.3195248 ], [ 78.4879241, 30.3193773 ], [ 78.487837, 30.319227 ], [ 78.487559, 30.3187297 ], [ 78.4873782, 30.3185418 ], [ 78.4872744, 30.318403 ], [ 78.4871404, 30.3182325 ], [ 78.4870466, 30.3180995 ], [ 78.4870064, 30.3179463 ], [ 78.48706, 30.3177988 ], [ 78.4870835, 30.3176427 ], [ 78.4870232, 30.3175502 ], [ 78.4869729, 30.3172813 ], [ 78.4869897, 30.3169546 ], [ 78.4870567, 30.3167493 ], [ 78.4872509, 30.3164689 ], [ 78.4873782, 30.316174 ], [ 78.4874552, 30.3160005 ], [ 78.4875523, 30.315775 ], [ 78.487616, 30.315642 ], [ 78.4878136, 30.3152546 ], [ 78.4879944, 30.3149568 ], [ 78.4880949, 30.3148094 ], [ 78.4881753, 30.3145752 ], [ 78.488259, 30.3144567 ], [ 78.4883528, 30.314367 ], [ 78.4886073, 30.314049 ], [ 78.4888819, 30.3138032 ], [ 78.489113, 30.3134708 ], [ 78.4894546, 30.3131238 ], [ 78.4897058, 30.3129648 ], [ 78.4897695, 30.3128636 ], [ 78.4897795, 30.3127884 ], [ 78.4896004, 30.3124451 ], [ 78.4896809, 30.3121996 ], [ 78.4897453, 30.3120097 ], [ 78.4899384, 30.3118893 ], [ 78.4900135, 30.3120977 ], [ 78.490051, 30.3122552 ], [ 78.4902281, 30.3124451 ], [ 78.4906067, 30.3121437 ], [ 78.4908412, 30.311895 ], [ 78.4909818, 30.311629 ], [ 78.4910354, 30.3114006 ], [ 78.4910823, 30.3110855 ], [ 78.491223, 30.3103424 ], [ 78.4913301, 30.3101371 ], [ 78.4914407, 30.3099376 ], [ 78.4915914, 30.309608 ], [ 78.4918995, 30.3090558 ], [ 78.4919765, 30.3086654 ], [ 78.492067, 30.308463 ], [ 78.4922378, 30.3081941 ], [ 78.4925157, 30.3075754 ], [ 78.4927468, 30.3070781 ], [ 78.4928875, 30.3065316 ], [ 78.4930081, 30.3060892 ], [ 78.4931253, 30.3058521 ], [ 78.4931655, 30.3056989 ], [ 78.4930215, 30.3051148 ], [ 78.4928138, 30.3046521 ], [ 78.4926832, 30.3043196 ], [ 78.4925928, 30.3038714 ], [ 78.4925425, 30.3035476 ], [ 78.4926062, 30.303111 ], [ 78.4925459, 30.3029519 ], [ 78.4924421, 30.3027438 ], [ 78.492422, 30.3026744 ], [ 78.492365, 30.3023592 ], [ 78.4921875, 30.3020238 ], [ 78.4920402, 30.3017548 ], [ 78.4917622, 30.3016103 ], [ 78.491434, 30.301457 ], [ 78.4912766, 30.3013009 ], [ 78.4911828, 30.3010869 ], [ 78.4910656, 30.3008903 ], [ 78.4907708, 30.3005404 ], [ 78.4903388, 30.30015 ], [ 78.4902618, 30.3000459 ], [ 78.4902149, 30.2997857 ], [ 78.4901479, 30.2996353 ], [ 78.4899671, 30.2992623 ], [ 78.4897912, 30.2990362 ], [ 78.4894288, 30.2989817 ], [ 78.4891498, 30.2988891 ], [ 78.4891927, 30.2987131 ], [ 78.4895092, 30.2986066 ], [ 78.4897023, 30.2986158 ], [ 78.4898257, 30.2986158 ], [ 78.4900725, 30.2986066 ], [ 78.4899867, 30.2984722 ], [ 78.4896572, 30.298001 ], [ 78.4896809, 30.2976988 ], [ 78.4898525, 30.2975042 ], [ 78.4898955, 30.2972309 ], [ 78.4901798, 30.297004 ], [ 78.490682, 30.296532 ], [ 78.4915852, 30.2962768 ], [ 78.49217, 30.2962722 ], [ 78.4927332, 30.2961054 ], [ 78.4928942, 30.2960498 ], [ 78.4932944, 30.2960173 ], [ 78.4937565, 30.2959132 ], [ 78.4948575, 30.2957997 ], [ 78.495174, 30.2957905 ], [ 78.4957928, 30.2956414 ], [ 78.4959134, 30.2954621 ], [ 78.4958196, 30.2951614 ], [ 78.495766, 30.2949011 ], [ 78.4957995, 30.294664 ], [ 78.4958397, 30.294583 ], [ 78.4957526, 30.2941261 ], [ 78.4954244, 30.2940278 ], [ 78.4951364, 30.2939815 ], [ 78.4948416, 30.2939063 ], [ 78.4946005, 30.2937791 ], [ 78.4944063, 30.2935593 ], [ 78.4941919, 30.293461 ], [ 78.4939039, 30.29338 ], [ 78.4935489, 30.2931949 ], [ 78.4930733, 30.2928768 ], [ 78.4928322, 30.2927207 ], [ 78.4925575, 30.292472 ], [ 78.4921624, 30.2921308 ], [ 78.4915595, 30.2918994 ], [ 78.4904321, 30.2913396 ], [ 78.4900295, 30.2910943 ], [ 78.4893001, 30.2908857 ], [ 78.4890348, 30.2906526 ], [ 78.4887506, 30.2904195 ], [ 78.4883859, 30.2903622 ], [ 78.4880923, 30.2903377 ], [ 78.4877702, 30.2902477 ], [ 78.4869224, 30.2899778 ], [ 78.4864393, 30.2899328 ], [ 78.4861456, 30.2899164 ], [ 78.4856246, 30.289806 ], [ 78.485331, 30.2897692 ], [ 78.4850137, 30.2896956 ], [ 78.4848621, 30.2895565 ], [ 78.4846679, 30.2895647 ], [ 78.4844027, 30.2895483 ], [ 78.4843742, 30.2894747 ], [ 78.4842179, 30.2894502 ], [ 78.4839717, 30.2894829 ], [ 78.4836685, 30.2894379 ], [ 78.4830859, 30.2891884 ], [ 78.4829817, 30.2889471 ], [ 78.4828965, 30.2888367 ], [ 78.4823565, 30.2882191 ], [ 78.4819918, 30.2877611 ], [ 78.4817219, 30.2873562 ], [ 78.4816366, 30.2872089 ], [ 78.4814603, 30.286646 ], [ 78.4811924, 30.2860214 ], [ 78.4811321, 30.2856396 ], [ 78.4812058, 30.2853215 ], [ 78.4813062, 30.285067 ], [ 78.4813799, 30.2848067 ], [ 78.4814402, 30.2846158 ], [ 78.4813652, 30.2843775 ], [ 78.4811321, 30.2841936 ], [ 78.4810147, 30.2841825 ], [ 78.4811005, 30.2840458 ], [ 78.481384, 30.2839564 ], [ 78.4815005, 30.2836556 ], [ 78.481755, 30.283297 ], [ 78.4820631, 30.2828227 ], [ 78.4822038, 30.2826897 ], [ 78.4826258, 30.282198 ], [ 78.4833961, 30.2818799 ], [ 78.4837377, 30.2818567 ], [ 78.4842803, 30.2817931 ], [ 78.4846085, 30.2817989 ], [ 78.4850104, 30.2818278 ], [ 78.4854926, 30.2818047 ], [ 78.4860218, 30.2817931 ], [ 78.4867586, 30.2817237 ], [ 78.4874284, 30.281689 ], [ 78.4879241, 30.281527 ], [ 78.4889355, 30.2814056 ], [ 78.4897393, 30.2812957 ], [ 78.4901546, 30.2813419 ], [ 78.4907039, 30.2817237 ], [ 78.4911192, 30.2819146 ], [ 78.4916282, 30.2819377 ], [ 78.492211, 30.2817873 ], [ 78.4926865, 30.2814981 ], [ 78.4932492, 30.2812899 ], [ 78.493497, 30.2813188 ], [ 78.4941401, 30.2815502 ], [ 78.4947965, 30.2815386 ], [ 78.495051, 30.2813651 ], [ 78.4949639, 30.2812263 ], [ 78.4945487, 30.2810759 ], [ 78.4941468, 30.2807404 ], [ 78.4936779, 30.2805321 ], [ 78.4933287, 30.280546 ], [ 78.492862, 30.2804997 ], [ 78.4924918, 30.2801754 ], [ 78.4923181, 30.2799074 ], [ 78.4920971, 30.2794157 ], [ 78.4918091, 30.279005 ], [ 78.4912598, 30.2784266 ], [ 78.4910589, 30.2782588 ], [ 78.4908981, 30.277987 ], [ 78.4908378, 30.2777845 ], [ 78.4907039, 30.2774837 ], [ 78.4905699, 30.277287 ], [ 78.4903757, 30.2770383 ], [ 78.4903221, 30.2767549 ], [ 78.4904895, 30.2763152 ], [ 78.4906168, 30.2760607 ], [ 78.4906436, 30.2758756 ], [ 78.4904694, 30.2755285 ], [ 78.4902886, 30.2752335 ], [ 78.4900206, 30.2742038 ], [ 78.4899604, 30.2736832 ], [ 78.4898499, 30.2733746 ], [ 78.4896924, 30.2732725 ], [ 78.4895763, 30.2731151 ], [ 78.4894448, 30.2730364 ], [ 78.4893268, 30.2729506 ], [ 78.4892598, 30.2728719 ], [ 78.4892571, 30.2728117 ], [ 78.4894312, 30.2726998 ], [ 78.4895736, 30.2726426 ], [ 78.4895575, 30.2725499 ], [ 78.4894931, 30.2724688 ], [ 78.4893885, 30.2722742 ], [ 78.4893107, 30.2721121 ], [ 78.4890695, 30.2718899 ], [ 78.4889567, 30.2717438 ], [ 78.4891015, 30.2712666 ], [ 78.4890479, 30.2711276 ], [ 78.4889623, 30.2708544 ], [ 78.4890211, 30.2705207 ], [ 78.4888886, 30.2703106 ], [ 78.4888217, 30.2699924 ], [ 78.4888217, 30.2695123 ], [ 78.4888886, 30.2692404 ], [ 78.4891231, 30.268228 ], [ 78.4894446, 30.2674586 ], [ 78.489458, 30.2670999 ], [ 78.4896255, 30.2667817 ], [ 78.4898532, 30.2661974 ], [ 78.4900675, 30.265804 ], [ 78.4906168, 30.2648263 ], [ 78.490878, 30.2646759 ], [ 78.4914474, 30.2644618 ], [ 78.4916416, 30.2641663 ], [ 78.4917247, 30.264069 ], [ 78.4917757, 30.2639532 ], [ 78.4915679, 30.2638646 ], [ 78.4915066, 30.2638366 ], [ 78.4912871, 30.2639383 ], [ 78.4912444, 30.2638765 ], [ 78.4912772, 30.2637878 ], [ 78.4912584, 30.2637063 ], [ 78.4912665, 30.2634031 ], [ 78.4910754, 30.2633913 ], [ 78.4910345, 30.2633193 ], [ 78.4911171, 30.2630837 ], [ 78.491178, 30.2630547 ], [ 78.4914072, 30.2630502 ], [ 78.4916709, 30.2629686 ], [ 78.4917622, 30.2629403 ], [ 78.492077, 30.2629981 ], [ 78.492499, 30.2628361 ], [ 78.4926263, 30.2624485 ], [ 78.4924588, 30.2619915 ], [ 78.4921306, 30.2614997 ], [ 78.4918292, 30.2610831 ], [ 78.4916215, 30.2608344 ], [ 78.4916215, 30.260574 ], [ 78.4916952, 30.2603137 ], [ 78.4916349, 30.2600359 ], [ 78.4916081, 30.2596136 ], [ 78.4919497, 30.2595268 ], [ 78.4922847, 30.2593417 ], [ 78.4926987, 30.2590767 ], [ 78.4928968, 30.2589274 ], [ 78.4930952, 30.2588418 ], [ 78.4934635, 30.258659 ], [ 78.4942472, 30.2584275 ], [ 78.4947563, 30.2584796 ], [ 78.4952252, 30.2585028 ], [ 78.4956539, 30.2584854 ], [ 78.4972146, 30.2584912 ], [ 78.4976229, 30.2584973 ], [ 78.4979327, 30.2589958 ], [ 78.497988, 30.2591276 ], [ 78.4985022, 30.2592148 ], [ 78.497827, 30.2601446 ], [ 78.4975467, 30.2605311 ], [ 78.4972528, 30.2608332 ], [ 78.4967935, 30.2611451 ], [ 78.4966329, 30.26096 ], [ 78.4963516, 30.2608443 ], [ 78.4961239, 30.2607517 ], [ 78.4958626, 30.260769 ], [ 78.4957019, 30.2608385 ], [ 78.495588, 30.2611104 ], [ 78.4954875, 30.2613823 ], [ 78.4954339, 30.2616311 ], [ 78.4953737, 30.2620129 ], [ 78.4952598, 30.2622848 ], [ 78.495233, 30.2625394 ], [ 78.4951526, 30.2627477 ], [ 78.495032, 30.2629212 ], [ 78.4949383, 30.2631469 ], [ 78.4948847, 30.2633841 ], [ 78.4947909, 30.2635923 ], [ 78.4946435, 30.2638238 ], [ 78.4944761, 30.2640089 ], [ 78.494322, 30.2641477 ], [ 78.4940742, 30.264275 ], [ 78.493679, 30.2646221 ], [ 78.4934044, 30.2648883 ], [ 78.4931632, 30.2651139 ], [ 78.4929757, 30.2653684 ], [ 78.492768, 30.2656924 ], [ 78.4926274, 30.2660337 ], [ 78.4924599, 30.266404 ], [ 78.4922858, 30.2667395 ], [ 78.4917298, 30.2672891 ], [ 78.4914552, 30.2676652 ], [ 78.4911002, 30.2680181 ], [ 78.4908791, 30.2684404 ], [ 78.490705, 30.2688916 ], [ 78.4906849, 30.2693139 ], [ 78.4906246, 30.269823 ], [ 78.4906246, 30.270361 ], [ 78.4905442, 30.27098 ], [ 78.4905911, 30.2713155 ], [ 78.4908055, 30.2716453 ], [ 78.4911203, 30.2724667 ], [ 78.4912877, 30.2728774 ], [ 78.4914485, 30.2732592 ], [ 78.4916695, 30.273589 ], [ 78.4918504, 30.2739592 ], [ 78.4921116, 30.2745492 ], [ 78.4924934, 30.2750988 ], [ 78.4926207, 30.2754632 ], [ 78.4925537, 30.2757177 ], [ 78.4927011, 30.2760012 ], [ 78.4930427, 30.2763078 ], [ 78.4934848, 30.2765739 ], [ 78.4937795, 30.2767532 ], [ 78.4943823, 30.2772044 ], [ 78.4949852, 30.2776382 ], [ 78.4954138, 30.2780894 ], [ 78.4956952, 30.2782572 ], [ 78.4964253, 30.2782225 ], [ 78.4967334, 30.2781473 ], [ 78.4969477, 30.2782977 ], [ 78.4970415, 30.278639 ], [ 78.4971219, 30.2788009 ], [ 78.497209, 30.2791769 ], [ 78.4975506, 30.2799983 ], [ 78.4975171, 30.2804206 ], [ 78.497647, 30.2807452 ], [ 78.4975719, 30.2808564 ], [ 78.4975841, 30.2811957 ], [ 78.497564, 30.2817452 ], [ 78.4975854, 30.2821789 ], [ 78.4975558, 30.2825078 ], [ 78.4973896, 30.2828113 ], [ 78.4969765, 30.2832305 ], [ 78.4965393, 30.283432 ], [ 78.4963033, 30.2835108 ], [ 78.4961021, 30.2834297 ], [ 78.4960082, 30.283381 ], [ 78.4959229, 30.2831565 ], [ 78.4958178, 30.2830475 ], [ 78.4957051, 30.2830058 ], [ 78.495655, 30.2830466 ], [ 78.4954986, 30.2830313 ], [ 78.4952866, 30.2832259 ], [ 78.4951325, 30.2834226 ], [ 78.4951901, 30.2836219 ], [ 78.4950614, 30.2838721 ], [ 78.4950265, 30.2839925 ], [ 78.4948871, 30.2840898 ], [ 78.4947449, 30.2841384 ], [ 78.4945491, 30.2841593 ], [ 78.4943694, 30.2840898 ], [ 78.4941092, 30.2841245 ], [ 78.4937192, 30.2839837 ], [ 78.4934977, 30.2837887 ], [ 78.4930963, 30.2837176 ], [ 78.4922925, 30.2836887 ], [ 78.4915825, 30.2836713 ], [ 78.4912877, 30.2840068 ], [ 78.4908925, 30.2843654 ], [ 78.4904772, 30.2846604 ], [ 78.4903902, 30.2846951 ], [ 78.4900954, 30.2848166 ], [ 78.4895931, 30.2849785 ], [ 78.4891577, 30.2849901 ], [ 78.4887156, 30.2849901 ], [ 78.4882132, 30.2851 ], [ 78.4876841, 30.2851579 ], [ 78.4868267, 30.2850942 ], [ 78.486331, 30.2850133 ], [ 78.4857684, 30.2849149 ], [ 78.4853933, 30.2847588 ], [ 78.4851588, 30.284458 ], [ 78.4849914, 30.2841514 ], [ 78.4848105, 30.2839895 ], [ 78.4840402, 30.2839721 ], [ 78.4837388, 30.2841688 ], [ 78.483558, 30.2843423 ], [ 78.4832431, 30.2845852 ], [ 78.483069, 30.2848513 ], [ 78.4830958, 30.2851983 ], [ 78.4830824, 30.2856032 ], [ 78.4829752, 30.2858751 ], [ 78.4830489, 30.2862279 ], [ 78.483069, 30.2866154 ], [ 78.4831695, 30.2867947 ] ] ] ] } },
{ "type": "Feature", "properties": { "natural": "water", "name": null }, "geometry": { "type": "MultiPolygon", "coordinates": [ [ [ [ 78.4765093, 30.3729024 ], [ 78.476821, 30.3728803 ], [ 78.4767841, 30.3726971 ], [ 78.476686, 30.3720605 ], [ 78.476588, 30.3712426 ], [ 78.4761677, 30.371291 ], [ 78.4764245, 30.3729026 ], [ 78.4765093, 30.3729024 ] ] ] ] } }
]
}
