{
"type": "FeatureCollection",
"name": "waterways",
"crs": { "type": "name", "properties": { "name": "urn:ogc:def:crs:OGC:1.3:CRS84" } },
"features": [
{ "type": "Feature", "properties": { "waterway": "river", "name": "Bhagirathi River" }, "geometry": { "type": "LineString", "coordinates": [ [ 78.4393882, 30.4494471 ], [ 78.4397542, 30.448424 ], [ 78.4398671, 30.4474637 ], [ 78.4392071, 30.4460931 ], [ 78.4368309, 30.443912 ], [ 78.4355756, 30.442728 ], [ 78.433907, 30.4422916 ], [ 78.4325822, 30.4410537 ], [ 78.4317561, 30.4395275 ], [ 78.4321423, 30.43888 ], [ 78.4383221, 30.4316277 ], [ 78.4400602, 30.429722 ], [ 78.4414601, 30.4288415 ], [ 78.4433861, 30.4281678 ], [ 78.4488364, 30.4265766 ], [ 78.4546137, 30.4240123 ], [ 78.46065, 30.4197362 ], [ 78.4666299, 30.4125583 ], [ 78.4695283, 30.407811 ], [ 78.4708786, 30.4048969 ], [ 78.4718656, 30.4021209 ], [ 78.474741, 30.3955691 ], [ 78.4757709, 30.3929039 ], [ 78.4768653, 30.3901275 ], [ 78.4776514, 30.3882381 ], [ 78.4783458, 30.3861849 ], [ 78.4788394, 30.3850373 ], [ 78.4794614, 30.3832103 ], [ 78.4795475, 30.3816128 ], [ 78.4793114, 30.3804281 ], [ 78.4789038, 30.3798635 ], [ 78.478193, 30.379218 ], [ 78.4777021, 30.3786602 ], [ 78.4774489, 30.3780454 ], [ 78.4767075, 30.3732018 ], [ 78.4763938, 30.3709671 ], [ 78.4763266, 30.3704662 ], [ 78.4763736, 30.3701602 ], [ 78.476584, 30.3696794 ], [ 78.4770842, 30.3692036 ], [ 78.4776528, 30.3686875 ], [ 78.4783118, 30.3682117 ], [ 78.4795078, 30.3674503 ], [ 78.4808335, 30.3665083 ], [ 78.4816116, 30.3658391 ], [ 78.4817456, 30.3651763 ], [ 78.4817766, 30.3645775 ], [ 78.4818252, 30.3637709 ], [ 78.4820437, 30.3629953 ], [ 78.4822766, 30.3623948 ], [ 78.4829042, 30.3616274 ], [ 78.4833964, 30.3611691 ], [ 78.483565, 30.3607668 ], [ 78.4832164, 30.3603231 ], [ 78.482664, 30.3593241 ], [ 78.4821458, 30.3582068 ], [ 78.4821034, 30.3575277 ], [ 78.4822737, 30.3570342 ], [ 78.4830698, 30.356802 ], [ 78.485481, 30.3565069 ], [ 78.4864435, 30.3561733 ], [ 78.4867387, 30.3553905 ], [ 78.486097, 30.3538634 ], [ 78.4847111, 30.3524004 ], [ 78.4837353, 30.3506532 ], [ 78.4828792, 30.3491846 ], [ 78.4819658, 30.3479003 ], [ 78.4816535, 30.3468815 ], [ 78.4820318, 30.3459323 ], [ 78.482172, 30.3452468 ], [ 78.4823976, 30.3443432 ], [ 78.483175, 30.3434939 ], [ 78.4845034, 30.3421844 ], [ 78.4851377, 30.3412509 ], [ 78.4865596, 30.3394068 ], [ 78.4869142, 30.3389121 ], [ 78.4873388, 30.3379498 ], [ 78.4878099, 30.3369132 ], [ 78.4879213, 30.3356868 ], [ 78.4874306, 30.3350187 ], [ 78.4871876, 30.3342803 ], [ 78.4870377, 30.3330066 ], [ 78.4871159, 30.332351 ], [ 78.4874928, 30.3314963 ], [ 78.4882918, 30.3304865 ], [ 78.489094, 30.3298239 ], [ 78.489319, 30.3295649 ], [ 78.4892967, 30.3290172 ], [ 78.4890222, 30.327168 ], [ 78.4888853, 30.3256446 ], [ 78.4888671, 30.3243824 ], [ 78.4886483, 30.3227434 ], [ 78.4890061, 30.3215901 ], [ 78.4894562, 30.3208368 ], [ 78.4889512, 30.3197773 ], [ 78.4885313, 30.31909 ], [ 78.4880336, 30.3181017 ], [ 78.4882054, 30.3172631 ], [ 78.4884089, 30.3161465 ], [ 78.488738, 30.3153264 ], [ 78.4895532, 30.3143199 ], [ 78.4912477, 30.3130135 ], [ 78.4917169, 30.3124051 ], [ 78.4915463, 30.3119407 ], [ 78.4919579, 30.3107981 ], [ 78.4930231, 30.3086314 ], [ 78.4943425, 30.3053631 ] ] } },
{ "type": "Feature", "properties": { "waterway": "dam", "name": "Tehri Dam" }, "geometry": { "type": "LineString", "coordinates": [ [ 78.4831709, 30.3784113 ], [ 78.4821498, 30.3785165 ], [ 78.4775585, 30.3779464 ], [ 78.477511, 30.3777039 ], [ 78.4771493, 30.3777621 ], [ 78.4771523, 30.3776594 ], [ 78.4777665, 30.3775449 ], [ 78.4777075, 30.3772857 ], [ 78.478142, 30.3772348 ], [ 78.4779328, 30.3770729 ], [ 78.4778362, 30.376934 ], [ 78.4777933, 30.3768137 ], [ 78.4777826, 30.3766378 ], [ 78.4780294, 30.3766378 ], [ 78.4782118, 30.3766147 ], [ 78.4783459, 30.3765777 ], [ 78.4784585, 30.3764342 ], [ 78.4784532, 30.3762953 ], [ 78.4784961, 30.3761195 ], [ 78.4785765, 30.3759806 ], [ 78.4788126, 30.3757631 ], [ 78.4787589, 30.3756798 ], [ 78.4786624, 30.3754947 ], [ 78.4785926, 30.3753373 ], [ 78.47848, 30.375217 ], [ 78.4783459, 30.3751198 ], [ 78.4781796, 30.3748051 ], [ 78.4781903, 30.3746755 ], [ 78.4782708, 30.374458 ], [ 78.4783459, 30.374134 ], [ 78.47826, 30.3737777 ], [ 78.4784853, 30.3737314 ], [ 78.4790432, 30.3737684 ], [ 78.4794778, 30.3741942 ], [ 78.4797567, 30.3746802 ], [ 78.480497, 30.3754808 ], [ 78.4811622, 30.3758835 ], [ 78.4819131, 30.376086 ], [ 78.482278, 30.3762306 ], [ 78.4823745, 30.3765453 ], [ 78.4825516, 30.3767535 ], [ 78.4827876, 30.3770081 ], [ 78.4828091, 30.3771886 ], [ 78.4828144, 30.3773228 ], [ 78.4828359, 30.3774477 ], [ 78.4831524, 30.3776652 ], [ 78.4836084, 30.377818 ], [ 78.4836087, 30.3783334 ], [ 78.4831709, 30.3784113 ] ] } },
{ "type": "Feature", "properties": { "waterway": "river", "name": "Bhillangana River" }, "geometry": { "type": "LineString", "coordinates": [ [ 78.9318351, 30.8240967 ], [ 78.9355343, 30.8230378 ], [ 78.9379021, 30.82275 ], [ 78.9386287, 30.8224692 ], [ 78.9391736, 30.8221573 ], [ 78.9399366, 30.8218141 ], [ 78.941862, 30.8207533 ], [ 78.9423706, 30.8204414 ], [ 78.9430972, 30.820067 ], [ 78.9435695, 30.8197862 ], [ 78.9441144, 30.8194118 ], [ 78.944732, 30.8188814 ], [ 78.9452406, 30.818507 ], [ 78.9457855, 30.8178518 ], [ 78.9465485, 30.8166974 ], [ 78.9467301, 30.8160422 ], [ 78.9475657, 30.8148878 ], [ 78.9480016, 30.8145134 ], [ 78.9484012, 30.8140766 ], [ 78.9486192, 30.8135774 ], [ 78.9487282, 30.813047 ], [ 78.9487282, 30.8124854 ], [ 78.9484355, 30.812362 ], [ 78.9482834, 30.8115286 ], [ 78.9483898, 30.8105524 ], [ 78.9489357, 30.8102123 ], [ 78.9491707, 30.8098758 ], [ 78.948867, 30.8094603 ], [ 78.9488785, 30.8090779 ], [ 78.9492042, 30.8084745 ], [ 78.9491809, 30.8080653 ], [ 78.9494634, 30.8074237 ], [ 78.9495666, 30.8069686 ], [ 78.9498368, 30.8062901 ], [ 78.9510063, 30.8053058 ], [ 78.9510441, 30.8050638 ], [ 78.9512599, 30.8046006 ], [ 78.95139, 30.8039558 ], [ 78.951996, 30.8032549 ], [ 78.9521258, 30.8025717 ], [ 78.9526388, 30.8021787 ], [ 78.9522875, 30.801766 ], [ 78.9528342, 30.8010183 ], [ 78.953002, 30.8003369 ], [ 78.9524517, 30.7997119 ], [ 78.9526746, 30.7991824 ], [ 78.9525002, 30.7976161 ], [ 78.9528675, 30.7971705 ], [ 78.952643, 30.7962561 ], [ 78.9529893, 30.7959068 ], [ 78.9527843, 30.7952029 ], [ 78.953224, 30.7948019 ], [ 78.9528634, 30.7936103 ], [ 78.9532944, 30.7933151 ], [ 78.9531423, 30.7917812 ], [ 78.9535143, 30.7911065 ], [ 78.9532128, 30.7899711 ], [ 78.9528693, 30.7899236 ], [ 78.9523696, 30.7891521 ], [ 78.9526263, 30.7887142 ], [ 78.9521071, 30.7873982 ], [ 78.9526154, 30.7860543 ], [ 78.9516968, 30.7845273 ], [ 78.9518586, 30.7841948 ], [ 78.9515021, 30.7839408 ], [ 78.9515357, 30.7834275 ], [ 78.9494673, 30.7824049 ], [ 78.9480133, 30.7818392 ], [ 78.9452145, 30.7803462 ], [ 78.9450944, 30.7801137 ], [ 78.943307, 30.7766524 ], [ 78.9387346, 30.7751332 ], [ 78.936379, 30.7729618 ], [ 78.9356066, 30.7729782 ], [ 78.9346529, 30.7714541 ], [ 78.9291598, 30.7631941 ], [ 78.9284873, 30.7624454 ], [ 78.926808, 30.7605758 ], [ 78.9228083, 30.7565561 ], [ 78.9216236, 30.7555946 ], [ 78.9197184, 30.7540482 ], [ 78.9169718, 30.7516879 ], [ 78.9142585, 30.7502451 ], [ 78.9116621, 30.7488805 ], [ 78.9103639, 30.7482904 ], [ 78.9094412, 30.7484194 ], [ 78.9089759, 30.7482296 ], [ 78.9083791, 30.7479861 ], [ 78.9075208, 30.7471747 ], [ 78.9065015, 30.7467782 ], [ 78.9047742, 30.7462802 ], [ 78.9039159, 30.7458838 ], [ 78.9008796, 30.7440027 ], [ 78.900429, 30.7432189 ], [ 78.899914, 30.7429515 ], [ 78.8988626, 30.7426749 ], [ 78.8983154, 30.7419095 ], [ 78.8983905, 30.7401851 ], [ 78.8973391, 30.7392814 ], [ 78.8964057, 30.7384791 ], [ 78.8950646, 30.7378797 ], [ 78.8946032, 30.7373541 ], [ 78.8941741, 30.7362106 ], [ 78.8933265, 30.735851 ], [ 78.8925969, 30.7355928 ], [ 78.8922429, 30.7349472 ], [ 78.8916458, 30.7338748 ], [ 78.891288, 30.733232 ], [ 78.8894641, 30.7314521 ], [ 78.8893676, 30.7307696 ], [ 78.8883912, 30.7298935 ], [ 78.8880908, 30.7287592 ], [ 78.8865673, 30.727385 ], [ 78.8857294, 30.7251298 ], [ 78.8843787, 30.7233546 ], [ 78.8832736, 30.7230964 ], [ 78.8823616, 30.7231702 ], [ 78.8818252, 30.7229857 ], [ 78.8805891, 30.7210882 ], [ 78.8797974, 30.720763 ], [ 78.8780047, 30.7176037 ], [ 78.8761164, 30.7162755 ], [ 78.8757196, 30.7155364 ], [ 78.8750864, 30.714357 ], [ 78.8743998, 30.7114053 ], [ 78.8730265, 30.7090439 ], [ 78.8713099, 30.7069776 ], [ 78.8707731, 30.7062853 ], [ 78.8695933, 30.7047637 ], [ 78.8685633, 30.702107 ], [ 78.866675, 30.6997453 ], [ 78.8654734, 30.6979741 ], [ 78.8642718, 30.6959076 ], [ 78.8641627, 30.6954855 ], [ 78.8635851, 30.6932505 ], [ 78.8622118, 30.6920696 ], [ 78.8601519, 30.690003 ], [ 78.85827, 30.6881162 ], [ 78.8581395, 30.687267 ], [ 78.8571883, 30.6861829 ], [ 78.8573394, 30.6844891 ], [ 78.8567201, 30.6834305 ], [ 78.8565131, 30.6820594 ], [ 78.8558681, 30.6814686 ], [ 78.8552502, 30.6799029 ], [ 78.8559735, 30.6777519 ], [ 78.8556722, 30.6763094 ], [ 78.8536102, 30.6754657 ], [ 78.8532966, 30.6749057 ], [ 78.8538537, 30.6742771 ], [ 78.8551862, 30.6731869 ], [ 78.8552716, 30.6712728 ], [ 78.8545919, 30.6700982 ], [ 78.8539091, 30.6699272 ], [ 78.8529849, 30.6691465 ], [ 78.8516961, 30.6655251 ], [ 78.8518109, 30.6631727 ], [ 78.8523112, 30.6621129 ], [ 78.8518171, 30.6598005 ], [ 78.8511463, 30.6593728 ], [ 78.8509734, 30.6581857 ], [ 78.8510545, 30.6579367 ], [ 78.8519669, 30.6551332 ], [ 78.8515045, 30.6541963 ], [ 78.8523418, 30.6526057 ], [ 78.8521486, 30.6505974 ], [ 78.8525616, 30.6495311 ], [ 78.852917, 30.6493656 ], [ 78.8528189, 30.6486899 ], [ 78.8534178, 30.6478659 ], [ 78.8533288, 30.6471849 ], [ 78.8542786, 30.646336 ], [ 78.8542022, 30.6452311 ], [ 78.8574749, 30.6405924 ], [ 78.8593172, 30.6399336 ], [ 78.8594545, 30.6394392 ], [ 78.8589008, 30.6383796 ], [ 78.8594092, 30.6376163 ], [ 78.8592377, 30.636912 ], [ 78.8594928, 30.6363428 ], [ 78.8602696, 30.6354867 ], [ 78.8599564, 30.6344664 ], [ 78.8600916, 30.6333248 ], [ 78.8594933, 30.6322216 ], [ 78.8584497, 30.6309995 ], [ 78.8589561, 30.6286513 ], [ 78.858854, 30.6279244 ], [ 78.8585055, 30.6269799 ], [ 78.8587734, 30.6256031 ], [ 78.8583399, 30.6243334 ], [ 78.8586568, 30.6239305 ], [ 78.8576813, 30.6231368 ], [ 78.8572069, 30.6218927 ], [ 78.8575206, 30.6207555 ], [ 78.8568689, 30.6190954 ], [ 78.8556173, 30.6186272 ], [ 78.8530289, 30.6170942 ], [ 78.8504874, 30.6126647 ], [ 78.849368, 30.6116696 ], [ 78.8476326, 30.611124 ], [ 78.8477517, 30.6096305 ], [ 78.8462478, 30.6046776 ], [ 78.8457897, 30.6037408 ], [ 78.8442815, 30.6031461 ], [ 78.8430056, 30.6015111 ], [ 78.8415462, 30.6003596 ], [ 78.8407497, 30.5989802 ], [ 78.8395596, 30.5983075 ], [ 78.8395113, 30.5973663 ], [ 78.8390577, 30.5967926 ], [ 78.8381509, 30.5956455 ], [ 78.8363003, 30.5946912 ], [ 78.834824, 30.5940375 ], [ 78.8339072, 30.5941107 ], [ 78.8327747, 30.5947409 ], [ 78.8326275, 30.593877 ], [ 78.8326536, 30.5927419 ], [ 78.8319112, 30.5918026 ], [ 78.8307175, 30.5908773 ], [ 78.8300666, 30.5904826 ], [ 78.8302605, 30.5896653 ], [ 78.8305533, 30.5889539 ], [ 78.8299767, 30.5882923 ], [ 78.8293218, 30.5883134 ], [ 78.827228, 30.5875278 ], [ 78.8265686, 30.5861063 ], [ 78.8258582, 30.5855875 ], [ 78.8219881, 30.5838742 ], [ 78.8229502, 30.5814369 ], [ 78.8221412, 30.5808283 ], [ 78.8225501, 30.5775764 ], [ 78.8221235, 30.5751342 ], [ 78.8212263, 30.5743656 ], [ 78.8202684, 30.573038 ], [ 78.8184389, 30.5721875 ], [ 78.8179517, 30.5709417 ], [ 78.8168709, 30.5702464 ], [ 78.8157865, 30.5698967 ], [ 78.8157747, 30.5689014 ], [ 78.8150421, 30.5670563 ], [ 78.8143816, 30.5665684 ], [ 78.8138082, 30.5657085 ], [ 78.8141263, 30.5645611 ], [ 78.8147581, 30.5640945 ], [ 78.8146379, 30.5637039 ], [ 78.8142978, 30.5634723 ], [ 78.8130322, 30.5634728 ], [ 78.8120838, 30.5627739 ], [ 78.810655, 30.5623824 ], [ 78.8091394, 30.5591448 ], [ 78.8090872, 30.5573768 ], [ 78.8085204, 30.5561378 ], [ 78.8072373, 30.5560583 ], [ 78.8061555, 30.5555819 ], [ 78.8058246, 30.554205 ], [ 78.8051836, 30.5506929 ], [ 78.8062688, 30.5484427 ], [ 78.8062688, 30.5483023 ], [ 78.8051298, 30.5473773 ], [ 78.8046439, 30.5438573 ], [ 78.8038933, 30.5432537 ], [ 78.802613, 30.5436234 ], [ 78.801689, 30.5431775 ], [ 78.8008847, 30.5418473 ], [ 78.8010956, 30.5408187 ], [ 78.8011949, 30.5403346 ], [ 78.8006804, 30.539357 ], [ 78.7982915, 30.5390072 ], [ 78.7979012, 30.5379669 ], [ 78.7981417, 30.5368111 ], [ 78.7978755, 30.536554 ], [ 78.7974114, 30.5367254 ], [ 78.7966856, 30.5366455 ], [ 78.7952901, 30.5355331 ], [ 78.7952913, 30.5354215 ], [ 78.7939631, 30.533859 ], [ 78.7918606, 30.5330332 ], [ 78.7909596, 30.5322295 ], [ 78.7912283, 30.5309157 ], [ 78.7914487, 30.5298384 ], [ 78.7909776, 30.529405 ], [ 78.7902368, 30.5285671 ], [ 78.7902795, 30.527605 ], [ 78.7907517, 30.5266906 ], [ 78.7906855, 30.5266063 ], [ 78.790131, 30.5263843 ], [ 78.7899167, 30.5262985 ], [ 78.7875987, 30.526559 ], [ 78.786355, 30.526171 ], [ 78.7851406, 30.5257228 ], [ 78.7843288, 30.5251786 ], [ 78.7832809, 30.5254188 ], [ 78.7812542, 30.526588 ], [ 78.7770564, 30.5249966 ], [ 78.7756188, 30.5249191 ], [ 78.7746949, 30.5243091 ], [ 78.774371, 30.5232043 ], [ 78.7740751, 30.5224553 ], [ 78.7732091, 30.5226091 ], [ 78.7708638, 30.5245302 ], [ 78.7690277, 30.5243685 ], [ 78.7649735, 30.5228368 ], [ 78.763532, 30.5227521 ], [ 78.7613416, 30.5229025 ], [ 78.7598298, 30.522353 ], [ 78.7579398, 30.5209628 ], [ 78.75628, 30.5165404 ], [ 78.7551299, 30.5140922 ], [ 78.7545347, 30.5139974 ], [ 78.7531222, 30.5140167 ], [ 78.7513425, 30.5146727 ], [ 78.7503623, 30.5148393 ], [ 78.7496459, 30.5142281 ], [ 78.7495607, 30.5135179 ], [ 78.7510943, 30.5125135 ], [ 78.7511587, 30.5119312 ], [ 78.7504667, 30.5113766 ], [ 78.7492382, 30.5111455 ], [ 78.7485409, 30.5105817 ], [ 78.7480581, 30.5099948 ], [ 78.7468725, 30.5095141 ], [ 78.7454134, 30.509833 ], [ 78.7441581, 30.5095095 ], [ 78.7428439, 30.5085759 ], [ 78.741256, 30.5070969 ], [ 78.7401777, 30.5066902 ], [ 78.7396574, 30.5059091 ], [ 78.7385845, 30.5041482 ], [ 78.737753, 30.503233 ], [ 78.7359559, 30.5032099 ], [ 78.7336761, 30.5034503 ], [ 78.7321258, 30.5027385 ], [ 78.7309188, 30.5031082 ], [ 78.7304628, 30.503136 ], [ 78.7296849, 30.5030204 ], [ 78.7290788, 30.5026091 ], [ 78.7284833, 30.5016384 ], [ 78.7282097, 30.5008296 ], [ 78.7273192, 30.5000114 ], [ 78.7243205, 30.4961565 ], [ 78.7229419, 30.4950518 ], [ 78.7213969, 30.4937205 ], [ 78.7198949, 30.4930133 ], [ 78.7179208, 30.4921997 ], [ 78.7176472, 30.4914139 ], [ 78.7177113, 30.4905598 ], [ 78.7175834, 30.4900327 ], [ 78.716644, 30.489588 ], [ 78.7155873, 30.4895094 ], [ 78.7141657, 30.4894215 ], [ 78.713361, 30.4887189 ], [ 78.7135917, 30.4880671 ], [ 78.7148875, 30.4874493 ], [ 78.7147397, 30.4866849 ], [ 78.7130123, 30.4856078 ], [ 78.7124169, 30.4846509 ], [ 78.7132859, 30.4824781 ], [ 78.7129104, 30.4810172 ], [ 78.7118861, 30.4796109 ], [ 78.710593, 30.4784237 ], [ 78.7071222, 30.4784283 ], [ 78.7062585, 30.4782387 ], [ 78.7058133, 30.4779059 ], [ 78.705427, 30.4767085 ], [ 78.7061298, 30.4749239 ], [ 78.7060386, 30.4732132 ], [ 78.7060225, 30.4715858 ], [ 78.7059012, 30.4668896 ], [ 78.705109, 30.46579 ], [ 78.7040027, 30.4649906 ], [ 78.7051433, 30.4636263 ], [ 78.7034512, 30.4561536 ], [ 78.7044965, 30.4548078 ], [ 78.7043879, 30.4539351 ], [ 78.7028601, 30.4530217 ], [ 78.6992935, 30.4532712 ], [ 78.6965366, 30.451168 ], [ 78.6952561, 30.4489835 ], [ 78.69423, 30.4489484 ], [ 78.6937158, 30.4484839 ], [ 78.6933705, 30.4475013 ], [ 78.6924968, 30.4469863 ], [ 78.6916648, 30.4473451 ], [ 78.6905118, 30.4487109 ], [ 78.689871, 30.4488649 ], [ 78.6894597, 30.4480326 ], [ 78.6896472, 30.4466799 ], [ 78.6901343, 30.4457569 ], [ 78.6900201, 30.4453651 ], [ 78.6889724, 30.445188 ], [ 78.6866892, 30.4463088 ], [ 78.6861282, 30.4459503 ], [ 78.6858976, 30.4448294 ], [ 78.686821, 30.442357 ], [ 78.6867085, 30.441412 ], [ 78.6855526, 30.4409845 ], [ 78.6854664, 30.4399213 ], [ 78.6849594, 30.4386572 ], [ 78.6841738, 30.4380416 ], [ 78.6833429, 30.438465 ], [ 78.6820229, 30.4415576 ], [ 78.681015, 30.4421405 ], [ 78.6797904, 30.442247 ], [ 78.6786514, 30.4427071 ], [ 78.6777187, 30.4428345 ], [ 78.6772939, 30.4422672 ], [ 78.6775649, 30.4413036 ], [ 78.6797522, 30.4376526 ], [ 78.6796461, 30.4369411 ], [ 78.6784032, 30.4366216 ], [ 78.6769378, 30.4369976 ], [ 78.6760787, 30.4381948 ], [ 78.6756186, 30.438711 ], [ 78.6744593, 30.4425433 ], [ 78.6734748, 30.4429226 ], [ 78.6721011, 30.4426866 ], [ 78.6712636, 30.441623 ], [ 78.6703074, 30.4399847 ], [ 78.6708766, 30.4378203 ], [ 78.6705324, 30.4372003 ], [ 78.6693094, 30.4368017 ], [ 78.6680847, 30.4354908 ], [ 78.6652076, 30.4320108 ], [ 78.6658233, 30.4307513 ], [ 78.6650888, 30.4298343 ], [ 78.6634916, 30.4287459 ], [ 78.6634988, 30.4275278 ], [ 78.6635265, 30.4270357 ], [ 78.6632541, 30.4269661 ], [ 78.6629794, 30.4267203 ], [ 78.6621113, 30.4268014 ], [ 78.6607246, 30.4280284 ], [ 78.6595287, 30.4299203 ], [ 78.6589685, 30.4307122 ], [ 78.6578859, 30.430782 ], [ 78.6571167, 30.4305043 ], [ 78.6564138, 30.4299145 ], [ 78.655785, 30.4294932 ], [ 78.6550325, 30.4294787 ], [ 78.6544724, 30.42991 ], [ 78.6533491, 30.4312409 ], [ 78.6525104, 30.4315515 ], [ 78.6520382, 30.4314706 ], [ 78.6519778, 30.4308761 ], [ 78.6522266, 30.4301915 ], [ 78.6510349, 30.4292415 ], [ 78.6494244, 30.4289747 ], [ 78.6480145, 30.4273277 ], [ 78.6469642, 30.4262019 ], [ 78.6459002, 30.4261472 ], [ 78.6456691, 30.4263008 ], [ 78.6452551, 30.4272876 ], [ 78.6450877, 30.4286886 ], [ 78.6444963, 30.4295483 ], [ 78.6434367, 30.4298576 ], [ 78.6411918, 30.4289507 ], [ 78.6397175, 30.427688 ], [ 78.6389837, 30.4262803 ], [ 78.6390534, 30.4243931 ], [ 78.6394177, 30.4230275 ], [ 78.6376282, 30.4204696 ], [ 78.6380975, 30.4193437 ], [ 78.6379486, 30.4183056 ], [ 78.6371468, 30.4177084 ], [ 78.6363434, 30.4180868 ], [ 78.6324182, 30.4181859 ], [ 78.6320635, 30.4179025 ], [ 78.6319049, 30.4169552 ], [ 78.6308508, 30.4162323 ], [ 78.6295226, 30.4158211 ], [ 78.6279272, 30.4158576 ], [ 78.6260082, 30.4164563 ], [ 78.6246651, 30.4167745 ], [ 78.6234809, 30.4165518 ], [ 78.6219454, 30.4158077 ], [ 78.6197722, 30.4156487 ], [ 78.6162862, 30.4158077 ], [ 78.6153898, 30.4149009 ], [ 78.6143419, 30.4127779 ], [ 78.6134042, 30.4093636 ], [ 78.6121612, 30.4085182 ], [ 78.6104697, 30.4073678 ], [ 78.6091022, 30.4059832 ], [ 78.6041888, 30.4051476 ], [ 78.6025009, 30.4027145 ], [ 78.6010812, 30.3985795 ], [ 78.6001192, 30.3980934 ], [ 78.5927558, 30.3981554 ], [ 78.5920614, 30.3978473 ], [ 78.5920231, 30.3970899 ], [ 78.5932712, 30.3955882 ], [ 78.5931327, 30.3940283 ], [ 78.5938556, 30.3933974 ], [ 78.5924226, 30.3923207 ], [ 78.5899619, 30.3912788 ], [ 78.5881303, 30.3880833 ], [ 78.5878983, 30.3868922 ], [ 78.5888213, 30.3858652 ], [ 78.590564, 30.3834525 ], [ 78.5907572, 30.3829268 ], [ 78.5886502, 30.3805099 ], [ 78.5843868, 30.3787558 ], [ 78.5820851, 30.3778088 ], [ 78.576227, 30.3731034 ], [ 78.5701001, 30.374557 ], [ 78.5681469, 30.3750204 ], [ 78.5607738, 30.3737133 ], [ 78.5573398, 30.3731034 ], [ 78.5540067, 30.3694434 ], [ 78.5501686, 30.3668291 ], [ 78.5449166, 30.367352 ], [ 78.5354224, 30.3758046 ], [ 78.5293623, 30.3759789 ], [ 78.5241103, 30.3812941 ], [ 78.5156261, 30.3809456 ], [ 78.508859, 30.3809456 ], [ 78.505526, 30.3853021 ], [ 78.5010819, 30.3841694 ], [ 78.4944158, 30.3829496 ], [ 78.4936115, 30.3829909 ], [ 78.4859317, 30.3833852 ], [ 78.4818498, 30.3838802 ], [ 78.4794614, 30.3832103 ] ] } },
{ "type": "Feature", "properties": { "waterway": "ditch", "name": null }, "geometry": { "type": "LineString", "coordinates": [ [ 78.477511, 30.3777039 ], [ 78.476821, 30.3728803 ] ] } },
{ "type": "Feature", "properties": { "waterway": "ditch", "name": null }, "geometry": { "type": "LineString", "coordinates": [ [ 78.4771493, 30.3777621 ], [ 78.4766538, 30.3742706 ] ] } },
{ "type": "Feature", "properties": { "waterway": "ditch", "name": null }, "geometry": { "type": "LineString", "coordinates": [ [ 78.4766538, 30.3742706 ], [ 78.4765093, 30.3729024 ] ] } },
{ "type": "Feature", "properties": { "waterway": "stream", "name": "Kirgani Gad" }, "geometry": { "type": "LineString", "coordinates": [ [ 78.3992099, 30.4002701 ], [ 78.400197, 30.3995669 ], [ 78.4005403, 30.3983083 ], [ 78.400712, 30.3971238 ], [ 78.4013986, 30.3955321 ], [ 78.4024286, 30.3946067 ], [ 78.4038019, 30.3942365 ], [ 78.4055614, 30.3948658 ], [ 78.406763, 30.395199 ], [ 78.4082651, 30.3950139 ], [ 78.4086513, 30.3945697 ], [ 78.4087801, 30.3934592 ], [ 78.41084, 30.3928299 ], [ 78.4134149, 30.3913861 ], [ 78.4169769, 30.3896833 ], [ 78.4186077, 30.3897203 ], [ 78.4214401, 30.3909049 ], [ 78.4220838, 30.3926818 ], [ 78.4244442, 30.3939404 ], [ 78.4266328, 30.3944586 ], [ 78.4278559, 30.3955876 ], [ 78.4286928, 30.3964945 ], [ 78.4283924, 30.3980677 ], [ 78.4301519, 30.399937 ], [ 78.4325122, 30.4007884 ], [ 78.4335637, 30.4018247 ], [ 78.4354949, 30.4023244 ], [ 78.4365678, 30.4030832 ], [ 78.436954, 30.4040456 ], [ 78.4377694, 30.4043417 ], [ 78.4407949, 30.403953 ], [ 78.4421253, 30.4033238 ], [ 78.4438419, 30.4036755 ], [ 78.4451723, 30.4045268 ], [ 78.4472322, 30.4048969 ], [ 78.4484767, 30.4070436 ], [ 78.4511375, 30.4132246 ], [ 78.4542274, 30.4174436 ], [ 78.4588622, 30.4189239 ], [ 78.46065, 30.4197362 ] ] } },
{ "type": "Feature", "properties": { "waterway": "stream", "name": null }, "geometry": { "type": "LineString", "coordinates": [ [ 78.5173988, 30.4284345 ], [ 78.5177851, 30.4278979 ], [ 78.5174846, 30.4266582 ], [ 78.5170984, 30.4246969 ], [ 78.5168195, 30.4231797 ], [ 78.5168409, 30.4219215 ], [ 78.516519, 30.4204412 ], [ 78.5149097, 30.419331 ], [ 78.5125064, 30.4177396 ], [ 78.5104465, 30.4164073 ], [ 78.5087136, 30.4154468 ], [ 78.5082042, 30.4146263 ], [ 78.5086065, 30.4122854 ], [ 78.507362, 30.4119569 ], [ 78.5072171, 30.4108188 ], [ 78.5065637, 30.4094921 ], [ 78.5054271, 30.4082665 ], [ 78.5025716, 30.4056557 ], [ 78.5011554, 30.4050449 ], [ 78.4983873, 30.402417 ], [ 78.4975397, 30.3997982 ], [ 78.4971964, 30.3991504 ], [ 78.4959626, 30.3967166 ], [ 78.495748, 30.3956802 ], [ 78.4948039, 30.3944956 ], [ 78.4945678, 30.3933481 ], [ 78.4948683, 30.3917563 ], [ 78.4951257, 30.3897573 ], [ 78.4946107, 30.387277 ], [ 78.4936115, 30.3829909 ] ] } },
{ "type": "Feature", "properties": { "waterway": "stream", "name": null }, "geometry": { "type": "LineString", "coordinates": [ [ 78.4429085, 30.3711651 ], [ 78.4437239, 30.3709707 ], [ 78.4440994, 30.3708966 ], [ 78.4443596, 30.3708689 ], [ 78.4445983, 30.3708665 ], [ 78.4447914, 30.3709198 ], [ 78.4454083, 30.3709985 ], [ 78.4456336, 30.3710031 ], [ 78.4459636, 30.3711257 ], [ 78.4461889, 30.3711651 ], [ 78.4464303, 30.3712229 ], [ 78.4467307, 30.3713664 ], [ 78.4468996, 30.371489 ], [ 78.4471115, 30.3715168 ], [ 78.4472752, 30.3715839 ], [ 78.4473878, 30.3717251 ], [ 78.4474549, 30.3718014 ], [ 78.447758, 30.3719658 ], [ 78.4478974, 30.3720028 ], [ 78.4481227, 30.3720953 ], [ 78.4482595, 30.3721856 ], [ 78.4483668, 30.3722342 ], [ 78.4484687, 30.3722643 ], [ 78.4486297, 30.3722851 ], [ 78.4491473, 30.3723985 ], [ 78.4493619, 30.3724656 ], [ 78.4495765, 30.3724911 ], [ 78.4497964, 30.3725142 ], [ 78.450003, 30.372542 ], [ 78.4501612, 30.3725258 ], [ 78.4503704, 30.3724679 ], [ 78.4506628, 30.3724795 ], [ 78.4508371, 30.3725628 ], [ 78.4510249, 30.3727618 ], [ 78.4513468, 30.3728382 ], [ 78.4516606, 30.3728197 ], [ 78.451843, 30.3728197 ], [ 78.4522828, 30.3727711 ], [ 78.4525725, 30.372815 ], [ 78.4531707, 30.3729238 ], [ 78.4535113, 30.3729608 ], [ 78.4540316, 30.3731344 ], [ 78.4541094, 30.3731483 ], [ 78.454375, 30.3731436 ], [ 78.454662, 30.3731066 ], [ 78.4548229, 30.3731598 ], [ 78.4551877, 30.3732339 ], [ 78.455759, 30.3733473 ], [ 78.4561264, 30.3734283 ], [ 78.4563652, 30.3735833 ], [ 78.4566468, 30.3737198 ], [ 78.4567648, 30.373905 ], [ 78.456805, 30.3740623 ], [ 78.4571806, 30.3742521 ], [ 78.4574005, 30.3743007 ], [ 78.4576982, 30.3742868 ], [ 78.458181, 30.3742335 ], [ 78.4584814, 30.3743562 ], [ 78.4587067, 30.3744881 ], [ 78.4589401, 30.3747612 ], [ 78.4591842, 30.3749046 ], [ 78.4594014, 30.3749949 ], [ 78.4597555, 30.3750411 ], [ 78.4605011, 30.3753373 ], [ 78.4608847, 30.3754901 ], [ 78.4612012, 30.3756567 ], [ 78.4613407, 30.3757562 ], [ 78.4616196, 30.3756197 ], [ 78.4622499, 30.3755873 ], [ 78.4625825, 30.3755294 ], [ 78.462891, 30.3754299 ], [ 78.4631163, 30.3753697 ], [ 78.4636313, 30.3753975 ], [ 78.4639317, 30.3754183 ], [ 78.4642696, 30.3754669 ], [ 78.4645298, 30.3755271 ], [ 78.4646907, 30.375622 ], [ 78.4649053, 30.3758395 ], [ 78.4653023, 30.3759529 ], [ 78.4655598, 30.3759089 ], [ 78.465777, 30.375821 ], [ 78.4665763, 30.3755988 ], [ 78.4670189, 30.3754692 ], [ 78.467271, 30.3753628 ], [ 78.467381, 30.3752772 ], [ 78.4674507, 30.3750342 ], [ 78.4674534, 30.3747935 ], [ 78.4675258, 30.3747218 ], [ 78.4676197, 30.374738 ], [ 78.4678826, 30.3746964 ], [ 78.4681803, 30.3747912 ], [ 78.4684002, 30.374981 ], [ 78.4685531, 30.3751152 ] ] } }
]
}
